Code,Name,SubBasin,City,State,Responsible,Latitude,Longitude,StartDate,EndDate,NYD,MD,N_YWOMD,YWMD
00047002,SALINÓPOLIS,32,SALINÓPOLIS,PARÁ,ANA,-0.6231,-47.3536,1977-12-09,2019-08-31,43,3.5,35,18.6
00047004,PRIMAVERA,32,PRIMAVERA,PARÁ,ANA,-0.9294,-47.0994,1982-02-18,2019-08-31,38,0.0,35,7.9
00047006,SÃO JOÃO DE PIRABAS,32,SÃO JOÃO DE PIRABAS,PARÁ,ANA,-0.7747,-47.1775,1989-08-30,2019-08-31,31,0.4,25,19.4
00047007,MAGALHÃES BARATA,31,MAGALHÃES BARATA,PARÁ,ANA,-0.7944,-47.5997,1995-11-17,2019-08-31,25,1.4,20,20.0
00048006,VIGIA,31,VIGIA,PARÁ,ANA,-0.8681,-48.1103,1982-02-11,2019-07-31,38,0.4,32,15.8
00049010,CHAVES,19,CHAVES,PARÁ,ANA,-0.1656,-49.9786,1999-09-02,2019-09-30,21,0.9,16,23.8
00051005,BOM JARDIM,19,GURUPÁ,PARÁ,ANA,-0.7947,-51.6239,1997-07-01,2019-09-30,23,0.0,21,8.7
00052003,SÃO PEDRO,19,MAZAGÃO,AMAPÁ,ANA,-0.4567,-52.0775,1997-05-20,2019-04-30,23,0.4,18,21.7
00061000,SANTA MARIA DO BOIAÇU,14,RORAINÓPOLIS,RORAIMA,ANA,-0.5067,-61.7858,1972-06-10,2019-08-31,48,0.9,42,12.5
00061001,TERRA PRETA,14,CARACARAÍ,RORAIMA,ANA,-0.8731,-61.9317,1989-04-25,2019-08-31,31,0.4,24,22.6
00063001,SAMAUMA,14,BARCELOS,AMAZONAS,ANA,-0.3672,-62.7753,1997-09-25,2016-04-30,20,0.9,16,20.0
00065001,TAPURUQUARA,14,SANTA IZABEL DO RIO,AMAZONAS,ANA,-0.4203,-65.0153,1982-08-05,2019-09-30,38,5.0,31,18.4
00067002,TUMBIRA,14,SÃO GABRIEL DA CACH,AMAZONAS,ANA,-0.3444,-67.5358,1999-12-26,2019-09-30,21,0.4,19,9.5
00145006,CÂNDIDO MENDES,32,CÂNDIDO MENDES,MARANHÃO,ANA,-1.4558,-45.7281,1986-06-17,2019-09-30,34,0.0,32,5.9
00146008,ALTO BONITO,32,VISEU,PARÁ,ANA,-1.8175,-46.3439,1976-01-23,2019-09-30,44,2.3,38,13.6
00146009,VISEU,32,VISEU,PARÁ,ANA,-1.2314,-46.1878,1980-08-29,2019-07-31,40,0.6,35,12.5
00147002,CAPANEMA,32,CAPANEMA,PARÁ,ANA,-1.2036,-47.1781,1966-03-18,2019-08-31,54,0.5,46,14.8
00147007,CASTANHAL,32,CASTANHAL,PARÁ,ANA,-1.2975,-47.9394,1972-07-01,2019-07-31,48,3.3,36,25.0
00147010,IGARAPÉ-AÇU,32,IGARAPÉ-AÇU,PARÁ,ANA,-1.1325,-47.6283,1980-08-31,2019-08-31,40,1.6,34,15.0
00147011,COLÔNIA SANTO ANTÔNIO,31,IRITUIA,PARÁ,ANA,-1.655,-47.4914,1982-06-11,2019-05-31,38,0.5,35,7.9
00147016,OUREM,31,OURÉM,PARÁ,ANA,-1.5517,-47.1172,1988-01-01,2019-08-31,32,2.7,26,18.8
00147017,TERRA ALTA,32,TERRA ALTA,PARÁ,ANA,-1.0386,-47.9133,1991-01-01,2019-07-31,29,0.7,27,6.9
00147019,NOVA TIMBOTEUA,32,NOVA TIMBOTEUA,PARÁ,ANA,-1.21111,-47.3864,1995-11-23,2019-08-31,25,0.5,22,12.0
00148002,BELÉM,31,BELÉM,PARÁ,INMET,-1.435,-48.4378,1949-04-01,2019-06-30,71,3.6,59,16.9
00148009,ACARÁ,31,ACARÁ,PARÁ,ANA,-1.9611,-48.2064,1980-08-17,2019-04-30,40,1.2,31,22.5
00148010,ABAETETUBA,31,ABAETETUBA,PARÁ,ANA,-1.7503,-48.8669,1980-10-18,2019-08-31,40,0.7,30,25.0
00148012,MOSQUEIRO,31,BELÉM,PARÁ,ANA,-1.0942,-48.3986,1982-04-23,2019-07-31,38,1.4,30,21.1
00148017,BUJARU,31,BUJARU,PARÁ,ANA,-1.5211,-48.0461,1994-11-25,2019-06-30,26,0.0,24,7.7
00151000,JARILÂNDIA,19,ALENQUER,PARÁ,ANA,-1.1233,-51.9964,1980-08-19,2019-09-30,40,0.7,31,22.5
00151001,ACAMPAMENTO IBDF,19,PORTEL,PARÁ,ANA,-1.7922,-51.4344,1980-06-20,2019-09-30,40,1.3,35,12.5
00153000,PRAINHA,18,PRAINHA,PARÁ,ANA,-1.8011,-53.48,1980-10-18,2019-04-30,40,0.8,33,17.5
00154001,BOCA DO INFERNO,17,ALENQUER,PARÁ,ANA,-1.5,-54.8714,1975-06-09,2019-08-31,45,1.7,38,15.6
00155002,VILA CURUA,17,ALENQUER,PARÁ,ANA,-1.88806,-55.1156,1994-05-02,2019-04-30,26,0.7,21,19.2
00158003,SÃO JOSÉ,16,URUCARÁ,AMAZONAS,ANA,-1.9328,-58.2558,2000-01-01,2019-08-31,20,1.7,15,25.0
00161002,MOURA,14,BARCELOS,AMAZONAS,ANA,-1.4589,-61.6331,1979-01-21,2019-08-31,41,1.3,35,14.6
00162000,CARVOEIRO,14,BARCELOS,AMAZONAS,ANA,-1.3944,-61.9792,1977-12-24,2019-08-31,43,0.8,37,14.0
00162002,UMANAPANA,14,BARCELOS,AMAZONAS,ANA,-1.8872,-62.4367,1982-01-01,2019-08-31,38,4.7,31,18.4
00166000,ACANAUI,12,JAPURÁ,AMAZONAS,ANA,-1.8211,-66.6,1973-07-09,2019-10-31,47,0.3,42,10.6
00239001,ITAREMA,35,ITAREMA,CEARÁ,FUNCEME-CE,-2.9167,-39.9167,1988-02-01,2020-02-29,33,1.3,29,12.1
00240002,CAMOCIM,35,CAMOCIM,CEARÁ,FUNCEME-CE,-2.9167,-40.8333,1974-01-01,2020-02-29,47,1.6,45,4.3
00240007,ACARAÚ,35,ACARAÚ,CEARÁ,FUNCEME-CE,-2.8833,-40.1167,1974-01-01,2020-02-29,47,0.0,46,2.1
00240009,ARANAÚ,35,ACARAÚ,CEARÁ,FUNCEME-CE,-2.8167,-40.2167,1974-03-01,2020-02-29,47,3.5,42,10.6
00240012,CRUZ,35,CRUZ,CEARÁ,FUNCEME-CE,-2.9333,-40.1833,1988-02-01,2020-02-29,33,1.3,30,9.1
00242002,BARRO DURO,33,TUTÓIA,MARANHÃO,ANA,-2.9022,-42.3131,1984-04-14,2019-10-31,36,0.3,33,8.3
00244011,GUIMARÃES,32,GUIMARÃES,MARANHÃO,ANA,-2.1294,-44.6069,1986-09-03,2019-09-30,34,1.5,26,23.5
00245001,ALTO TURI,32,MONÇÃO,MARANHÃO,ANA,-2.9539,-45.6647,1972-02-01,2019-09-30,48,1.0,43,10.4
00245003,MARACACUME,32,CÂNDIDO MENDES,MARANHÃO,ANA,-2.0522,-45.9583,1971-12-01,2019-09-30,49,0.1,40,18.4
00245007,BR-316 / RIO PARUÁ,32,TURIAÇU,MARANHÃO,ANA,-2.5047,-45.7842,1981-09-23,2019-09-30,39,5.8,32,17.9
00245009,PIMENTA,32,PINHEIRO,MARANHÃO,ANA,-2.5903,-45.3653,1984-10-01,2019-09-30,36,2.1,28,22.2
00245011,SANTA HELENA,32,SANTA HELENA,MARANHÃO,ANA,-2.2739,-45.2711,1986-03-20,2019-09-30,34,4.2,27,20.6
00248003,TOMÉ-AÇU,31,TOMÉ-AÇU,PARÁ,ANA,-2.4208,-48.1489,1984-04-22,2019-04-30,36,0.7,32,11.1
00248006,PA-256 / RIO ACARA-MIRIM,31,TOMÉ-AÇU,PARÁ,ANA,-2.7822,-48.3522,1990-03-01,2019-04-30,30,0.4,25,16.7
00249002,VILA ELIM,31,MOJU,PARÁ,ANA,-2.8044,-49.3778,1980-10-24,2019-06-30,40,0.9,34,15.0
00249004,VILA DO CARMO,29,MOCAJUBA,PARÁ,ANA,-2.4497,-49.4383,1994-12-17,2019-06-30,26,1.7,21,19.2
00250000,CIPOAL,19,PORTEL,PARÁ,ANA,-2.785,-50.4536,1977-11-25,2019-10-31,43,0.3,38,11.6
00250002,IRAPURU,19,PORTEL,PARÁ,ANA,-2.4533,-50.9228,1986-01-23,2019-10-31,34,0.2,31,8.8
00251000,MARACACUERA FLORESTAL,19,PORTEL,PARÁ,ANA,-2.245,-51.1794,1977-11-23,2019-10-31,43,0.8,34,20.9
00255001,CACHOEIRA DO ARUÃ,17,SANTARÉM,PARÁ,ANA,-2.6508,-55.7206,1997-07-03,2019-04-30,23,0.4,20,13.0
00259004,RIO PRETO DA EVA,15,RIO PRETO DA EVA,AMAZONAS,ANA,-2.7003,-59.6997,1994-02-17,2019-07-31,26,0.3,23,11.5
00260006,NOVO AIRÃO,14,NOVO AIRÃO,AMAZONAS,ANA,-2.62,-60.9478,1982-05-15,2019-08-31,38,0.6,33,13.2
00267001,ESPÍRITO SANTO,12,FONTE BOA,AMAZONAS,ANA,-2.75,-67.5667,1992-06-14,2019-11-30,28,0.2,21,25.0
00269001,IPIRANGA NOVO,11,SANTO ANTÔNIO DO IÇ,AMAZONAS,ANA,-2.9297,-69.6931,1996-05-01,2019-11-30,24,0.9,18,25.0
00338001,PICI,35,FORTALEZA,CEARÁ,FUNCEME-CE,-3.75,-38.5833,1919-04-01,2020-02-29,102,1.6,93,8.8
00338008,SÃO GONÇALO DO AMARANTE,35,SÃO GONÇALO DO AMAR,CEARÁ,FUNCEME-CE,-3.67,-38.98,1927-05-01,2020-02-29,94,5.1,86,8.5
00338009,CAUCAIA,35,CAUCAIA,CEARÁ,FUNCEME-CE,-3.75,-38.6833,1912-01-01,2020-02-29,109,1.5,100,8.3
00338014,UMARITUBA NOVA,35,SÃO GONÇALO DO AMAR,CEARÁ,ANA,-3.67,-38.9817,1962-03-01,2019-12-31,58,9.4,45,22.4
00338016,MARANGUAPE,35,MARANGUAPE,CEARÁ,FUNCEME-CE,-3.9,-38.6667,1910-10-01,2020-02-29,111,2.6,101,9.0
00338034,EUSÉBIO,35,EUSÉBIO,CEARÁ,FUNCEME-CE,-3.9,-38.5,1990-01-01,2020-02-29,31,0.3,27,12.9
00338038,FUND.MA.NILVA(ÁGUA FRIA),35,FORTALEZA,CEARÁ,FUNCEME-CE,-3.7833,-38.4667,1998-06-01,2020-02-29,23,0.2,20,13.0
00338040,ITAITINGA,35,ITAITINGA,CEARÁ,FUNCEME-CE,-3.95,-38.5167,1988-01-26,2020-02-29,33,6.3,27,18.2
00339000,AMONTADA,35,AMONTADA,CEARÁ,ANA,-3.3633,-39.8294,1978-01-01,2019-12-31,42,5.0,33,21.4
00339004,PENTECOSTE,35,PENTECOSTE,CEARÁ,FUNCEME-CE,-3.7833,-39.2667,1952-01-01,2020-02-29,69,4.6,62,10.1
00339023,MIRAIMA,35,MIRAIMA,CEARÁ,FUNCEME-CE,-3.5667,-39.9667,1921-11-01,2020-02-29,100,9.5,85,15.0
00339028,SÃO LUÍS DO CURU,35,SÃO LUÍS DO CURU,CEARÁ,ANA,-3.6739,-39.2417,1912-01-01,2019-12-31,108,7.3,89,17.6
00339030,TRAIRI,35,TRAIRI,CEARÁ,FUNCEME-CE,-3.2833,-39.25,1962-01-01,2020-02-29,59,1.6,51,13.6
00339036,PARACURU,35,PARACURU,CEARÁ,FUNCEME-CE,-3.4167,-39.0333,1977-01-01,2020-02-29,44,0.2,42,4.5
00339037,ITAPAJE,35,ITAPAJÉ,CEARÁ,FUNCEME-CE,-3.68,-39.58,1972-02-01,2020-02-29,49,2.2,46,6.1
00339045,FAZENDA SÃO JOÃO,35,APUIARES,CEARÁ,ANA,-3.9453,-39.4111,1992-08-21,2019-12-31,28,0.0,25,10.7
00339051,APUIARES,35,APUIARES,CEARÁ,FUNCEME-CE,-3.95,-39.4333,1981-12-01,2020-02-29,40,0.1,37,7.5
00339053,IRAUCUBA,35,IRAUÇUBA,CEARÁ,FUNCEME-CE,-3.7333,-39.75,1981-01-01,2020-02-29,40,1.2,37,7.5
00339070,TEJUÇUOCA,36,TEJUÇUOCA,CEARÁ,FUNCEME-CE,-3.9833,-39.5833,1988-01-01,2020-02-29,33,3.5,26,21.2
00339074,UMIRIM,35,UMIRIM,CEARÁ,FUNCEME-CE,-3.6667,-39.35,1989-01-01,2020-02-29,32,0.0,31,3.1
00339075,TURURU,35,TURURU,CEARÁ,FUNCEME-CE,-3.6,-39.45,1980-01-01,2019-04-30,40,8.8,32,20.0
00339078,SÃO LUÍS DO CURU,35,SÃO LUÍS DO CURU,CEARÁ,FUNCEME-CE,-3.6667,-39.2667,1974-01-01,2020-02-29,47,0.4,44,6.4
00339084,ITAPIPOCA,35,ITAPIPOCA,CEARÁ,FUNCEME-CE,-3.5,-39.5667,1974-01-01,2020-02-29,47,0.7,45,4.3
00340008,MARTINOPOLE,35,MARTINÓPOLE,CEARÁ,FUNCEME-CE,-3.2333,-40.6833,1962-01-01,2020-02-29,59,0.2,56,5.1
00340014,CARIRE,35,CARIRE,CEARÁ,FUNCEME-CE,-3.95,-40.4667,1913-09-01,2020-02-29,108,0.6,98,9.3
00340015,FRECHEIRINHA,35,FRECHEIRINHA,CEARÁ,FUNCEME-CE,-3.7667,-40.8167,1934-02-01,2020-02-29,87,5.1,71,18.4
00340017,GRANJA,35,GRANJA,CEARÁ,FUNCEME-CE,-3.1333,-40.8333,1974-01-01,2020-02-29,47,0.3,44,6.4
00340018,IBIAPINA,34,IBIAPINA,CEARÁ,FUNCEME-CE,-3.9167,-40.8833,1912-01-01,2020-02-29,109,2.6,100,8.3
00340020,MARCO,35,MARCO,CEARÁ,FUNCEME-CE,-3.15,-40.15,1962-01-01,2020-02-29,59,0.7,55,6.8
00340023,MUCAMBO,35,MUCAMBO,CEARÁ,FUNCEME-CE,-3.9,-40.7667,1933-04-01,2020-02-29,88,2.6,77,12.5
00340030,TIANGUÁ,34,TIANGUÁ,CEARÁ,FUNCEME-CE,-3.7333,-40.9833,1912-01-01,2020-02-29,109,2.2,103,5.5
00340031,UBAJARA,34,UBAJARA,CEARÁ,FUNCEME-CE,-3.85,-40.9167,1912-01-01,2020-02-29,109,1.1,104,4.6
00340039,URUOCA,35,URUOCA,CEARÁ,FUNCEME-CE,-3.3167,-40.5667,1941-01-01,2020-02-29,80,5.4,72,10.0
00340045,SOBRAL,35,SOBRAL,CEARÁ,FUNCEME-CE,-3.7,-40.35,1912-01-01,2019-07-31,108,8.0,90,16.7
00340064,SOBRAL,35,SOBRAL,CEARÁ,ANA,-3.6967,-40.34,1992-08-21,2019-12-31,28,0.3,26,7.1
00340066,ALCANTARAS,35,ALCANTARAS,CEARÁ,FUNCEME-CE,-3.5833,-40.55,1981-01-01,2020-02-29,40,5.7,32,20.0
00340067,BELA CRUZ,35,BELA CRUZ,CEARÁ,FUNCEME-CE,-3.0575,-40.1683,1980-07-01,2020-02-29,41,0.5,37,9.8
00340075,PESSOA ANTA,35,GRANJA,CEARÁ,FUNCEME-CE,-3.35,-40.9833,1998-06-01,2020-02-29,23,0.1,20,13.0
00340080,MORRINHOS,35,MORRINHOS,CEARÁ,FUNCEME-CE,-3.2333,-40.1167,1984-01-01,2020-02-29,37,0.2,34,8.1
00340098,RAFAEL ARRUDA,35,SOBRAL,CEARÁ,FUNCEME-CE,-3.8333,-40.6667,1998-01-01,2020-02-29,23,3.4,19,17.4
00340102,COREAU,35,COREAÚ,CEARÁ,FUNCEME-CE,-3.5667,-40.65,1976-01-01,2020-02-29,45,0.0,43,4.4
00340107,GROAIRAS,35,GROAIRAS,CEARÁ,FUNCEME-CE,-3.9167,-40.3833,1981-01-01,2020-02-29,40,4.0,33,17.5
00340108,MORAUJO,35,MORAÚJO,CEARÁ,FUNCEME-CE,-3.4667,-40.6833,1981-01-01,2020-02-29,40,8.0,32,20.0
00340109,PACUJÁ,37,PACUJÁ,CEARÁ,FUNCEME-CE,-3.9833,-40.7,1981-01-01,2020-02-29,40,0.2,38,5.0
00340113,MERUOCA,35,MERUOCA,CEARÁ,FUNCEME-CE,-3.55,-40.45,1979-01-01,2020-02-29,42,0.7,37,11.9
00341018,VIÇOSA DO CEARÁ,35,VIÇOSA DO CEARÁ,CEARÁ,FUNCEME-CE,-3.5642,-41.0942,1974-01-01,2020-02-29,47,0.4,45,4.3
00341027,TINGUIS,34,PIRACURUCA,PIAUÍ,ANA,-3.7233,-41.9756,1983-11-01,2019-11-30,37,0.4,34,8.1
00341037,SÍTIO VAMBIRA,35,VIÇOSA DO CEARÁ,CEARÁ,FUNCEME-CE,-3.6333,-41.15,1998-06-01,2020-02-29,23,0.0,20,13.0
00342002,ESPERANTINA,34,ESPERANTINA,PIAUÍ,ANA,-3.9033,-42.2294,1962-10-01,2019-10-31,58,2.0,51,12.1
00342007,LUZILÂNDIA,34,LUZILÂNDIA,PIAUÍ,ANA,-3.4622,-42.3733,1983-11-25,2019-11-30,37,0.2,35,5.4
00342009,BARRA DA ONÇA,34,SANTA QUITÉRIA DO M,MARANHÃO,ANA,-3.3647,-42.7239,1984-04-13,2019-10-31,36,0.2,34,5.6
00343001,IGUARÁ,33,VARGEM GRANDE,MARANHÃO,ANA,-3.5536,-43.8736,1971-12-12,2019-10-31,49,1.1,41,16.3
00343003,NINA RODRIGUES,33,NINA RODRIGUES,MARANHÃO,ANA,-3.4594,-43.8989,1968-06-01,2019-11-30,52,2.3,44,15.4
00343009,MATA ROMA,33,MATA ROMA,MARANHÃO,ANA,-3.6258,-43.1122,1984-04-13,2019-11-30,36,0.8,27,25.0
00343010,BREJO DO MEIO,33,CHAPADINHA,MARANHÃO,ANA,-3.94,-43.5206,1984-08-23,2019-08-31,36,2.2,30,16.7
00343011,GONÇALO,33,URBANO SANTOS,MARANHÃO,ANA,-3.0439,-43.2367,1984-08-23,2019-11-30,36,0.2,34,5.6
00344004,CANTANHEDE,33,CANTANHEDE,MARANHÃO,ANA,-3.6325,-44.3764,1968-06-01,2019-10-31,52,0.3,49,5.8
00344007,PIRITORÓ II,33,PIRAPEMAS,MARANHÃO,ANA,-3.7097,-44.2933,1972-02-01,2019-11-30,48,1.4,44,8.3
00344008,PEDRAS,33,PIRAPEMAS,MARANHÃO,ANA,-3.9436,-44.0175,1979-07-16,2019-09-30,41,1.1,36,12.2
00344010,PRESIDENTE JUSCELINO,33,PRESIDENTE JUSCELIN,MARANHÃO,ANA,-2.9278,-44.0792,1983-01-18,2019-11-30,37,0.5,34,8.1
00344011,SÃO MATEUS DO MARANHÃO,33,SÃO MATEUS DO MARAN,MARANHÃO,ANA,-4.0078,-44.4661,1983-01-16,2019-10-31,37,1.5,28,24.3
00344012,MIRANDA,33,MIRANDA DO NORTE,MARANHÃO,ANA,-3.5497,-44.5833,1984-04-16,2019-11-30,36,0.5,32,11.1
00344013,LAGO AÇÚ,33,VITÓRIA DO MEARIM,MARANHÃO,ANA,-3.8464,-44.8908,1984-08-29,2019-11-30,36,0.8,31,13.9
00345000,ARATOÍ GRANDE,33,BELA VISTA DO MARAN,MARANHÃO,ANA,-3.765,-45.2203,1970-02-01,2019-11-30,50,1.7,45,10.0
00345006,PINDARÉ-MIRIM,33,PINDARÉ-MIRIM,MARANHÃO,ANA,-3.6583,-45.4431,1972-02-01,2019-11-30,48,0.3,44,8.3
00345012,BOA VISTA DO PINDARÉ,33,CAJARI,MARANHÃO,ANA,-3.4028,-45.0106,1983-01-21,2019-11-30,37,0.5,34,8.1
00345013,NEWTON BELO,33,MONÇÃO,MARANHÃO,ANA,-3.4244,-45.6694,1984-04-17,2019-11-30,36,0.1,31,13.9
00346002,TUCUMÃ,33,BOM JARDIM,MARANHÃO,ANA,-4.2208,-46.1653,1984-04-20,2019-11-30,36,3.9,27,25.0
00348002,TAILÂNDIA,31,TAILÂNDIA,PARÁ,ANA,-2.9503,-48.9669,1994-08-07,2019-08-31,26,0.4,20,23.1
00349002,GOIANÉSIA,31,TUCURUÍ,PARÁ,ANA,-3.8336,-49.0858,1985-03-30,2019-08-31,35,0.9,27,22.9
00349003,JOANA PERES,29,BAIÃO,PARÁ,ANA,-3.0158,-49.7967,1994-07-25,2019-06-30,26,0.7,21,19.2
00360000,MANAUS,14,MANAUS,AMAZONAS,INMET,-3.1167,-59.95,1961-01-01,2019-06-30,59,1.6,49,16.9
00361000,BERURI,13,MANACAPURU,AMAZONAS,ANA,-3.8978,-61.3747,1980-07-04,2019-09-30,40,0.9,33,17.5
00437006,JAGUARUANA,36,JAGUARUANA,CEARÁ,FUNCEME-CE,-4.8333,-37.7833,1912-01-01,2020-02-29,109,0.1,106,2.8
00437010,RUSSAS,36,RUSSAS,CEARÁ,FUNCEME-CE,-4.9333,-37.9667,1962-01-01,2020-02-29,59,0.2,56,5.1
00437019,FORTIM,35,FORTIM,CEARÁ,FUNCEME-CE,-4.45,-37.7833,1988-01-01,2020-02-29,33,3.4,30,9.1
00437022,ICAPUI,36,ICAPUÍ,CEARÁ,FUNCEME-CE,-4.7,-37.3667,1986-03-01,2020-02-29,35,6.6,28,20.0
00437023,RETIRO GRANDE,36,ICAPUÍ,CEARÁ,FUNCEME-CE,-4.7,-37.5167,2000-01-01,2020-02-29,21,6.6,16,23.8
00438010,BATURITÉ,35,BATURITÉ,CEARÁ,FUNCEME-CE,-4.3333,-38.8667,1912-01-01,2020-02-29,109,7.5,98,10.1
00438022,CRISTAIS,35,CASCAVEL,CEARÁ,ANA,-4.4975,-38.3606,1932-01-01,2019-12-31,88,2.6,80,9.1
00438051,ACARAPÉ,35,ACARAPÉ,CEARÁ,FUNCEME-CE,-4.2167,-38.7,1912-01-01,2020-02-29,109,3.0,97,11.0
00438053,CAPISTRANO,35,CAPISTRANO,CEARÁ,FUNCEME-CE,-4.4667,-38.9,1974-01-01,2020-02-29,47,0.0,46,2.1
00438064,BARREIRA,35,BARREIRA,CEARÁ,FUNCEME-CE,-4.2833,-38.6333,1988-01-01,2020-02-29,33,4.4,26,21.2
00438067,BEBERIBE,35,BEBERIBE,CEARÁ,FUNCEME-CE,-4.2167,-38.1167,1982-01-01,2020-02-29,39,0.0,38,2.6
00438069,HORIZONTE,35,HORIZONTE,CEARÁ,FUNCEME-CE,-4.1,-38.4833,1988-02-01,2020-02-29,33,4.5,27,18.2
00438071,IBARETAMA,35,IBARETAMA,CEARÁ,FUNCEME-CE,-4.8167,-38.8167,1990-01-01,2020-02-29,31,1.2,27,12.9
00438072,IBICUITINGA,35,IBICUITINGA,CEARÁ,FUNCEME-CE,-4.9667,-38.6333,1988-01-01,2020-02-29,33,0.1,31,6.1
00438084,OCARA,35,OCARA,CEARÁ,FUNCEME-CE,-4.4833,-38.6,1988-01-01,2020-02-29,33,1.3,27,18.2
00438089,PINDORETAMA,35,PINDORETAMA,CEARÁ,FUNCEME-CE,-4.05,-38.3333,1988-02-01,2020-02-29,33,3.7,29,12.1
00438095,REDENÇÃO,35,REDENÇÃO,CEARÁ,FUNCEME-CE,-4.22,-38.73,1978-01-01,2020-02-29,43,7.7,36,16.3
00438100,GUARAMIRANGA,35,GUARAMIRANGA,CEARÁ,FUNCEME-CE,-4.2667,-38.9333,1974-01-01,2019-12-31,46,0.6,42,8.7
00438101,PACAJUS,35,PACAJUS,CEARÁ,FUNCEME-CE,-4.1833,-38.4667,1974-01-01,2020-02-29,47,0.2,45,4.3
00438103,CHOROZINHO,35,CHOROZINHO,CEARÁ,FUNCEME-CE,-4.3,-38.5,1988-01-01,2020-02-29,33,1.6,28,15.2
00438110,CASCAVEL,35,CASCAVEL,CEARÁ,FUNCEME-CE,-4.1333,-38.2333,1977-01-01,2020-02-29,44,4.5,40,9.1
00438111,GUAIUBA,35,GUAIUBA,CEARÁ,FUNCEME-CE,-4.03,-38.63,1974-01-01,2020-02-29,47,1.6,44,6.4
00438114,PALMÁCIA,35,PALMÁCIA,CEARÁ,FUNCEME-CE,-4.15,-38.8333,1979-01-01,2020-02-29,42,0.9,38,9.5
00439003,PARAMOTI,35,PARAMOTI,CEARÁ,FUNCEME-CE,-4.0833,-39.25,1935-02-01,2020-02-29,86,2.3,78,9.3
00439008,MULUNGU,35,MULUNGU,CEARÁ,FUNCEME-CE,-4.3,-38.9833,1916-05-01,2020-02-29,105,8.0,87,17.1
00439018,ARATUBA,35,ARATUBA,CEARÁ,FUNCEME-CE,-4.4167,-39.05,1935-01-01,2020-02-29,86,0.3,82,4.7
00439031,GENERAL SAMPAIO,35,GENERAL SAMPAIO,CEARÁ,FUNCEME-CE,-4.05,-39.45,1977-09-01,2020-02-29,44,8.1,35,20.5
00439054,CHORO,35,CHORO,CEARÁ,FUNCEME-CE,-4.85,-39.2667,1990-01-01,2020-02-29,31,0.7,26,16.1
00439063,MADALENA,36,MADALENA,CEARÁ,FUNCEME-CE,-4.85,-39.5667,1988-01-01,2020-02-29,33,2.4,28,15.2
00440000,RERIUTABA,35,RERIUTABA,CEARÁ,FUNCEME-CE,-4.15,-40.5833,1913-01-01,2020-02-29,108,1.6,103,4.6
00440004,CARNAUBAL,34,CARNAUBAL,CEARÁ,FUNCEME-CE,-4.1667,-40.95,1962-01-01,2020-02-29,59,2.6,51,13.6
00440005,CROATÁ,34,CROATÁ,CEARÁ,ANA,-4.4164,-40.9042,1962-01-01,2019-12-31,58,1.9,56,3.4
00440007,TAMBORIL,35,TAMBORIL,CEARÁ,FUNCEME-CE,-4.8333,-40.3333,1911-01-01,2020-02-29,110,0.8,105,4.5
00440009,CATUNDA,35,CATUNDA,CEARÁ,FUNCEME-CE,-4.6667,-40.2,1962-01-01,2020-02-29,59,0.6,55,6.8
00440014,IPUEIRAS,35,IPUEIRAS,CEARÁ,FUNCEME-CE,-4.5333,-40.7167,1911-01-01,2020-02-29,110,6.5,97,11.8
00440017,NOVA RUSSAS,35,NOVA RUSSAS,CEARÁ,FUNCEME-CE,-4.7167,-40.5667,1919-07-01,2020-02-29,102,1.2,97,4.9
00440022,GRAÇA,35,GRAÇA,CEARÁ,FUNCEME-CE,-4.05,-40.75,1933-01-01,2020-02-29,88,2.5,73,17.0
00440023,GUARACIABA DO NORTE,35,GUARACIABA DO NORTE,CEARÁ,FUNCEME-CE,-4.1833,-40.75,1912-01-01,2020-02-29,109,0.6,105,3.7
00440029,MONSENHOR TABOSA,35,MONSENHOR TABOSA,CEARÁ,FUNCEME-CE,-4.8,-40.0667,1974-01-01,2020-02-29,47,0.0,45,4.3
00440030,SÃO BENEDITO,35,SÃO BENEDITO,CEARÁ,FUNCEME-CE,-4.05,-40.8667,1974-01-01,2020-02-29,47,0.2,45,4.3
00440034,HIDROLÂNDIA,35,HIDROLÂNDIA,CEARÁ,FUNCEME-CE,-4.4167,-40.4,1979-01-01,2020-02-29,42,0.1,40,4.8
00440042,FAZENDA CAJAZEIRAS,35,HIDROLÂNDIA,CEARÁ,ANA,-4.3678,-40.5356,1992-08-27,2019-12-31,28,0.0,26,7.1
00440043,FAZENDA PARANÁ,35,SANTA QUITÉRIA,CEARÁ,ANA,-4.0969,-40.1264,1992-08-27,2019-12-31,28,0.0,26,7.1
00440044,ARARENDA,35,ARARENDA,CEARÁ,FUNCEME-CE,-4.7333,-40.8333,1990-01-01,2020-02-29,31,0.6,27,12.9
00440055,IPAPORANGA,34,IPAPORANGA,CEARÁ,FUNCEME-CE,-4.8833,-40.75,1989-01-01,2020-02-29,32,0.3,27,15.6
00440057,MATRIZ,35,IPUEIRAS,CEARÁ,FUNCEME-CE,-4.5667,-40.8167,1998-06-01,2020-02-29,23,0.0,19,17.4
00440069,VARJOTA,35,VARJOTA,CEARÁ,FUNCEME-CE,-4.1833,-40.4833,1988-01-01,2016-02-15,29,9.5,25,13.8
00440071,PIRES FERREIRA,35,PIRES FERREIRA,CEARÁ,FUNCEME-CE,-4.25,-40.65,1989-01-01,2020-02-29,32,0.1,29,9.4
00440077,SANTA QUITÉRIA,35,SANTA QUITÉRIA,CEARÁ,FUNCEME-CE,-4.3333,-40.15,1974-01-01,2020-02-29,47,1.6,43,8.5
00440078,IPÚ,35,IPÚ,CEARÁ,FUNCEME-CE,-4.3167,-40.7,1974-01-01,2020-02-29,47,0.1,45,4.3
00441014,SAUDOSO,34,PORANGA,CEARÁ,ANA,-4.6186,-41.125,1997-02-09,2019-12-31,23,0.0,22,4.3
00441015,SANTA TEREZA,35,CROATÁ,CEARÁ,FUNCEME-CE,-4.3667,-41.05,1994-01-01,2020-02-29,27,0.0,25,7.4
00442010,MIGUEL ALVES,34,MIGUEL ALVES,PIAUÍ,ANA,-4.1025,-42.5353,1962-11-01,2019-11-30,58,2.8,46,20.7
00442013,DUQUE BACELAR,34,DUQUE BACELAR,MARANHÃO,ANA,-4.1528,-42.9461,1984-04-12,2019-10-31,36,0.3,32,11.1
00443006,CODÓ,33,CODÓ,MARANHÃO,ANA,-4.4542,-43.8772,1965-12-01,2019-10-31,55,0.1,51,7.3
00443007,FAZENDA SOBRAL,33,CODÓ,MARANHÃO,ANA,-4.4644,-43.9311,1972-02-01,2019-07-31,48,1.6,39,18.8
00443011,PALMEIRA DO NORTE,33,CODÓ,MARANHÃO,ANA,-4.4206,-43.6492,1983-01-13,2019-09-30,37,1.5,32,13.5
00443012,ALDEIAS ALTAS,33,ALDEIAS ALTAS,MARANHÃO,ANA,-4.6242,-43.4658,1984-04-24,2019-09-30,36,0.6,30,16.7
00444001,COROATÁ,33,COROATA,MARANHÃO,ANA,-4.1628,-44.1658,1965-10-01,2019-10-31,55,2.4,43,21.8
00444005,PEDREIRAS II,33,PEDREIRAS,MARANHÃO,ANA,-4.5767,-44.5994,1968-06-01,2019-11-30,52,2.5,44,15.4
00444008,SANTA VITÓRIA,33,BARRA DO CORDA,MARANHÃO,ANA,-5.1014,-44.9608,1972-04-01,2019-11-30,48,6.5,42,12.5
00444013,PIRITORÓ BR-316,33,PERITORÓ,MARANHÃO,ANA,-4.3722,-44.3342,1984-04-23,2019-09-30,36,0.1,31,13.9
00445001,ESPERANTINA,33,SANTA LUZIA,MARANHÃO,ANA,-4.0303,-45.7711,1973-01-01,2019-10-31,47,2.7,36,23.4
00445007,ANGICO,33,LAGO DA PEDRA,MARANHÃO,ANA,-4.7428,-45.1806,1983-02-12,2019-11-30,37,0.7,32,13.5
00445008,ARAME,33,ARAME,MARANHÃO,ANA,-4.8611,-46.0078,1983-02-09,2019-07-31,37,0.8,29,21.6
00445009,LAGO DA PEDRA,33,LAGO DA PEDRA,MARANHÃO,ANA,-4.5606,-45.1256,1984-04-22,2019-11-30,36,0.2,34,5.6
00445010,SÃO JOÃO DO GRAJAÚ,33,VITORINO FREIRE,MARANHÃO,ANA,-4.2406,-45.3581,1984-08-29,2019-11-30,36,0.8,29,19.4
00446000,PONTE BR-222,33,SANTA LUZIA,MARANHÃO,ANA,-4.2989,-46.4936,1982-03-26,2019-10-31,38,2.4,30,21.1
00446001,FAZENDA PEDREIRAS,33,SANTA LUZIA,MARANHÃO,ANA,-4.4094,-46.7492,1984-04-18,2019-08-31,36,2.4,29,19.4
00447001,KM ZERO / PA-70,32,DOM ELISEU,PARÁ,ANA,-4.2867,-47.5592,1982-02-23,2019-04-30,38,0.1,35,7.9
00447002,RETA KM-32,32,IMPERATRIZ,MARANHÃO,ANA,-4.8297,-47.2692,1984-05-19,2019-04-30,36,2.0,30,16.7
00447004,AÇAILÂNDIA,32,AÇAILÂNDIA,MARANHÃO,ANA,-4.9308,-47.4967,1995-08-24,2019-04-30,25,0.7,20,20.0
00449001,NOVA JACUNDA,29,JACUNDÁ,PARÁ,ANA,-4.4628,-49.1197,1994-08-06,2019-08-31,26,1.0,20,23.1
00449002,NOVO REPARTIMENTO,29,JACUNDÁ,PARÁ,ANA,-4.24,-49.9542,1999-07-21,2019-08-31,21,2.5,17,19.0
00470005,SANTA TERESA NOVA (PARAÍSO),10,ATALAIA DO NORTE,AMAZONAS,ANA,-4.1344,-70.5489,1993-02-24,2019-10-31,27,1.7,22,18.5
00535038,FAZENDA POTENJI,38,IELMO MARINHO,RIO GRANDE DO NORTE,ANA,-5.8458,-35.5233,1972-01-20,2019-09-30,48,3.8,38,20.8
00536035,MENDUBIM DE BAIXO,37,AÇU,RIO GRANDE DO NORTE,ANA,-5.6319,-36.9161,1986-10-01,2019-11-30,34,5.6,26,23.5
00536036,PENDÊNCIAS,37,PENDÊNCIAS,RIO GRANDE DO NORTE,ANA,-5.2572,-36.7233,1986-09-19,2019-11-30,34,4.2,29,14.7
00537019,UPANEMA,37,UPANEMA,RIO GRANDE DO NORTE,ANA,-5.6436,-37.2553,1931-01-01,2019-11-30,89,3.7,72,19.1
00537034,AUGUSTO SEVERO,37,AUGUSTO SEVERO,RIO GRANDE DO NORTE,ANA,-5.8672,-37.3147,1986-09-26,2019-10-31,34,1.3,30,11.8
00537036,GOVERNADOR DIX-SEPT ROSADO,37,GOVERNADOR DIX-SEPT,RIO GRANDE DO NORTE,ANA,-5.45,-37.515,1986-09-01,2019-11-30,34,1.7,27,20.6
00537037,MOSSORÓ,37,MOSSORÓ,RIO GRANDE DO NORTE,ANA,-5.2194,-37.3622,1986-09-24,2019-11-30,34,1.6,28,17.6
00537041,QUIXERÉ,36,QUIXERÉ,CEARÁ,FUNCEME-CE,-5.0667,-37.9833,1981-01-01,2020-02-29,40,0.4,38,5.0
00538003,ALTO SANTO,36,ALTO SANTO,CEARÁ,FUNCEME-CE,-5.5167,-38.25,1961-01-01,2020-02-29,60,0.2,58,3.3
00538008,CASTANHÃO,36,ALTO SANTO,CEARÁ,ANA,-5.4669,-38.4075,1961-02-01,2019-12-31,59,1.7,53,10.2
00538009,LIMOEIRO DO NORTE,36,LIMOEIRO DO NORTE,CEARÁ,FUNCEME-CE,-5.1333,-38.1,1912-01-01,2020-02-29,109,4.4,95,12.8
00538010,SÃO JOÃO DO JAGUARIBE,36,SÃO JOÃO DO JAGUARI,CEARÁ,FUNCEME-CE,-5.2833,-38.2667,1911-01-01,2020-02-29,110,4.3,102,7.3
00538025,BANABUIU,36,BANABUIU,CEARÁ,FUNCEME-CE,-5.3167,-38.9167,1988-01-01,2020-02-29,33,0.4,30,9.1
00538029,JAGUARIBE,36,JAGUARIBE,CEARÁ,FUNCEME-CE,-5.9,-38.6167,1974-01-01,2020-02-29,47,0.1,44,6.4
00538030,IRACEMA,36,IRACEMA,CEARÁ,FUNCEME-CE,-5.8167,-38.3,1974-01-01,2020-02-29,47,0.0,46,2.1
00538032,MORADA NOVA,36,MORADA NOVA,CEARÁ,FUNCEME-CE,-5.19,-38.35,1974-01-01,2020-02-29,47,0.4,43,8.5
00538043,JAGUARIBE,36,JAGUARIBE,CEARÁ,ANA,-5.9022,-38.6314,1992-08-11,2019-12-31,28,0.3,26,7.1
00538044,PEIXE GORDO,36,TABULEIRO DO NORTE,CEARÁ,ANA,-5.2247,-38.2006,1992-08-13,2019-12-31,28,0.6,25,10.7
00538049,SÃO JOSÉ DO FAMA,36,IRACEMA,CEARÁ,FUNCEME-CE,-5.6833,-38.2833,1998-09-01,2020-02-29,23,8.9,18,21.7
00538054,JAGUARIBARA,36,JAGUARIBARA,CEARÁ,FUNCEME-CE,-5.46,-38.46,1980-01-01,2020-02-29,41,0.9,36,12.2
00538059,SÍTIO MALHADA,36,LIMOEIRO DO NORTE,CEARÁ,FUNCEME-CE,-5.1833,-38.0833,1988-01-01,2020-02-29,33,0.0,31,6.1
00538066,JAGUARETAMA,36,JAGUARETAMA,CEARÁ,FUNCEME-CE,-5.62,-38.77,1974-01-01,2020-02-29,47,0.1,45,4.3
00538069,TABULEIRO DO NORTE,36,TABULEIRO DO NORTE,CEARÁ,FUNCEME-CE,-5.25,-38.1333,1974-01-01,2020-02-29,47,0.6,44,6.4
00538079,POTIRETAMA,36,POTIRETAMA,CEARÁ,FUNCEME-CE,-5.7,-38.1667,1989-01-01,2020-02-29,32,0.0,30,6.2
00539012,QUIXERAMOBIM,36,QUIXERAMOBIM,CEARÁ,FUNCEME-CE,-5.2,-39.2833,1974-01-01,2020-02-29,47,0.0,45,4.3
00539023,SOLONÓPOLE,36,SOLONÓPOLE,CEARÁ,FUNCEME-CE,-5.7,-39.0167,1912-04-01,2020-02-29,109,0.2,104,4.6
00539029,BOA VIAGEM,36,BOA VIAGEM,CEARÁ,FUNCEME-CE,-5.1333,-39.7167,1910-12-01,2020-02-29,111,3.3,100,9.9
00539033,PEDRA BRANCA,36,PEDRA BRANCA,CEARÁ,FUNCEME-CE,-5.45,-39.7167,1974-01-01,2020-02-29,47,1.0,44,6.4
00539037,SENADOR POMPEU,36,SENADOR POMPEU,CEARÁ,ANA,-5.58,-39.3681,1910-12-01,2019-12-31,110,2.2,97,11.8
00539051,MOMBAÇA,36,MOMBAÇA,CEARÁ,FUNCEME-CE,-5.75,-39.6167,1974-01-01,2020-02-29,47,0.3,44,6.4
00539053,QUIXERAMOBIM,36,QUIXERAMOBIM,CEARÁ,ANA,-5.2014,-39.2917,1992-08-14,2019-12-31,28,0.4,25,10.7
00539058,DEPUTADO IRAPUAN PINHEIRO,36,DEPUTADO IRAPUAN PI,CEARÁ,FUNCEME-CE,-5.9167,-39.2667,1974-01-01,2020-02-29,47,0.4,44,6.4
00539060,BOA VISTA,36,MOMBAÇA,CEARÁ,FUNCEME-CE,-5.6511,-39.8442,1974-01-01,2020-02-29,47,4.5,38,19.1
00539062,AÇUDE TRAPIÁ,36,PEDRA BRANCA,CEARÁ,FUNCEME-CE,-5.45,-39.7333,1999-01-01,2020-02-29,22,4.4,18,18.2
00539073,SENADOR POMPEU,36,SENADOR POMPEU,CEARÁ,FUNCEME-CE,-5.5833,-39.3667,1974-01-01,2020-02-29,47,0.0,46,2.1
00540003,NOVO ORIENTE,34,NOVO ORIENTE,CEARÁ,FUNCEME-CE,-5.5386,-40.7739,1934-01-01,2020-02-29,87,2.9,74,14.9
00540019,INDEPENDÊNCIA,34,INDEPENDÊNCIA,CEARÁ,FUNCEME-CE,-5.3936,-40.3128,1974-01-01,2020-02-29,47,0.2,44,6.4
00540020,AEROPORTO(CRATEÚS),34,CRATEÚS,CEARÁ,FUNCEME-CE,-5.2108,-40.7036,1910-12-01,2020-02-29,111,1.6,95,14.4
00540024,MONTE NEBO,34,CRATEÚS,CEARÁ,FUNCEME-CE,-5.4333,-40.85,1998-06-01,2020-02-29,23,1.5,19,17.4
00540052,QUITERIANÓPOLIS,36,QUITERIANÓPOLIS,CEARÁ,FUNCEME-CE,-5.9,-40.7,1988-01-01,2020-02-29,33,0.6,30,9.1
00540114,CRATEÚS,34,CRATEÚS,CEARÁ,FUNCEME-CE,-5.2,-40.6667,1962-12-01,2020-02-29,59,4.8,53,10.2
00541002,FAZENDA BOA ESPERANÇA,34,CASTELO DO PIAUÍ,PIAUÍ,ANA,-5.2247,-41.7369,1967-03-01,2019-11-30,53,3.3,48,9.4
00542008,PRATA DO PIAUÍ,34,PRATA DO PIAUÍ,PIAUÍ,ANA,-5.6675,-42.2061,1962-10-01,2019-10-31,58,3.1,50,13.8
00542012,TERESINA - CHESF,34,TERESINA,PIAUÍ,ANA,-5.0878,-42.7992,1913-07-01,2019-08-31,107,4.5,91,15.0
00543002,LAGOA,33,PARNARAMA,MARANHÃO,ANA,-5.4844,-43.3586,1982-01-18,2019-11-30,38,0.0,35,7.9
00543004,MENDES,33,BURITI BRAVO,MARANHÃO,ANA,-5.7092,-43.5872,1970-05-01,2019-10-31,50,0.2,45,10.0
00543009,FAZENDA VENEZA,34,PALMEIRAIS,PIAUÍ,ANA,-5.5728,-43.0242,1962-10-01,2019-11-30,58,1.7,49,15.5
00543010,PALMEIRAIS,34,PALMEIRAIS,PIAUÍ,ANA,-5.9756,-43.0617,1962-10-01,2019-11-30,58,0.9,53,8.6
00543011,VEREDA GRANDE,33,PASSAGEM FRANCA,MARANHÃO,ANA,-5.97,-43.4158,1984-05-26,2019-10-31,36,0.7,30,16.7
00544006,FLORES,33,BARRA DO CORDA,MARANHÃO,ANA,-5.4197,-44.9283,1972-01-18,2019-11-30,48,1.0,44,8.3
00544009,GRAÇA ARANHA,33,GRAÇA ARANHA,MARANHÃO,ANA,-5.405,-44.3356,1984-05-13,2019-10-31,36,0.2,33,8.3
00545011,RIO CORDA II,33,BARRA DO CORDA,MARANHÃO,ANA,-5.7275,-45.3131,1982-02-01,2019-09-30,38,1.8,30,21.1
00546006,FORTALEZA,33,GRAJAU,MARANHÃO,ANA,-5.6044,-46.2386,1979-10-01,2019-10-31,41,1.3,38,7.3
00546007,SÍTIO NOVO,33,SÍTIO NOVO,MARANHÃO,ANA,-5.8842,-46.7019,1982-01-11,2019-09-30,38,1.1,29,23.7
00547005,BURITIRAMA,33,BURITIRANA,MARANHÃO,ANA,-5.5944,-47.0192,1982-01-13,2019-11-30,38,0.7,30,21.1
00548000,ARAGUATINS,28,ARAGUATINS,TOCANTINS,ANA,-5.6483,-48.125,1974-08-27,2019-11-30,46,4.5,35,23.9
00548001,SÃO SEBASTIÃO DO TOCANTINS,23,SÃO SEBASTIÃO DO TO,TOCANTINS,ANA,-5.2597,-48.2069,1984-01-29,2019-11-30,36,3.8,28,22.2
00634000,BAÍA DA TRAIÇÃO,38,BAÍA DA TRAIÇÃO,PARAÍBA,AESA-PB,-6.6714,-34.9539,1995-06-01,2018-12-31,24,4.6,21,12.5
00634002,CABEDELO/CAGEPA,38,CABEDELO,PARAÍBA,AESA-PB,-6.9714,-34.8325,1998-09-01,2016-08-31,19,0.0,17,10.5
00635013,ENGENHO OLHO D'ÁGUA,38,SÃO JOSÉ DE MIPIBU,RIO GRANDE DO NORTE,ANA,-6.0853,-35.2486,1970-01-01,2019-10-31,50,1.4,42,16.0
00635065,ALAGOINHA,38,ALAGOINHA,PARAÍBA,AESA-PB,-6.93333,-35.5333,1994-01-01,2018-12-31,25,0.0,25,0.0
00635066,BELÉM,38,GURINHÉM,PARAÍBA,AESA-PB,-6.7167,-35.5,1994-02-01,2018-12-31,25,0.3,23,8.0
00635067,DONA INÊS,38,DONA INÊS,PARAÍBA,AESA-PB,-6.6167,-35.6333,1994-01-01,2018-12-31,25,0.0,25,0.0
00635068,SOLÂNEA,38,SOLÂNEA,PARAÍBA,AESA-PB,-6.75,-35.65,1994-01-01,2018-11-30,25,0.0,24,4.0
00635078,SÃO JOSÉ DO CAMPESTRE,38,SÃO JOSÉ DO CAMPEST,RIO GRANDE DO NORTE,ANA,-6.3286,-35.6958,1998-07-22,2019-10-31,22,0.5,19,13.6
00635079,FAZENDA ALAGAMAR,38,BANANEIRAS,PARAÍBA,ANA,-6.5983,-35.5292,1998-07-24,2019-11-30,22,0.4,19,13.6
00635107,CAMPO DE SANTANA/ TACIMA,38,SALGADINHO,PARAÍBA,AESA-PB,-6.4864,-35.6328,1995-06-01,2018-12-31,24,0.0,23,4.2
00635109,DAMIÃO,38,DAMIÃO,PARAÍBA,AESA-PB,-6.6303,-35.9069,2000-01-01,2018-12-31,19,0.4,18,5.3
00635110,ARARA,38,ARARA,PARAÍBA,AESA-PB,-6.8314,-35.7625,1996-03-01,2018-12-31,23,0.4,21,8.7
00635111,BORBOREMA,38,BORBOREMA,PARAÍBA,AESA-PB,-6.8069,-35.5997,1996-04-01,2018-11-30,23,0.4,20,13.0
00635113,PILÕES,38,PILÕES,PARAÍBA,AESA-PB,-6.8689,-35.6136,1995-07-01,2018-11-30,24,0.0,22,8.3
00635115,ESPERANÇA/SÃO MIGUEL,38,ESPERANÇA,PARAÍBA,AESA-PB,-6.9936,-35.8331,1996-01-01,2018-11-30,23,0.0,22,4.3
00635116,REMÍGIO,38,REMÍGIO,PARAÍBA,AESA-PB,-6.9669,-35.7914,1995-05-01,2018-11-30,24,0.4,22,8.3
00635120,SERRA DA RAIZ,38,SERRA DA RAIZ,PARAÍBA,AESA-PB,-6.6853,-35.4436,1995-06-01,2018-11-30,24,3.5,18,25.0
00635124,PIRPIRITUBA,38,PIRPIRITUBA,PARAÍBA,AESA-PB,-6.7811,-35.4947,1996-03-01,2018-11-30,23,2.9,19,17.4
00635127,RIO TINTO,38,RIO TINTO,PARAÍBA,AESA-PB,-6.81,-35.0747,1996-04-01,2018-06-30,23,0.4,20,13.0
00635129,CAPIM,38,CAPIM,PARAÍBA,AESA-PB,-6.9228,-35.1731,1994-01-01,2018-11-30,25,0.0,24,4.0
00635130,CANGUARETAMA_Rua São José,38,CANGUARETAMA,RIO GRANDE DO NORTE,CEMADEN,-6.382,-35.129,1994-01-01,2018-11-30,25,0.3,24,4.0
00635131,CANGUARETAMA_Cunhau,38,CANGUARETAMA,RIO GRANDE DO NORTE,CEMADEN,-6.314,-35.044,1994-01-01,2018-11-30,25,0.0,24,4.0
00635132,GOIANINHA_Rua Tabelião Antonio,38,GOIANINHA,RIO GRANDE DO NORTE,CEMADEN,-6.262,-35.21,1994-01-01,2018-07-31,25,0.0,24,4.0
00635133,VÁRZEA_Várzea,38,VÁRZEA,RIO GRANDE DO NORTE,CEMADEN,-6.3469,-35.3761,1994-01-01,2018-12-31,25,0.3,24,4.0
00635134,ALAGOINHA_Residência Oficial da Prefeitura,38,ALAGOINHA,PARAÍBA,CEMADEN,-6.9504,-35.5466,1994-01-01,2018-12-31,25,0.0,25,0.0
00635135,MATARACA_Mataraca Baixa,38,MATARACA,PARAÍBA,CEMADEN,-6.602,-35.051,1994-01-01,2018-11-30,25,0.3,24,4.0
00635136,GUARABIRA,38,GUARABIRA,PARAÍBA,AESA-PB,-6.8453,-35.4964,1994-01-01,2018-05-31,25,3.4,20,20.0
00635137,JACARAÚ,38,JACARAÚ,PARAÍBA,AESA-PB,-6.6136,-35.2917,1994-01-01,2018-12-31,25,0.0,25,0.0
00635138,MAMANGUAPE,38,MAMANGUAPE,PARAÍBA,AESA-PB,-6.8356,-35.1214,1994-01-01,2018-01-31,25,0.0,24,4.0
00635141,OLIVEDOS,38,OLIVEDOS,PARAÍBA,AESA-PB,-6.6411,-35.2942,1994-01-01,2018-05-31,25,0.7,23,8.0
00636019,SANTA CRUZ,38,SANTA CRUZ,RIO GRANDE DO NORTE,ANA,-6.2428,-35.9947,1984-07-15,2019-11-30,36,2.0,28,22.2
00636045,SÍTIO VOLTA,37,JARDIM DO SERIDÓ,RIO GRANDE DO NORTE,ANA,-6.5936,-36.785,1988-07-14,2019-11-30,32,0.9,26,18.8
00636046,JUNCO DO SERIDÓ,37,JUNCO DO SERIDÓ,PARAÍBA,AESA-PB,-6.9833,-36.7,1994-01-01,2018-12-31,25,0.3,24,4.0
00636066,FREI MARTINHO,37,FREI MARTINHO,PARAÍBA,AESA-PB,-6.4039,-36.4539,1996-02-01,2018-12-31,23,0.4,21,8.7
00636067,NOVA FLORESTA,37,NOVA FLORESTA,PARAÍBA,AESA-PB,-6.4531,-36.2036,1996-01-01,2018-12-31,23,0.0,23,0.0
00636068,VÁRZEA,37,VÁRZEA,PARAÍBA,AESA-PB,-6.7722,-36.9925,1994-01-01,2018-11-30,25,0.0,24,4.0
00636069,SÃO JOSÉ DO SABUGI,37,SÃO JOSÉ DO SABUGI,PARAÍBA,AESA-PB,-6.7742,-36.8,1994-01-01,2018-10-31,25,0.0,24,4.0
00636070,TENÓRIO,37,TENÓRIO,PARAÍBA,AESA-PB,-6.9408,-36.6294,1998-09-01,2018-11-30,21,0.0,19,9.5
00636072,NOVA PALMEIRA,37,NOVA PALMEIRA,PARAÍBA,AESA-PB,-6.6797,-36.4206,1996-02-01,2018-12-31,23,1.1,21,8.7
00636073,CUBATI,37,CUBATI,PARAÍBA,AESA-PB,-6.8631,-36.3514,1996-02-01,2018-12-31,23,0.4,21,8.7
00636074,SÃO VICENTE DO SERIDÓ,37,SÃO VICENTE DO SERI,PARAÍBA,AESA-PB,-6.9356,-36.3772,1996-02-01,2018-12-31,23,7.3,20,13.0
00636075,ALGODÃO DE JANDAÍRA,37,ALGODÃO DE JANDAÍRA,PARAÍBA,AESA-PB,-6.9061,-36.0075,1994-01-01,2018-12-31,25,1.0,24,4.0
00636076,CUITÉ,37,CUITÉ,PARAÍBA,AESA-PB,-6.485,-36.1492,1994-01-01,2018-10-31,25,2.4,22,12.0
00636077,NAZAREZINHO,37,NAZAREZINHO,PARAÍBA,AESA-PB,-6.9886,-36.2436,1994-01-01,2018-11-30,25,0.3,23,8.0
00636078,OLHO D'ÁGUA,37,OLHO D'ÁGUA,PARAÍBA,AESA-PB,-6.7553,-36.4644,1994-01-01,2018-11-30,25,2.0,22,12.0
00636079,PEDRA LAVRADA,37,PEDRA LAVRADA,PARAÍBA,AESA-PB,-6.505,-36.3469,1994-01-01,2018-12-31,25,0.3,24,4.0
00636080,POMBAL,37,POMBAL,PARAÍBA,AESA-PB,-6.8681,-36.9183,1994-01-01,2018-10-31,25,0.0,24,4.0
00636081,PRINCESA ISABEL,37,PRINCESA ISABEL,PARAÍBA,AESA-PB,-6.9639,-36.9203,1994-01-01,2018-12-31,25,0.7,23,8.0
00636082,SANTA LUZIA/RIACHO DO SACO,37,SANTA LUZIA,PARAÍBA,AESA-PB,-6.9639,-36.3703,1994-01-01,2018-12-31,25,1.7,22,12.0
00637010,AÇUDE LAGOINHA,37,JARDIM DE PIRANHAS,RIO GRANDE DO NORTE,ANA,-6.4622,-37.3025,1962-07-01,2019-10-31,58,3.1,52,10.3
00637039,CAICÓ,37,CAICÓ,RIO GRANDE DO NORTE,ANA,-6.4511,-37.0906,1986-10-01,2019-11-30,34,1.8,26,23.5
00637040,BOM SUCESSO,37,BOM JESUS,PARAÍBA,AESA-PB,-6.45,-37.9333,1994-01-01,2018-12-31,25,0.7,24,4.0
00637041,PAULISTA,37,PAULISTA,PARAÍBA,AESA-PB,-6.6,-37.6333,1994-01-01,2018-08-31,25,2.4,20,20.0
00637043,LAGOA,37,LAGOA,PARAÍBA,AESA-PB,-6.6,-37.9167,1994-01-01,2018-12-31,25,0.0,25,0.0
00637044,RIACHO DOS CAVALOS,37,RIACHO DOS CAVALOS,PARAÍBA,AESA-PB,-6.45,-37.65,1994-01-01,2017-05-31,24,0.0,23,4.2
00637045,SÃO BENTO,37,SÃO BENTO,PARAÍBA,AESA-PB,-6.4833,-37.45,1994-01-01,2018-12-31,25,0.7,23,8.0
00637066,CATOLÉ DO ROCHA - ESCOLA TÉCNICA,37,CATOLÉ DO ROCHA,PARAÍBA,AESA-PB,-6.3519,-37.7239,1994-09-01,2018-12-31,25,8.6,20,20.0
00637068,SÃO JOSÉ DO BREJO DA CRUZ,37,SÃO JOSÉ DO BREJO D,PARAÍBA,AESA-PB,-6.2133,-37.3514,1998-09-01,2018-11-30,21,1.6,18,14.3
00637072,JARDIM DE PIRANHAS_Av. Governador Dix-Sept,37,JARDIM DE PIRANHAS,RIO GRANDE DO NORTE,CEMADEN,-6.381,-37.351,1994-01-01,2018-12-31,25,0.0,25,0.0
00637073,PATÚ_Rua Antônio de Lima,37,PATÚ,RIO GRANDE DO NORTE,CEMADEN,-6.1119,-37.6381,1994-01-01,2018-12-31,25,0.0,25,0.0
00637074,PAU FERRADO,37,POMBAL,PARAÍBA,ANA,-6.9658,-37.9242,1994-01-01,2018-12-31,25,0.3,24,4.0
00637076,CATOLÉ DO ROCHA,37,CATOLÉ DO ROCHA,PARAÍBA,AESA-PB,-6.3439,-37.7467,1994-01-01,2018-05-31,25,0.0,24,4.0
00637077,CONDADO,37,CONDADO,PARAÍBA,AESA-PB,-6.9231,-37.5947,1994-01-01,2018-12-31,25,0.0,25,0.0
00637078,JERICÓ,37,JERICÓ,PARAÍBA,AESA-PB,-6.55,-37.8,1994-01-01,2018-11-30,25,0.3,23,8.0
00637079,MALTA,37,MALTA,PARAÍBA,AESA-PB,-6.9033,-37.5197,1994-01-01,2018-12-31,25,0.0,25,0.0
00637080,SÃO JOSÉ DE ESPINHARAS,37,SÃO JOSÉ DE ESPINHA,PARAÍBA,AESA-PB,-6.8481,-37.3264,1994-01-01,2016-11-30,23,4.4,19,17.4
00637081,VISTA SERRANA/DESTERRO DE MALTA,37,VISTA SERRANA,PARAÍBA,AESA-PB,-6.7386,-37.5683,1994-01-01,2018-12-31,25,2.7,23,8.0
00638007,LAVRAS DA MANGABEIRA,36,LAVRAS DA MANGABEIR,CEARÁ,ANA,-6.7628,-38.9606,1912-01-01,2019-12-31,108,8.8,87,19.4
00638008,UMARI,36,UMARI,CEARÁ,FUNCEME-CE,-6.6333,-38.7,1912-09-01,2020-02-29,109,1.6,104,4.6
00638011,PEREIRO,36,PEREIRO,CEARÁ,FUNCEME-CE,-6.05,-38.4667,1910-11-01,2020-02-29,111,4.3,92,17.1
00638013,IPAUMIRIM,36,IPAUMIRIM,CEARÁ,FUNCEME-CE,-6.7833,-38.7167,1965-12-01,2020-02-29,56,0.7,49,12.5
00638014,ICÓ,36,ICÓ,CEARÁ,ANA,-6.4089,-38.8636,1912-01-01,2019-12-31,108,5.4,87,19.4
00638044,AÇUDE BONITO,37,SÃO MIGUEL,RIO GRANDE DO NORTE,ANA,-6.2128,-38.4256,1962-07-01,2019-10-31,58,2.4,50,13.8
00638056,LAVRAS DA MANGABEIRA,36,LAVRAS DA MANGABEIR,CEARÁ,FUNCEME-CE,-6.75,-38.9667,1974-01-01,2020-02-29,47,0.0,46,2.1
00638070,IBOREPI,36,LAVRAS DA MANGABEIR,CEARÁ,FUNCEME-CE,-6.8167,-38.9667,2000-01-01,2020-02-29,21,0.7,18,14.3
00638072,COMUNIDADE GROSSAS,36,PEREIRO,CEARÁ,FUNCEME-CE,-6.0,-38.41,1998-07-01,2020-02-29,23,8.4,18,21.7
00638085,ORÓS,36,ORÓS,CEARÁ,FUNCEME-CE,-6.25,-38.9167,1978-01-01,2020-02-29,43,1.8,39,9.3
00638091,BAIXIO,36,BAIXIO,CEARÁ,FUNCEME-CE,-6.7333,-38.7167,1974-01-01,2020-02-29,47,0.5,43,8.5
00638092,ERERÊ,36,ERERÊ,CEARÁ,FUNCEME-CE,-6.05,-38.35,1989-01-01,2020-02-29,32,1.9,29,9.4
00638093,ICÓ,36,ICÓ,CEARÁ,FUNCEME-CE,-6.4,-38.85,1974-01-01,2020-02-29,47,0.3,45,4.3
00638104,TRIUNFO,37,TRIUNFO,PARAÍBA,AESA-PB,-6.5767,-38.5972,1995-10-01,2018-12-31,24,1.4,20,16.7
00638105,SANTA HELENA,37,SANTA HELENA,PARAÍBA,AESA-PB,-6.7253,-38.6431,1995-11-01,2018-06-30,24,0.7,21,12.5
00638106,CAJAZEIRAS/AÇ. LAGOA DO ARROZ,37,CAJAZEIRAS,PARAÍBA,AESA-PB,-6.7986,-38.5681,1994-02-01,2018-12-31,25,0.0,24,4.0
00638107,BOM JESUS,37,BOM JESUS,PARAÍBA,AESA-PB,-6.8156,-38.6544,1995-11-01,2016-12-31,22,1.6,20,9.1
00638108,CACHOEIRA DOS ÍNDIOS,37,CACHOEIRA DOS ÍNDIO,PARAÍBA,AESA-PB,-6.9297,-38.6781,1995-11-01,2018-08-31,24,0.0,22,8.3
00638110,SANTA CRUZ,37,SANTA CRUZ,PARAÍBA,AESA-PB,-6.5308,-38.0631,1995-10-01,2018-12-31,24,0.0,23,4.2
00638113,SÃO GONÇALO,37,SOUSA,PARAÍBA,AESA-PB,-6.8358,-38.3117,1994-01-01,2018-12-31,25,7.3,21,16.0
00638117,AÇUDE MADEIRO,36,PEREIRO,CEARÁ,FUNCEME-CE,-6.1836,-38.54,1994-01-01,2019-04-30,26,0.0,25,3.8
00638118,SITIO CANTO,36,UMARI,CEARÁ,FUNCEME-CE,-6.6322,-38.6783,1994-01-01,2020-02-29,27,0.0,24,11.1
00638119,CAJAZERINHA,36,UMARI,CEARÁ,FUNCEME-CE,-6.6053,-38.6433,1994-01-01,2020-02-29,27,0.3,25,7.4
00638120,SITIO SÃO PEDRO,36,IPAUMIRIM,CEARÁ,FUNCEME-CE,-6.7483,-38.8128,1994-01-01,2020-02-29,27,2.2,24,11.1
00638121,GUASSUSSÊ,36,ORÓS,CEARÁ,FUNCEME-CE,-6.3358,-38.98,1994-01-01,2020-02-29,27,0.0,26,3.7
00638123,SANTO ANTÔNIO,36,IPAUMIRIM,CEARÁ,FUNCEME-CE,-6.8719,-38.7289,1994-01-01,2020-02-29,27,0.3,25,7.4
00638125,UIRAÚNA,37,UIRAÚNA,PARAÍBA,AESA-PB,-6.5231,-38.4092,1994-01-01,2018-10-31,25,1.0,22,12.0
00639006,CAIPÚ,36,CARIÚS,CEARÁ,FUNCEME-CE,-6.6333,-39.3167,1936-01-01,2015-04-30,80,10.0,63,21.2
00639009,GRANJEIRO,36,GRANJEIRO,CEARÁ,FUNCEME-CE,-6.8833,-39.2167,1962-01-01,2020-02-29,59,1.5,53,10.2
00639013,CATARINA,36,CATARINA,CEARÁ,FUNCEME-CE,-6.1333,-39.8667,1932-01-01,2020-02-29,89,2.2,80,10.1
00639015,ALTANEIRA,36,ALTANEIRA,CEARÁ,FUNCEME-CE,-7.0,-39.7333,1962-01-01,2020-02-29,59,0.2,56,5.1
00639029,FARIAS BRITO,36,FARIAS BRITO,CEARÁ,FUNCEME-CE,-6.9167,-39.5667,1912-08-01,2020-02-29,109,3.1,96,11.9
00639030,CARIÚS,36,CARIÚS,CEARÁ,FUNCEME-CE,-6.5333,-39.5,1928-02-01,2020-02-29,93,1.2,85,8.6
00639033,SABOEIRO,36,SABOEIRO,CEARÁ,FUNCEME-CE,-6.5333,-39.9,1912-01-01,2020-02-29,109,2.0,102,6.4
00639034,VÁRZEA ALEGRE,36,VÁRZEA ALEGRE,CEARÁ,FUNCEME-CE,-6.8,-39.3,1912-05-01,2020-02-29,109,1.2,102,6.4
00639044,IGUATU,36,IGUATU,CEARÁ,ANA,-6.3744,-39.2933,1974-01-01,2019-12-31,46,0.4,45,2.2
00639045,MALHADA,36,SABOEIRO,CEARÁ,ANA,-6.6461,-39.9594,1992-08-09,2019-12-31,28,0.0,27,3.6
00639058,BAÚ,36,IGUATU,CEARÁ,FUNCEME-CE,-6.4,-39.4,1988-01-01,2020-02-29,33,6.6,26,21.2
00639072,QUIXELÔ,36,QUIXELÔ,CEARÁ,FUNCEME-CE,-6.2333,-39.1833,1988-01-01,2020-02-29,33,0.0,32,3.0
00639078,TARRAFAS,35,TARRAFAS,CEARÁ,FUNCEME-CE,-6.6828,-39.75,1989-01-01,2020-02-29,32,2.4,27,15.6
00639084,IGUATU,36,IGUATU,CEARÁ,FUNCEME-CE,-6.3667,-39.3,1974-01-01,2020-02-29,47,0.2,45,4.3
00640002,TAUÁ,36,TAUÁ,CEARÁ,FUNCEME-CE,-6.0167,-40.2833,1912-07-01,2020-02-29,109,0.2,105,3.7
00640019,AIUABA,36,AIUABA,CEARÁ,FUNCEME-CE,-6.5667,-40.1167,1932-01-01,2020-02-29,89,4.9,77,13.5
00640042,ARNEIROZ,36,ARNEIROZ,CEARÁ,FUNCEME-CE,-6.3167,-40.15,1979-01-01,2020-02-29,42,0.1,40,4.8
00642012,FAZENDA TALHADA,34,OEIRAS,PIAUÍ,ANA,-6.9731,-42.1061,1981-11-01,2015-04-30,35,0.8,31,11.4
00643011,LAGES,34,BARÃO DE GRAJAÚ,MARANHÃO,ANA,-6.61,-43.4011,1982-04-01,2019-11-30,38,0.4,35,7.9
00643012,PASSAGEM FRANCA,33,PASSAGEM FRANCA,MARANHÃO,ANA,-6.1747,-43.7792,1982-03-18,2019-11-30,38,0.5,33,13.2
00643013,BARÃO DE GRAJAÚ,34,BARÃO DE GRAJAÚ,MARANHÃO,ANA,-6.7614,-43.0278,1982-01-01,2019-09-30,38,0.2,36,5.3
00644003,COLINAS,33,COLINAS,MARANHÃO,ANA,-6.0275,-44.2539,1968-06-01,2019-10-31,52,0.3,46,11.5
00644007,MIRADOR,33,MIRADOR,MARANHÃO,ANA,-6.3692,-44.3594,1970-12-01,2019-10-31,50,0.2,47,6.0
00644012,PORTO DO LOPES,33,MIRADOR,MARANHÃO,ANA,-6.0103,-44.3444,1970-05-01,2019-10-31,50,0.2,48,4.0
00644015,CAMPO LARGO,33,MIRADOR,MARANHÃO,ANA,-6.0639,-44.7164,1971-12-01,2019-07-31,49,0.9,45,8.2
00645002,PAPAGAIO,33,FERNANDO FALCÃO,MARANHÃO,ANA,-6.0022,-45.3942,1983-03-13,2019-09-30,37,0.7,33,10.8
00645003,MATO GROSSO,33,LORETO,MARANHÃO,ANA,-6.8442,-45.1092,1984-05-25,2019-10-31,36,0.6,31,13.9
00645004,FAZENDA PIRANHAS,33,GRAJAU,MARANHÃO,ANA,-6.0392,-45.9206,1984-05-01,2019-11-30,36,1.0,33,8.3
00646005,FAZENDA SÃO VICENTE,33,FORTALEZA DOS NOGUE,MARANHÃO,ANA,-6.8183,-46.3336,1984-05-17,2019-11-30,36,1.3,33,8.3
00646006,FAZENDA SEMPRE VIVA,33,GRAJAU,MARANHÃO,ANA,-6.1928,-46.2689,1984-10-16,2019-10-31,36,0.6,28,22.2
00649000,FAZENDA SURUBIM,29,MARABÁ,PARÁ,ANA,-6.4278,-49.4197,1984-02-25,2019-10-31,36,1.0,27,25.0
00649001,FAZENDA SANTA ELISA,29,SAPUCAIA,PARÁ,ANA,-6.7947,-49.5486,1984-02-27,2019-09-30,36,1.4,31,13.9
00649002,ELDORADO,29,MARABÁ,PARÁ,ANA,-6.1053,-49.3775,1985-04-08,2019-09-30,35,4.7,28,20.0
00649003,PORTO LEMOS,28,SANTA FÉ DO ARAGUAI,TOCANTINS,ANA,-6.8692,-49.0986,1985-05-29,2019-10-31,35,5.8,27,22.9
00658000,SANTARÉM SUCUNDURI,15,APUÍ,AMAZONAS,ANA,-6.7953,-59.0408,1975-05-02,2019-10-31,45,3.7,34,24.4
00661001,NOVA ESPERANÇA,15,MANICORÉ,AMAZONAS,ANA,-6.3606,-61.7667,1982-03-30,2019-10-31,38,2.1,29,23.7
00664001,CANUTAMA,13,CANUTAMA,AMAZONAS,ANA,-6.5389,-64.3858,1980-07-14,2019-11-30,40,1.2,32,20.0
00734008,ALHANDRA,39,ALHANDRA,PARAÍBA,AESA-PB,-7.43333,-34.9167,1936-01-01,2018-12-31,83,2.1,74,10.8
00734036,BAYEUX,38,BAYEUX,PARAÍBA,AESA-PB,-7.1336,-34.9383,1996-04-01,2018-07-31,23,0.4,20,13.0
00734037,JOÃO PESSOA/MARES,38,JOÃO PESSOA,PARAÍBA,AESA-PB,-7.1558,-34.9089,1996-01-01,2018-05-31,23,1.9,21,8.7
00734044,BAYEUX_São Bento,38,BAYEUX,PARAÍBA,CEMADEN,-7.122,-34.906,1994-01-01,2018-12-31,25,0.3,24,4.0
00734045,BAYEUX_Alto da Boa Vista,38,BAYEUX,PARAÍBA,CEMADEN,-7.133,-34.94,1994-01-01,2018-12-31,25,0.0,25,0.0
00735009,MULUNGU,38,MULUNGU,PARAÍBA,ANA,-7.0294,-35.4681,1926-01-01,2019-11-30,94,3.6,81,13.8
00735029,AROEIRAS,38,AROEIRAS,PARAÍBA,AESA-PB,-7.5167,-35.6833,1962-07-01,2018-12-31,57,4.0,49,14.0
00735036,PONTE DA BATALHA,38,SANTA TERESINHA,PARAÍBA,ANA,-7.13,-35.0475,1969-12-24,2019-11-30,51,1.0,43,15.7
00735050,ENGENHO SÍTIO,39,SÃO LOURENÇO DA MAT,PERNAMBUCO,ANA,-7.9681,-35.1567,1967-04-01,2019-11-30,53,3.1,44,17.0
00735066,PAUDALHO,39,PAUDALHO,PERNAMBUCO,ANA,-7.8942,-35.1733,1967-09-01,2019-11-30,53,5.6,40,24.5
00735067,SALGADINHO,39,SALGADINHO,PERNAMBUCO,ANA,-7.9428,-35.6342,1962-12-01,2019-11-30,58,5.0,44,24.1
00735100,LIMOEIRO,39,LIMOEIRO,PERNAMBUCO,ANA,-7.8789,-35.4519,1978-09-25,2019-11-30,42,0.0,40,4.8
00735124,BODOCONGO,38,BOQUEIRÃO,PARAÍBA,ANA,-7.5283,-35.9997,1970-02-01,2019-11-30,50,1.4,43,14.0
00735157,CARPINA,39,CARPINA,PERNAMBUCO,ANA,-7.8428,-35.1825,1986-03-28,2019-08-31,34,2.2,27,20.6
00735158,SURUBIM,39,SURUBIM,PERNAMBUCO,ANA,-7.8547,-35.7644,1986-04-01,2019-10-31,34,0.1,31,8.8
00735159,VERTENTES,39,VERTENTES,PERNAMBUCO,ANA,-7.91,-35.9886,1986-04-01,2019-11-30,34,0.3,31,8.8
00735160,AREIAL,38,AREIAL,PARAÍBA,AESA-PB,-7.01667,-35.8667,1994-01-01,2018-12-31,25,0.0,25,0.0
00735162,JUAREZ TÁVORA,38,JUAREZ TÁVORA,PARAÍBA,AESA-PB,-7.1667,-35.55,1994-01-01,2018-12-31,25,1.0,24,4.0
00735163,MASSARANDUBA,38,MASSARANDUBA,PARAÍBA,AESA-PB,-7.1833,-35.7333,1994-01-01,2018-06-30,25,8.5,20,20.0
00735164,MOGEIRO,38,MOGEIRO,PARAÍBA,AESA-PB,-7.3333,-35.5,1994-01-01,2018-12-31,25,2.7,21,16.0
00735165,PUXINANÃ,38,PUXINANÃ,PARAÍBA,AESA-PB,-7.15,-35.95,1993-04-01,2018-11-30,26,0.7,24,7.7
00735175,ESPERANÇA,38,ESPERANÇA,PARAÍBA,AESA-PB,-7.0311,-35.8692,1995-06-01,2018-11-30,24,0.7,22,8.3
00735176,SÃO SEBASTIÃO DE LAGOA DE ROÇA,38,SÃO SEBASTIÃO DE LA,PARAÍBA,AESA-PB,-7.0675,-35.8561,1996-03-01,2018-10-31,23,0.0,21,8.7
00735177,MONTADAS,38,MONTADAS,PARAÍBA,AESA-PB,-7.1053,-35.9419,1995-10-01,2018-05-31,24,6.3,19,20.8
00735178,MATINHAS,38,MATINHAS,PARAÍBA,AESA-PB,-7.1214,-35.7717,2000-01-01,2018-09-30,19,0.0,18,5.3
00735179,CAMPINA GRANDE/SÃO JOSÉ DA MATA,38,CAMPINA GRANDE,PARAÍBA,AESA-PB,-7.1897,-35.9844,1994-12-01,2018-11-30,25,2.8,21,16.0
00735181,LAGOA SECA,38,LAGOA SECA,PARAÍBA,AESA-PB,-7.1556,-35.8572,1995-01-01,2018-12-31,24,3.8,21,12.5
00735188,QUEIMADAS,38,QUEIMADAS,PARAÍBA,AESA-PB,-7.3606,-35.8897,1994-12-01,2016-05-31,23,8.9,18,21.7
00735189,MULUNGU,38,MULUNGU,PARAÍBA,AESA-PB,-7.0311,-35.4692,1994-03-01,2018-12-31,25,0.0,24,4.0
00735190,MARI,38,MARI,PARAÍBA,AESA-PB,-7.0536,-35.32,1996-04-01,2018-12-31,23,0.0,22,4.3
00735191,GURINHÉM,38,GURINHÉM,PARAÍBA,AESA-PB,-7.1261,-35.425,1995-01-01,2018-09-30,24,0.4,22,8.3
00735196,SÃO MIGUEL DE TAIPU,38,SÃO MIGUEL DE TAIPU,PARAÍBA,AESA-PB,-7.2503,-35.2089,1994-01-01,2018-12-31,25,4.0,22,12.0
00735201,SALGADO DE SÃO FÉLIX,38,SALGADO DE SÃO FÉLI,PARAÍBA,AESA-PB,-7.3558,-35.4344,1995-12-01,2018-12-31,24,0.4,22,8.3
00735203,PEDRAS DE FOGO,38,PEDRAS DE FOGO,PARAÍBA,AESA-PB,-7.4014,-35.1175,1994-01-01,2018-11-30,25,0.0,24,4.0
00735205,NATUBA,38,NATUBA,PARAÍBA,AESA-PB,-7.6414,-35.5533,1995-12-01,2018-12-31,24,0.4,22,8.3
00735207,ALAGOA GRANDE_Centro,38,ALAGOA GRANDE,PARAÍBA,CEMADEN,-7.039,-35.631,1994-01-01,2017-06-30,24,4.2,20,16.7
00735208,CAMPINA GRANDE_Alto Branco,38,CAMPINA GRANDE,PARAÍBA,CEMADEN,-7.207,-35.886,1994-01-01,2018-11-30,25,4.0,23,8.0
00735209,CAMPINA GRANDE_Sandra Cavalcante,38,CAMPINA GRANDE,PARAÍBA,CEMADEN,-7.244,-35.874,1994-01-01,2018-12-31,25,0.0,25,0.0
00735210,CAMPINA GRANDE_Jardim Paulistano,38,CAMPINA GRANDE,PARAÍBA,CEMADEN,-7.252,-35.895,1995-06-01,2018-09-30,24,2.1,21,12.5
00735211,CAMPINA GRANDE_Cruzeiro,38,CAMPINA GRANDE,PARAÍBA,CEMADEN,-7.249,-35.917,1994-01-01,2018-12-31,25,2.7,21,16.0
00735212,CAMPINA GRANDE_Bodocongó,38,CAMPINA GRANDE,PARAÍBA,CEMADEN,-7.215,-35.924,1994-01-01,2018-10-31,25,0.3,24,4.0
00735213,CAMPINA GRANDE_Bairro das Cidades,38,CAMPINA GRANDE,PARAÍBA,CEMADEN,-7.274,-35.932,1994-01-01,2018-10-31,25,5.4,22,12.0
00735215,MARI_Centro,38,MARI,PARAÍBA,CEMADEN,-7.061,-35.317,1994-01-01,2018-11-30,25,0.0,24,4.0
00735216,MULUNGU_Centro,38,MULUNGU,PARAÍBA,CEMADEN,-7.031,-35.462,1994-01-01,2018-11-30,25,2.7,21,16.0
00736000,TAPEROÁ II,38,TAPEROÁ,PARAÍBA,ANA,-7.2175,-36.8289,1984-04-01,2019-10-31,36,0.7,31,13.9
00736013,RIACHO SANTO ANTÔNIO,38,BOQUEIRÃO,PARAÍBA,AESA-PB,-7.7,-36.15,1962-07-01,2018-12-31,57,4.0,48,15.8
00736017,COXIXOLA,38,SERRA BRANCA,PARAÍBA,AESA-PB,-7.61667,-36.6167,1962-07-01,2018-07-31,57,2.7,50,12.3
00736020,CARAÚBAS,38,CARAÚBAS,PARAÍBA,AESA-PB,-7.7167,-36.5167,1931-01-01,2018-03-31,88,5.0,79,10.2
00736021,CAMALAÚ,38,CAMALAÚ,PARAÍBA,AESA-PB,-7.9167,-36.8667,1962-07-01,2018-11-30,57,3.1,52,8.8
00736022,CABACEIRAS,38,CABACEIRAS,PARAÍBA,AESA-PB,-7.6,-36.2833,1926-01-01,2018-12-31,93,3.2,82,11.8
00736025,BARRA DE SÃO MIGUEL,38,BARRA DE SÃO MIGUEL,PARAÍBA,AESA-PB,-7.75,-36.3333,1962-07-01,2018-12-31,57,4.1,52,8.8
00736040,JATAÚBA,39,JATAÚBA,PERNAMBUCO,ANA,-7.9864,-36.5006,1986-03-01,2019-11-30,34,0.5,29,14.7
00736041,SANTA CRUZ DO CAPIBARIBE,39,SANTA CRUZ DO CAPIB,PERNAMBUCO,ANA,-7.9619,-36.2022,1986-04-01,2019-11-30,34,0.5,31,8.8
00736042,TAQUARITINGA DO NORTE,39,TAQUARITINGA DO NOR,PERNAMBUCO,ANA,-7.9039,-36.0469,1986-01-01,2019-11-30,34,0.7,31,8.8
00736044,SÃO JOÃO DO CARIRI (UFPB),38,SÃO JOÃO DO CARIRI,PARAÍBA,AESA-PB,-7.4167,-36.5,1994-06-01,2018-03-31,25,0.3,23,8.0
00736054,SOLEDADE/FAZ.PENDÊNCIA,37,SOLEDADE,PARAÍBA,AESA-PB,-7.1769,-36.4864,1994-01-01,2018-11-30,25,1.3,23,8.0
00736055,CAMPINA GRANDE/SÍTIO AÇUDE DE DENTRO,38,CAMPINA GRANDE,PARAÍBA,AESA-PB,-7.3386,-36.0842,1994-12-01,2018-08-31,25,2.1,21,16.0
00736059,SÃO DOMINGOS DO CARIRI,37,SÃO DOMINGOS DO CAR,PARAÍBA,AESA-PB,-7.6331,-36.4311,1998-05-01,2018-11-30,21,2.0,17,19.0
00736061,BARRA DE SANTANA,38,BARRA DE SANTANA,PARAÍBA,AESA-PB,-7.5217,-36.0008,1995-12-01,2018-12-31,24,1.1,20,16.7
00736066,BOA VISTA,38,BOA VISTA,PARAÍBA,AESA-PB,-7.2575,-36.2375,1994-01-01,2018-12-31,25,0.0,25,0.0
00736067,BOQUEIRÃO/AÇUDE BOQUEIRÃO,38,BOQUEIRÃO,PARAÍBA,AESA-PB,-7.3144,-36.5144,1994-01-01,2018-12-31,25,0.0,25,0.0
00736068,CONGO,38,CONGO,PARAÍBA,AESA-PB,-7.8022,-36.6586,1994-01-01,2018-12-31,25,0.0,25,0.0
00736069,GURJÃO,38,GURJÃO,PARAÍBA,AESA-PB,-7.2478,-36.4892,1994-01-01,2018-10-31,25,5.7,20,20.0
00736070,JUAZERINHO,38,JUAZEIRINHO,PARAÍBA,AESA-PB,-7.0683,-36.58,1994-01-01,2018-12-31,25,0.0,25,0.0
00736071,PIANCÓ,38,PIANCÓ,PARAÍBA,AESA-PB,-7.0778,-36.0592,1994-01-01,2018-11-30,25,0.7,23,8.0
00736072,POCINHOS,38,POCINHOS,PARAÍBA,AESA-PB,-7.1022,-36.8453,1994-01-01,2018-11-30,25,0.3,23,8.0
00736073,SÃO JOSÉ DOS CORDEIROS,38,SÃO JOSÉ DOS CORDEI,PARAÍBA,AESA-PB,-7.3908,-36.8058,1994-01-01,2018-12-31,25,0.3,24,4.0
00736075,SOLEDADE,38,SOLEDADE,PARAÍBA,AESA-PB,-7.0608,-36.3619,1994-01-01,2018-02-28,25,0.0,24,4.0
00736076,SUMÉ/FAZENDA BANANEIRAS,38,SUMÉ,PARAÍBA,AESA-PB,-7.5067,-36.9631,1994-01-01,2017-06-30,24,1.1,22,8.3
00736077,SUMÉ,38,SUMÉ,PARAÍBA,AESA-PB,-7.6736,-36.8964,1994-01-01,2018-02-28,25,0.0,24,4.0
00736078,TAPEROÁ,38,TAPEROÁ,PARAÍBA,AESA-PB,-7.2164,-36.8281,1994-01-01,2018-04-30,25,0.0,24,4.0
00737004,PRATA ,38,PRATA,PARAÍBA,AESA-PB,-7.68333,-37.1,1962-07-01,2018-03-31,57,5.5,50,12.3
00737006,PIANCÓ,37,PIANCÓ,PARAÍBA,ANA,-7.2142,-37.9258,1910-12-01,2019-08-31,110,1.7,90,18.2
00737022,ÁGUA BRANCA,37,ÁGUA BRANCA,PARAÍBA,AESA-PB,-7.51667,-37.65,1931-01-01,2018-12-31,88,4.3,78,11.4
00737023,AFOGADOS DA INGAZEIRA (DNOCS),48,AFOGADOS DA INGAZEI,PERNAMBUCO,ANA,-7.7389,-37.6483,1914-02-01,2019-09-30,106,1.5,90,15.1
00737027,FLORES,48,FLORES,PERNAMBUCO,ANA,-7.8678,-37.9725,1911-08-01,2019-10-31,109,3.0,91,16.5
00737052,CACIMBA DE AREIA,37,CACIMBA DE AREIA,PARAÍBA,AESA-PB,-7.11667,-37.15,1994-01-01,2018-11-30,25,3.0,23,8.0
00737053,EMAS,37,EMAS,PARAÍBA,AESA-PB,-7.1,-37.7667,1994-01-01,2018-11-30,25,0.0,24,4.0
00737055,PATOS/EMBRAPA,37,PATOS,PARAÍBA,AESA-PB,-7.0008,-37.3131,1994-01-01,2018-12-31,25,0.0,25,0.0
00737056,SÃO JOSÉ DO BONFIM,37,SÃO JOSÉ DO BONFIM,PARAÍBA,AESA-PB,-7.1636,-37.2925,1995-12-01,2017-01-31,23,9.8,18,21.7
00737059,TAVARES,37,TAVARES,PARAÍBA,AESA-PB,-7.6344,-37.8769,1995-11-01,2018-11-30,24,0.4,21,12.5
00737060,AMPARO,37,AMPARO,PARAÍBA,AESA-PB,-7.5697,-37.0639,1998-02-01,2018-12-31,21,0.0,20,4.8
00737061,OURO VELHO,37,OURO VELHO,PARAÍBA,AESA-PB,-7.6206,-37.1508,1995-06-01,2018-02-28,24,0.4,21,12.5
00737062,MONTEIRO/EMBRAPA,37,MONTEIRO,PARAÍBA,AESA-PB,-7.885,-37.1269,1994-03-01,2018-12-31,25,0.3,23,8.0
00737063,QUIXABA,37,QUIXABÁ,PARAÍBA,AESA-PB,-7.0294,-37.1281,1995-11-01,2016-11-30,22,0.0,20,9.1
00737065,CATINGUEIRA,38,CATINGUEIRA,PARAÍBA,AESA-PB,-7.1283,-37.6083,1994-01-01,2018-07-31,25,4.4,22,12.0
00737066,COREMAS/AÇUDE COREMAS,38,COREMAS,PARAÍBA,AESA-PB,-7.025,-37.9428,1994-01-01,2018-12-31,25,0.0,25,0.0
00737067,DESTERRO,38,DESTERRO,PARAÍBA,AESA-PB,-7.2903,-37.0881,1994-01-01,2017-01-31,24,0.7,22,8.3
00737068,IBIARA,38,IBIARA,PARAÍBA,AESA-PB,-7.3822,-37.5094,1994-01-01,2018-12-31,25,0.0,25,0.0
00737069,MÃE D'ÁGUA,38,MÃE D'ÁGUA,PARAÍBA,AESA-PB,-7.2572,-37.4253,1994-01-01,2018-12-31,25,0.0,25,0.0
00737070,NOVA OLINDA,38,NOVA OLINDA,PARAÍBA,AESA-PB,-7.1364,-37.0475,1994-01-01,2018-12-31,25,0.0,25,0.0
00737071,PASSAGEM,38,PASSAGEM,PARAÍBA,AESA-PB,-7.215,-37.9258,1994-01-01,2016-12-31,23,0.0,23,0.0
00737073,SALGADINHO,38,SALGADINHO,PARAÍBA,AESA-PB,-7.3833,-37.9897,1994-01-01,2018-05-31,25,0.0,24,4.0
00737074,SANTANA DOS GARROTES,38,SANTANA DOS GARROTE,PARAÍBA,AESA-PB,-7.3833,-37.9897,1994-01-01,2018-12-31,25,4.6,21,16.0
00737075,SANTA TERESINHA,38,SANTA TERESINHA,PARAÍBA,AESA-PB,-7.0842,-37.445,1994-01-01,2018-12-31,25,0.3,24,4.0
00737076,TEIXEIRA,38,TEIXEIRA,PARAÍBA,AESA-PB,-7.2217,-37.2497,1994-01-01,2018-12-31,25,0.7,23,8.0
00738001,MAURITI,36,MAURITI,CEARÁ,FUNCEME-CE,-7.3833,-38.7667,1961-01-01,2020-02-29,60,1.6,53,11.7
00738006,BREJO SANTO,36,BREJO SANTO,CEARÁ,FUNCEME-CE,-7.4911,-38.9833,1910-12-01,2020-02-29,111,1.5,102,8.1
00738008,MILAGRES,36,MILAGRES,CEARÁ,FUNCEME-CE,-7.3,-38.9333,1912-01-01,2020-02-29,109,2.1,96,11.9
00738049,PODIMIRIM,36,MILAGRES,CEARÁ,ANA,-7.2997,-38.9847,1992-08-11,2019-12-31,28,0.0,27,3.6
00738060,BARRO,36,BARRO,CEARÁ,FUNCEME-CE,-7.1667,-38.7667,1974-01-01,2020-02-29,47,0.2,44,6.4
00738062,MILHA,36,MILHA,CEARÁ,FUNCEME-CE,-5.6828,-39.2,1974-01-01,2020-02-29,47,0.7,43,8.5
00738068,MONTE HOREBE,37,MONTE HOREBE,PARAÍBA,AESA-PB,-7.2031,-38.5653,1995-11-01,2018-11-30,24,0.4,22,8.3
00738069,CARRAPATEIRA,37,CARRAPATEIRA,PARAÍBA,AESA-PB,-7.0369,-38.3453,1995-10-01,2018-03-31,24,3.7,19,20.8
00738070,IGARACY,37,IGARACY,PARAÍBA,AESA-PB,-7.1786,-38.1472,1994-07-01,2018-12-31,25,6.8,21,16.0
00738071,SÃO JOSÉ DE CAIANA,37,SÃO JOSÉ DE CAIANA,PARAÍBA,AESA-PB,-7.2525,-38.2997,1995-10-01,2017-12-31,23,4.9,18,21.7
00738075,PEDRA BRANCA,37,PEDRA BRANCA,PARAÍBA,AESA-PB,-7.4167,-38.0667,1995-10-01,2018-12-31,24,0.0,23,4.2
00738077,CURRAL VELHO,37,CURRAL VELHO,PARAÍBA,AESA-PB,-7.5383,-38.1992,1995-10-01,2018-12-31,24,0.7,21,12.5
00738078,LASTRO,37,LASTRO,PARAÍBA,AESA-PB,-7.5167,-38.1792,1995-10-01,2015-12-31,21,4.6,18,14.3
00738079,SANTANA DE MANGUEIRA,37,SANTANA DE MANGUEIR,PARAÍBA,AESA-PB,-7.5503,-38.3353,1994-01-01,2018-11-30,25,2.0,24,4.0
00738081,MAURITI_Centro,36,MAURITI,CEARÁ,CEMADEN,-7.388,-38.773,1994-01-01,2018-12-31,25,0.0,25,0.0
00738082,ÁGUA VERMELHA,36,MILAGRES,CEARÁ,CPRM,-7.4081,-38.9322,1994-01-01,2018-12-31,25,1.3,22,12.0
00738083,JEQUI,36,MAURITI,CEARÁ,CPRM,-7.4911,-38.8022,1994-01-01,2018-12-31,25,2.3,22,12.0
00738084,DESERTO DOS PEBAS,36,MAURITI,CEARÁ,CPRM,-7.2919,-38.7169,1994-01-01,2018-02-28,25,1.0,23,8.0
00738085,COMUNIDADE VALDIVINO,36,MILAGRES,CEARÁ,FUNCEME-CE,-7.2158,-38.9411,1994-01-01,2020-02-29,27,0.3,25,7.4
00738086,SITIO SACO,36,MILAGRES,CEARÁ,FUNCEME-CE,-7.3989,-38.87,1994-01-01,2020-02-29,27,0.0,26,3.7
00738087,ÁGUA VERMELHA,36,MILAGRES,CEARÁ,FUNCEME-CE,-7.4075,-38.9319,1994-01-01,2018-12-31,25,1.0,24,4.0
00738088,SÃO JOSÉ DE PIRANHAS,38,SÃO JOSÉ DE PIRANHA,PARAÍBA,AESA-PB,-7.1156,-38.4967,1994-01-01,2018-12-31,25,0.3,24,4.0
00738099,SERRA GRANDE,38,SERRA GRANDE,PARAÍBA,AESA-PB,-7.2142,-38.3722,1994-01-01,2018-12-31,25,0.0,25,0.0
00739003,JAMACARU,36,MISSÃO VELHA,CEARÁ,FUNCEME-CE,-7.4,-39.1333,1961-01-01,2020-02-29,60,0.3,56,6.7
00739006,CRATO,36,CRATO,CEARÁ,FUNCEME-CE,-7.2333,-39.4,1912-01-01,2020-02-29,109,0.2,106,2.8
00739007,MISSÃO VELHA,36,MISSÃO VELHA,CEARÁ,FUNCEME-CE,-7.25,-39.1333,1912-01-01,2020-02-29,109,2.1,99,9.2
00739010,PORTEIRAS,36,PORTEIRAS,CEARÁ,FUNCEME-CE,-7.5333,-39.1167,1910-12-01,2020-02-29,111,6.4,97,12.6
00739011,CARIRIAÇU,36,CARIRIAÇU,CEARÁ,FUNCEME-CE,-7.0333,-39.2833,1933-11-01,2020-02-29,88,0.9,82,6.8
00739035,NOVA OLINDA,36,NOVA OLINDA,CEARÁ,FUNCEME-CE,-7.1,-39.6833,1974-01-01,2020-02-29,47,0.5,44,6.4
00739038,JARDIM,36,JARDIM,CEARÁ,FUNCEME-CE,-7.5833,-39.2833,1910-12-01,2020-02-29,111,0.3,107,3.6
00739046,ABAIARA,36,ABAIARA,CEARÁ,FUNCEME-CE,-7.3667,-39.05,1981-01-01,2020-02-29,40,0.2,36,10.0
00739052,LAMEIRO,36,CRATO,CEARÁ,FUNCEME-CE,-7.2333,-39.4167,1993-12-07,2020-02-29,28,0.9,21,25.0
00739060,PENAFORTE,36,PENAFORTE,CEARÁ,FUNCEME-CE,-7.8167,-39.0667,1981-01-01,2020-02-29,40,0.8,37,7.5
00739065,JUAZEIRO DO NORTE,36,JUAZEIRO DO NORTE,CEARÁ,FUNCEME-CE,-7.2167,-39.3167,1974-01-01,2020-02-29,47,0.0,46,2.1
00740009,POTENGI,36,POTENGI,CEARÁ,FUNCEME-CE,-7.1,-40.0167,1936-01-01,2020-02-29,85,7.8,64,24.7
00740011,CAMPOS SALES,36,CAMPOS SALES,CEARÁ,FUNCEME-CE,-7.0667,-40.3667,1964-01-01,2020-02-29,57,5.2,52,8.8
00740043,SALITRE,35,SALITRE,CEARÁ,FUNCEME-CE,-7.2828,-40.4669,1988-02-01,2020-02-29,33,4.2,29,12.1
00741003,ITAINÓPOLIS,34,ITAINÓPOLIS,PIAUÍ,ANA,-7.4497,-41.4775,1962-10-01,2019-11-30,58,4.2,49,15.5
00741009,SANTA CRUZ DO PIAUÍ II,34,SANTA CRUZ DO PIAUÍ,PIAUÍ,ANA,-7.1811,-41.7642,1962-10-01,2019-11-30,58,1.7,48,17.2
00742011,SÃO FRANCISCO DO PIAUÍ,34,SÃO FRANCISCO DO PI,PIAUÍ,ANA,-7.2464,-42.5419,1982-01-01,2019-11-30,38,0.4,35,7.9
00742012,FRANCISCO AYRES,34,FRANCISCO AYRES,PIAUÍ,ANA,-6.6183,-42.6939,1984-11-01,2019-11-30,36,0.2,33,8.3
00743009,BARRA DO LANCE,34,JERUMENHA,PIAUÍ,ANA,-7.2453,-43.6444,1982-11-01,2019-10-31,38,0.3,34,10.5
00744000,SÃO FÉLIX DE BALSAS,34,SÃO FÉLIX DE BALSAS,MARANHÃO,ANA,-7.0814,-44.8125,1965-10-01,2019-11-30,55,0.5,50,9.1
00745003,RIBEIRO GONÇALVES,34,RIBEIRO GONÇALVES,PIAUÍ,ANA,-7.5572,-45.2444,1962-01-01,2019-11-30,58,6.6,45,22.4
00745004,SAMBAÍBA,34,SAMBAÍBA,MARANHÃO,ANA,-7.1411,-45.3461,1977-01-01,2019-11-30,43,2.0,33,23.3
00745005,FAZENDA TIGRE,34,SÃO RAIMUNDO DAS MA,MARANHÃO,ANA,-7.3419,-45.6064,1984-10-21,2019-09-30,36,1.0,30,16.7
00746006,BALSAS,34,BALSAS,MARANHÃO,ANA,-7.5233,-46.0339,1982-01-01,2019-10-31,38,0.6,32,15.8
00746007,BREJO COMPRIDO,34,BALSAS,MARANHÃO,ANA,-7.9286,-45.9886,1983-01-20,2019-06-30,37,0.5,32,13.5
00746008,MORRO VERMELHO,34,RIACHÃO,MARANHÃO,ANA,-7.1578,-46.5544,1984-05-18,2019-09-30,36,0.5,33,8.3
00746009,RECURSOS,34,BALSAS,MARANHÃO,ANA,-7.3314,-46.3075,1984-05-18,2019-10-31,36,0.3,30,16.7
00747000,CAROLINA,23,CAROLINA,MARANHÃO,ANA,-7.3231,-47.4644,1969-09-20,2019-09-30,51,2.1,44,13.7
00747001,GOIATINS,23,GOIATINS ,TOCANTINS,ANA,-7.7147,-47.315,1971-11-21,2019-09-30,49,1.8,42,14.3
00748001,COLÔNIA,27,BERNARDO SAYÃO,TOCANTINS,ANA,-7.8778,-48.8786,1973-09-30,2019-09-30,47,2.1,40,14.9
00749000,ARAPOEMA,27,ARAPOEMA,TOCANTINS,ANA,-7.6553,-49.065,1973-09-30,2019-09-30,47,3.2,41,12.8
00750001,POSTO DA SERRA,27,RIO MARIA,PARÁ,ANA,-7.5061,-50.0447,1997-07-01,2019-09-30,23,0.0,21,8.7
00760001,BOCA DO GUARIBA,15,APUÍ,AMAZONAS,ANA,-7.7053,-60.5783,1977-12-11,2019-10-31,43,2.1,33,23.3
00763001,HUMAITÁ,15,HUMAITÁ,AMAZONAS,ANA,-7.5153,-63.0286,1982-05-18,2019-10-31,38,1.0,30,21.1
00765000,CACHOEIRA,13,LÁBREA,AMAZONAS,ANA,-7.7156,-66.0583,1977-12-01,2019-10-31,43,1.1,35,18.6
00834007,RECIFE (CURADO)  ,39,RECIFE,PERNAMBUCO,INMET,-8.05,-34.9167,1961-03-01,2019-06-30,59,0.1,45,23.7
00835068,VITÓRIA DE SANTO ANTÃO,39,VITÓRIA DE SANTO AN,PERNAMBUCO,ANA,-8.1136,-35.2839,1920-05-01,2019-10-31,100,5.7,84,16.0
00835106,CARUARU,39,CARUARU,PERNAMBUCO,ANA,-8.3028,-36.0108,1978-09-20,2019-11-30,42,2.2,35,16.7
00835135,CUMARU,39,CUMARU,PERNAMBUCO,ANA,-8.0119,-35.6961,1986-04-01,2019-11-30,34,0.3,32,5.9
00835136,GLÓRIA DO GOITÁ,39,GLÓRIA DO GOITÁ,PERNAMBUCO,ANA,-8.0,-35.2908,1986-03-28,2019-11-30,34,2.8,28,17.6
00835137,POMBOS,39,POMBOS,PERNAMBUCO,ANA,-8.1408,-35.3997,1986-03-01,2019-11-30,34,0.5,30,11.8
00835139,JACUÍPE,39,JACUÍPE,ALAGOAS,ANA,-8.8419,-35.4475,1989-01-29,2019-11-30,31,0.7,29,6.5
00835140,ENGENHO MATO GROSSO,39,GAMELEIRA,PERNAMBUCO,ANA,-8.6375,-35.3056,1989-01-30,2019-11-30,31,0.6,26,16.1
00835141,PALMARES,39,PALMARES,PERNAMBUCO,ANA,-8.6794,-35.5772,1990-11-01,2019-11-30,30,0.1,27,10.0
00836000,SÃO JOÃO DO TIGRE,38,SÃO JOÃO DO TIGRE,PARAÍBA,AESA-PB,-8.66667,-36.8667,1935-03-01,2018-10-31,84,2.4,77,8.3
00836043,SANHARÓ,39,SANHARÓ,PERNAMBUCO,ANA,-8.3656,-36.5603,1962-11-01,2019-10-31,58,1.2,50,13.8
00836092,BREJO DA MADRE DE DEUS,39,BREJO DA MADRE DE D,PERNAMBUCO,ANA,-8.1456,-36.3703,1986-01-01,2019-11-30,34,2.5,28,17.6
00836093,POÇÃO,39,POÇÃO,PERNAMBUCO,ANA,-8.1894,-36.7069,1986-03-01,2019-10-31,34,1.1,26,23.5
00837000,SÃO SEBASTIÃO DO UMBUZEIRO,38,SÃO SEBASTIÃO DO UM,PARAÍBA,AESA-PB,-8.15,-37.0167,1962-07-01,2018-12-31,57,5.2,45,21.1
00837038,INAJÁ,49,INAJÁ,PERNAMBUCO,ANA,-8.9208,-37.8306,1972-04-01,2019-10-31,48,5.6,42,12.5
00838000,AIRI (ROCHEDO),48,FLORESTA,PERNAMBUCO,ANA,-8.5392,-38.1928,1934-11-01,2019-10-31,86,1.4,71,17.4
00838002,AÇUDE SERRINHA,48,MIRANDIBA,PERNAMBUCO,ANA,-8.2397,-38.5278,1962-11-01,2019-10-31,58,0.4,51,12.1
00838004,BELÉM DE SÃO FRANCISCO,48,BELÉM DE SÃO FRANCI,PERNAMBUCO,ANA,-8.765,-38.9606,1946-09-16,2019-10-31,74,4.2,61,17.6
00838021,FLORESTA,48,FLORESTA,PERNAMBUCO,ANA,-8.6064,-38.5786,1977-11-01,2019-11-30,43,0.4,40,7.0
00838031,SERRA TALHADA,48,SERRA TALHADA,PERNAMBUCO,ANA,-8.0006,-38.2447,1978-01-01,2019-11-30,42,0.0,40,4.8
00839009,JACARÉ,48,PARNAMIRIM,PERNAMBUCO,ANA,-8.2628,-39.8472,1962-10-01,2019-11-30,58,2.2,49,15.5
00839013,PARNAMIRIM,48,PARNAMIRIM,PERNAMBUCO,ANA,-8.0922,-39.5742,1984-01-01,2019-10-31,36,0.7,33,8.3
00839014,POÇO DO FUMO,48,PARNAMIRIM,PERNAMBUCO,ANA,-8.1778,-39.7314,1962-10-01,2019-11-30,58,0.4,53,8.6
00839031,IBÓ,48,BELÉM DE SÃO FRANCI,PERNAMBUCO,ANA,-8.6231,-39.2392,1977-10-01,2019-11-30,43,0.4,38,11.6
00839034,FAZENDA TAPERA,48,OROCÓ,PERNAMBUCO,ANA,-8.5203,-39.6408,1977-11-01,2019-09-30,43,0.0,40,7.0
00839035,SANTA MARIA DA BOA VISTA,48,SANTA MARIA DA BOA ,PERNAMBUCO,ANA,-8.8042,-39.8225,1999-01-01,2019-09-30,21,0.8,19,9.5
00840015,LAGOA GRANDE,48,SANTA MARIA DA BOA ,PERNAMBUCO,ANA,-8.9989,-40.2731,1941-01-01,2019-09-30,79,2.8,68,13.9
00841017,PEDRA REDONDA,34,CONCEIÇÃO DO CANIND,PIAUÍ,ANA,-8.0056,-41.5014,1992-02-16,2019-11-30,28,0.3,25,10.7
00845003,BABILÔNIA,34,TASSO FRAGOSO,MARANHÃO,ANA,-8.3175,-45.9678,1983-01-22,2019-10-31,37,1.6,30,18.9
00845004,BARRA DO FOSDÃO,34,TASSO FRAGOSO,MARANHÃO,ANA,-8.1014,-45.5875,1984-05-20,2019-11-30,36,0.0,33,8.3
00845005,INHUMAS,34,ALTO PARNAÍBA,MARANHÃO,ANA,-8.8211,-45.9681,1984-05-22,2019-11-30,36,0.2,32,11.1
00846005,BOA VISTA,34,ALTO PARNAÍBA,MARANHÃO,ANA,-8.7736,-46.1183,1984-05-22,2019-11-30,36,1.3,31,13.9
00847001,ITACAJA,23,ITACAJÁ,TOCANTINS,ANA,-8.3917,-47.7628,1973-08-28,2019-09-30,47,2.5,37,21.3
00848000,COLINAS DO TOCANTINS,23,COLINAS DO TOCANTIN,TOCANTINS,ANA,-8.0528,-48.4817,1971-12-16,2019-09-30,49,2.6,40,18.4
00848002,ITAPORÃ DO TOCANTINS,27,ITAPORÃ DO TOCANTIN,TOCANTINS,ANA,-8.5739,-48.6903,1973-08-21,2019-09-30,47,2.3,40,14.9
00848003,TUPIRATINS,23,TUPIRATINS,TOCANTINS,ANA,-8.3992,-48.1303,1969-08-27,2019-09-30,51,2.9,40,21.6
00849002,ARAGUACEMA (CHACARA ARAGUAIA),27,ARAGUACEMA,TOCANTINS,ANA,-8.8022,-49.5556,1973-08-29,2019-11-30,47,3.2,38,19.1
00850000,REDENÇÃO,27,REDENÇÃO,PARÁ,ANA,-8.0439,-50.0006,1984-03-07,2019-09-30,36,0.9,28,22.2
00850001,FAZENDA SANTA MARTA DO INAJÁ,27,SANTA MARIA DAS BAR,PARÁ,ANA,-8.6603,-50.4442,1999-12-01,2019-09-30,21,3.4,16,23.8
00867002,SÃO ROMÃO (TABOCAL),13,BOCA DO ACRE,AMAZONAS,ANA,-8.25,-67.3667,1989-10-01,2019-09-30,31,1.3,25,19.4
00935012,MURICI - PONTE,39,MURICI,ALAGOAS,ANA,-9.3136,-35.9497,1963-01-01,2019-11-30,57,6.7,44,22.8
00935056,FAZENDA BOA FORTUNA,39,RIO LARGO,ALAGOAS,ANA,-9.4675,-35.8564,1989-08-19,2019-09-30,31,1.4,25,19.4
00935057,MARECHAL DEODORO,39,MARECHAL DEODORO,ALAGOAS,ANA,-9.7164,-35.8917,1990-10-30,2019-11-30,30,0.2,26,13.3
00936076,TRAIPU,49,TRAIPU,ALAGOAS,ANA,-9.9728,-37.0033,1973-01-01,2019-11-30,47,5.2,40,14.9
00936110,ATALAIA,39,ATALAIA,ALAGOAS,ANA,-9.5072,-36.0233,1989-08-19,2019-11-30,31,1.4,27,12.9
00936112,SÃO JOSÉ DA LAJE,39,SÃO JOSÉ DA LAJE,ALAGOAS,ANA,-9.0042,-36.0511,1990-10-22,2019-09-30,30,2.2,26,13.3
00936113,UNIÃO DOS PALMARES,39,UNIÃO DOS PALMARES,ALAGOAS,ANA,-9.1544,-36.0358,1990-10-25,2019-09-30,30,0.7,25,16.7
00936114,SANTANA DO MUNDAÚ,39,SANTANA DO MUNDAÚ,ALAGOAS,ANA,-9.1689,-36.2197,1990-10-26,2019-11-30,30,2.8,25,16.7
00937013,DELMIRO GOUVÉIA,49,DELMIRO GOUVÉIA,ALAGOAS,ANA,-9.3928,-37.9942,1936-04-01,2019-11-30,84,4.9,73,13.1
00937018,PÃO DE AÇÚCAR,49,PÃO DE AÇÚCAR,ALAGOAS,ANA,-9.7486,-37.4497,1935-01-01,2019-11-30,85,7.9,68,20.0
00937023,PIRANHAS,49,PIRANHAS,ALAGOAS,ANA,-9.6261,-37.7561,1935-01-01,2019-10-31,85,7.3,68,20.0
00937031,ÁGUAS BELAS,49,ÁGUAS BELAS,PERNAMBUCO,ANA,-9.1056,-37.1317,1977-11-01,2019-10-31,43,1.8,36,16.3
00937032,SANTANA DO IPANEMA,49,SANTANA DO IPANEMA,ALAGOAS,ANA,-9.3728,-37.2453,1978-11-11,2019-11-30,42,0.5,34,19.0
00939017,PRÓXIMO A CURAÇA II,48,CURAÇÁ,BAHIA,ANA,-9.1225,-39.9364,1977-01-01,2019-10-31,43,0.8,37,14.0
00940018,CAMPO DOS CAVALOS,47,JUAZEIRO,BAHIA,ANA,-9.5597,-40.6467,1947-01-01,2019-11-30,73,5.0,62,15.1
00940025,LAGOA DO BOI,48,JUAZEIRO,BAHIA,ANA,-9.4908,-40.2044,1972-08-01,2019-07-31,48,2.6,40,16.7
00940028,JUNCO,47,JUAZEIRO,BAHIA,ANA,-9.6767,-40.6039,1972-08-16,2019-11-30,48,3.6,39,18.8
00945011,ALTO PARNAÍBA,34,ALTO PARNAÍBA,MARANHÃO,ANA,-9.1131,-45.9261,1983-01-01,2019-11-30,37,0.2,36,2.7
00947001,MANSINHA,22,RIO SONO,TOCANTINS,ANA,-9.4575,-47.3269,1983-01-22,2019-09-30,37,0.8,28,24.3
00948000,MIRACEMA DO TOCANTINS,22,MIRACEMA DO TOCANTI,TOCANTINS,ANA,-9.5642,-48.3875,1969-08-29,2019-09-30,51,1.3,41,19.6
00949000,ABREULÂNDIA,27,ABREULÂNDIA,TOCANTINS,ANA,-9.6244,-49.1553,1973-08-30,2019-09-30,47,2.4,41,12.8
00949001,DOIS IRMÃOS DO TOCANTINS,27,DOIS IRMÃOS DO TOCA,TOCANTINS,ANA,-9.2572,-49.0642,1973-09-28,2019-08-31,47,3.8,37,21.3
00949003,MARIANÓPOLIS,27,MARIANÓPOLIS DO TOC,TOCANTINS,ANA,-9.8011,-49.6564,1999-11-01,2019-08-31,21,1.7,16,23.8
00951000,VILA RICA,26,VILA RICA,MATO GROSSO,ANA,-10.0189,-51.1228,1983-12-08,2019-08-31,37,5.3,31,16.2
00956002,PARANAITA,17,PARANAITA,MATO GROSSO,ANA,-9.6939,-56.4742,1999-10-29,2019-09-30,21,0.0,18,14.3
00967000,RIO BRANCO,13,RIO BRANCO,ACRE,INMET,-9.9758,-67.8,1969-06-01,2019-06-30,51,2.1,40,21.6
01036005,PENEDO,49,PENEDO,ALAGOAS,ANA,-10.285,-36.5564,1935-01-01,2019-11-30,85,1.0,78,8.2
01036062,CAMAÇARI,39,CORURIPE,ALAGOAS,ANA,-10.0314,-36.3039,1989-08-17,2019-11-30,31,1.2,24,22.6
01036063,FAZENDA CAJUEIRO,50,JAPARATUBA,SERGIPE,ANA,-10.5781,-36.9156,1991-10-11,2019-11-30,29,1.2,22,24.1
01040026,PONTO NOVO,50,CALDEIRÃO GRANDE,BAHIA,ANA,-10.8444,-40.1117,1985-04-17,2019-11-30,35,1.5,27,22.9
01042012,RIO VERDE II,47,ITAGUAÇU DA BAHIA,BAHIA,ANA,-10.9864,-42.3422,1977-03-01,2019-08-31,43,0.9,33,23.3
01046001,MATEIROS,22,MATEIROS,TOCANTINS,ANA,-10.5464,-46.4186,1998-06-01,2019-09-30,22,0.8,18,18.2
01047000,JATOBÁ (FAZENDA BOA NOVA),22,NOVO ACORDO,TOCANTINS,ANA,-9.9906,-47.4786,1973-08-16,2019-09-30,47,2.2,38,19.1
01047002,PORTO GILÂNDIA,22,MONTE DO CARMO,TOCANTINS,ANA,-10.7553,-47.7647,1969-08-01,2019-09-30,51,2.6,39,23.5
01048001,PARAÍSO DO TOCANTINS,27,PARAÍSO DO TOCANTIN,TOCANTINS,ANA,-10.1653,-48.8906,1971-12-13,2019-09-30,49,1.6,39,20.4
01048003,PALMAS,22,PORTO NACIONAL,TOCANTINS,INMET,-10.7167,-48.4167,1949-01-01,2017-09-30,69,2.1,58,15.9
01051001,PORTO ALEGRE DO NORTE,26,PORTO ALEGRE DO NOR,MATO GROSSO,ANA,-10.8672,-51.6306,1983-12-09,2019-08-31,37,3.6,29,21.6
01065002,GUAJARÁ-MIRIM,15,GUAJARÁ-MIRIM,RONDÔNIA,ANA,-10.7925,-65.3478,1972-08-15,2019-10-31,48,4.8,36,25.0
01137042,FAZENDA TRIANON,50,ACAJUTIBA,BAHIA,ANA,-11.655,-37.9369,1989-08-13,2019-11-30,31,1.4,25,19.4
01137043,USINA ALTAMIRA,50,CONDE,BAHIA,ANA,-11.7683,-37.8036,1992-09-27,2019-11-30,28,0.9,22,21.4
01142017,FAZENDA CABACEIRAS,47,IBIPEBA,BAHIA,ANA,-11.3286,-42.305,1972-05-14,2019-11-30,48,2.4,41,14.6
01142020,FAZENDA REFRIGÉRIO - JUSANTE,47,IBIPEBA,BAHIA,ANA,-11.3561,-42.2736,1977-07-01,2019-10-31,43,1.4,33,23.3
01143002,MORPARÁ,46,MORPARÁ,BAHIA,ANA,-11.5633,-43.2753,1945-11-01,2019-11-30,75,4.8,68,9.3
01143010,BOQUEIRÃO,46,MANSIDÃO,BAHIA,ANA,-11.3553,-43.8456,1937-01-01,2019-11-30,83,0.4,75,9.6
01144005,FAZENDA MACAMBIRA,46,COTEGIPE,BAHIA,ANA,-11.6139,-44.1575,1963-12-01,2019-11-30,57,1.5,45,21.1
01145001,FORMOSA DO RIO PRETO,46,FORMOSA DO RIO PRET,BAHIA,ANA,-11.0478,-45.2019,1941-09-01,2019-11-30,79,6.0,61,22.8
01145014,NOVA VIDA - MONTANTE,46,BARREIRAS,BAHIA,ANA,-11.8525,-45.1222,1972-07-01,2019-11-30,48,2.8,38,20.8
01147000,ALMAS,22,ALMAS,TOCANTINS,ANA,-11.5789,-47.1739,1973-09-20,2019-08-31,47,3.0,37,21.3
01147002,PINDORAMA DO TOCANTINS,22,PINDORAMA DO TOCANT,TOCANTINS,ANA,-11.1403,-47.5767,1973-09-28,2019-09-30,47,0.2,43,8.5
01148000,FAZENDA LOBEIRA,22,SÃO VALÉRIO DA NATI,TOCANTINS,ANA,-11.5314,-48.2947,1969-08-05,2019-10-31,51,3.1,42,17.6
01149000,DUERE,26,DUERÉ,TOCANTINS,ANA,-11.3389,-49.2653,1973-08-31,2019-07-31,47,3.3,38,19.1
01150001,SÃO FÉLIX DO ARAGUAIA,26,SÃO FÉLIX DO ARAGUA,MATO GROSSO,ANA,-11.6197,-50.6625,1973-09-01,2019-11-30,47,3.0,37,21.3
01158001,FONTANILHAS,17,JUÍNA,MATO GROSSO,ANA,-11.3417,-58.3383,1979-02-22,2019-10-31,41,3.4,31,24.4
01166000,RIBERALTA 045,15,BOLÍVIA,BOLÍVIA,BOLÍVIA,-11.0167,-66.0833,1949-04-01,2019-11-30,71,7.6,57,19.7
01168002,COBIJA,13,BOLÍVIA,BOLÍVIA,BOLÍVIA,-11.0833,-68.8667,1949-04-01,2019-11-30,71,3.1,62,12.7
01237003,JANGADO,50,CARDEAL DA SILVA,BAHIA,ANA,-12.1303,-37.9417,1995-10-27,2019-11-30,25,0.7,20,20.0
01238000,TIRIRICA,50,CAMAÇARI,BAHIA,ANA,-12.5703,-38.0567,1962-07-01,2019-10-31,58,2.0,45,22.4
01239007,ARGOIM,51,RAFAEL JAMBEIRO,BAHIA,ANA,-12.585,-39.5183,1959-09-01,2019-11-30,61,2.8,51,16.4
01240012,ITAETÉ,51,ITAETÉ,BAHIA,ANA,-12.99,-40.9633,1933-11-01,2019-10-31,87,0.6,73,16.1
01241001,FAZENDA IGUAÇU,51,ITAETÉ,BAHIA,ANA,-12.9347,-41.0658,1969-06-27,2019-11-30,51,0.7,42,17.6
01241017,PORTO,51,LENÇÓIS,BAHIA,ANA,-12.4975,-41.2961,1941-07-01,2019-11-30,79,1.5,64,19.0
01241028,ESTAÇÃO EXPERIMENTAL,51,UTINGA,BAHIA,ANA,-12.0192,-41.0547,1991-10-23,2019-11-30,29,1.1,23,20.7
01241033,USINA MUCUGÊ,51,MUCUGÊ,BAHIA,ANA,-13.0075,-41.37,1985-03-03,2019-11-30,35,0.5,27,22.9
01242015,BROTAS DE MACAÚBAS,46,BROTAS DE MACAÚBAS,BAHIA,ANA,-12.0036,-42.6283,1976-01-01,2019-11-30,44,2.6,34,22.7
01242016,PONTE BR-242,46,OLIVEIRA DOS BREJIN,BAHIA,ANA,-12.2519,-42.7628,1972-07-01,2019-11-30,48,2.5,37,22.9
01243011,IBOTIRAMA,46,IBOTIRAMA,BAHIA,ANA,-12.1806,-43.2233,1952-08-01,2019-11-30,68,7.2,56,17.6
01244011,BARREIRAS,46,BARREIRAS,BAHIA,ANA,-11.1544,-45.0092,1936-05-01,2019-11-30,84,4.8,64,23.8
01244019,FAZENDA COQUEIRO,46,SÃO DESIDÉRIO,BAHIA,ANA,-12.3892,-44.9322,1972-06-28,2019-11-30,48,0.6,41,14.6
01245005,DEROCAL,46,SÃO DESIDÉRIO,BAHIA,ANA,-12.4114,-45.1203,1972-06-29,2019-11-30,48,1.7,39,18.8
01245014,FAZENDA JOHÁ,46,BARREIRAS,BAHIA,ANA,-12.1256,-45.8108,1984-07-18,2019-07-31,36,0.9,30,16.7
01247000,CONCEIÇÃO DO TOCANTINS,21,CONCEIÇÃO DO TOCANT,TOCANTINS,ANA,-12.2325,-47.3244,1973-08-25,2019-08-31,47,2.6,37,21.3
01249000,ALVORADA,22,ALVORADA,TOCANTINS,ANA,-12.4836,-49.1244,1971-12-16,2019-07-31,49,3.8,37,24.5
01249001,ARAGUAÇU,26,ARAGUAÇU,TOCANTINS,ANA,-12.9311,-49.8294,1973-09-23,2019-07-31,47,3.0,38,19.1
01264000,PRINCIPE DA BEIRA,15,COSTA MARQUES,RONDÔNIA,ANA,-12.4269,-64.4225,1983-04-22,2019-10-31,37,6.0,28,24.3
01339000,SANTA LUZIA,51,WENCESLAU GUIMARÃES,BAHIA,ANA,-13.6011,-39.4917,1953-03-02,2019-10-31,67,2.2,55,17.9
01339038,VALENÇA,51,VALENÇA,BAHIA,ANA,-13.3672,-39.0772,1944-12-01,2019-11-30,76,2.5,65,14.5
01341029,ITUAÇU,52,ITUAÇU,BAHIA,ANA,-13.8128,-41.3019,1984-08-20,2019-11-30,36,0.7,28,22.2
01343008,PORTO NOVO,45,SANTANA,BAHIA,ANA,-13.2925,-43.9092,1936-12-01,2019-11-30,84,4.7,69,17.9
01344002,MOCAMBO,45,SANTA MARIA DA VITÓ,BAHIA,ANA,-13.2778,-44.5589,1945-11-01,2019-11-30,75,4.7,60,20.0
01344014,CORRENTINA,45,CORRENTINA,BAHIA,ANA,-13.3364,-44.6522,1972-05-01,2019-11-30,48,6.4,36,25.0
01344016,ARROJADO,45,CORRENTINA,BAHIA,ANA,-13.4508,-44.5656,1977-01-01,2019-11-30,43,0.6,37,14.0
01346000,SÃO DOMINGOS,21,SÃO DOMINGOS,GOIÁS,ANA,-13.3975,-46.3158,1969-01-01,2019-08-31,51,3.1,40,21.6
01346001,NOVA ROMA (FAZ.SUCURI),21,NOVA ROMA,GOIÁS,ANA,-13.7425,-46.8775,1969-01-16,2019-10-31,51,5.4,42,17.6
01348000,CAMPINAÇU,20,CAMPINAÇU,GOIÁS,ANA,-13.79,-48.5669,1968-01-01,2019-07-31,52,1.0,47,9.6
01348003,TROMBAS,22,TROMBAS,GOIÁS,ANA,-13.5128,-48.745,1973-09-15,2019-06-30,47,5.0,37,21.3
01349000,ESTRELA DO NORTE,22,ESTRELA DO NORTE,GOIÁS,ANA,-13.8725,-49.0714,1971-12-13,2019-07-31,49,1.2,42,14.3
01349001,NOVO PLANALTO,25,NOVO PLANALTO,GOIÁS,ANA,-13.2447,-49.5017,1973-09-21,2019-07-31,47,2.5,41,12.8
01349002,PORANGATU (DESCOBERTO),22,PORANGATU,GOIÁS,ANA,-13.4097,-49.1564,1974-01-22,2019-07-31,46,4.4,38,17.4
01349003,ENTRONCAMENTO SÃO MIGUEL,22,PORANGATU,GOIÁS,ANA,-13.1028,-49.2014,1974-10-16,2019-08-30,46,5.4,37,19.6
01350000,BANDEIRANTES,25,NOVA CRIXÁS,GOIÁS,ANA,-13.6894,-50.7961,1973-09-22,2019-08-31,47,3.7,37,21.3
01350001,RIO PINTADO (FAZ.PONTAL),25,SÃO MIGUEL DO ARAGU,GOIÁS,ANA,-13.5286,-50.1881,1973-09-22,2019-07-31,47,3.7,37,21.3
01352001,GARAPU,18,CANARANA,MATO GROSSO,ANA,-13.4956,-52.4544,1985-01-01,2019-08-31,35,2.9,27,22.9
01364001,MAGDALENA  114,15,BOLÍVIA,BOLÍVIA,BOLÍVIA,-13.3333,-64.15,1949-04-01,2019-11-30,71,7.4,55,22.5
01365000,SANTA ANA 123,15,BOLÍVIA,BOLÍVIA,BOLÍVIA,-13.7167,-65.5833,1949-04-01,2019-11-30,71,9.5,54,23.9
01439002,FLORESTA AZUL,53,FLORESTA AZUL,BAHIA,ANA,-14.8597,-39.6583,1969-11-15,2019-11-30,51,0.8,40,21.6
01439023,ITAJUÍPE (PIRANJI),53,ITAJUÍPE,BAHIA,ANA,-14.6778,-39.3894,1944-09-01,2019-11-30,76,0.3,67,11.8
01439044,SANTA CRUZ DA VITÓRIA,53,SANTA CRUZ DA VITÓR,BAHIA,ANA,-14.9589,-39.8075,1969-11-20,2019-11-30,51,0.8,42,17.6
01441000,SANTO ANTÔNIO,52,TANHAÇU,BAHIA,ANA,-14.0994,-41.2911,1940-12-01,2019-11-30,80,0.9,66,17.5
01443001,MANGA,44,MANGA,MINAS GERAIS,ANA,-14.7567,-43.9322,1938-09-01,2019-07-31,82,0.7,75,8.5
01443026,PALMAS DE MONTE ALTO,45,PALMAS DE MONTE ALT,BAHIA,ANA,-14.2594,-43.1656,1984-05-17,2019-11-30,36,0.3,29,19.4
01444000,SÃO GONÇALO,45,MONTALVÂNIA,MINAS GERAIS,ANA,-14.3136,-44.4603,1946-06-01,2019-11-30,74,2.4,60,18.9
01444001,CAPITÂNEA,45,MONTALVÂNIA,MINAS GERAIS,ANA,-14.4311,-44.4817,1952-03-01,2019-11-30,68,1.4,53,22.1
01444004,JUVENÍLIA,45,MONTALVÂNIA,MINAS GERAIS,ANA,-14.2658,-44.1572,1964-02-01,2019-05-31,56,2.2,45,19.6
01444005,LAGOA DAS PEDRAS,45,MONTALVÂNIA,MINAS GERAIS,ANA,-14.2806,-44.4094,1969-05-28,2019-11-30,51,3.0,42,17.6
01444017,FAZENDA PORTO ALEGRE,45,COCOS,BAHIA,ANA,-14.2683,-44.5217,1946-06-01,2019-11-30,74,6.9,58,21.6
01446004,SÍTIO D'ABADIA,21,SÍTIO D'ABADIA,GOIÁS,ANA,-14.8039,-46.2533,1984-01-21,2019-09-30,36,2.7,29,19.4
01447000,ALTO PARAÍSO DE GOIÁS,20,ALTO PARAÍSO DE GOI,GOIÁS,ANA,-14.1347,-47.5117,1969-01-01,2019-10-31,51,4.0,42,17.6
01447002,SÃO JOÃO D'ALIANÇA,20,SÃO JOÃO D'ALIANÇA,GOIÁS,ANA,-14.7072,-47.5236,1968-12-29,2019-10-31,52,1.4,42,19.2
01448001,NIQUELÂNDIA,20,NIQUELÂNDIA,GOIÁS,ANA,-14.475,-48.4583,1969-07-17,2019-10-31,51,0.2,46,9.8
01448004,MOQUEM - FAZENDA VAU DA ONÇA,20,NIQUELÂNDIA,GOIÁS,ANA,-14.5489,-48.1653,1984-11-26,2019-10-31,36,3.7,27,25.0
01448009,UHE SERRA DA MESA MUQUEM VAU DA ONÇA,20,NIQUELÂNDIA,GOIÁS,FURNAS,-14.5683,-48.1589,1994-09-30,2016-12-31,23,0.0,22,4.3
01449000,PILAR DE GOIÁS,20,PILAR DE GOIÁS,GOIÁS,ANA,-14.7611,-49.5803,1973-08-14,2019-09-30,47,1.7,37,21.3
01449002,SANTA TEREZINHA DE GOIÁS,25,SANTA TEREZINHA DE ,GOIÁS,ANA,-14.4336,-49.7167,1973-09-25,2019-09-30,47,0.9,41,12.8
01450001,MOZARLÂNDIA (CHAC. FOGUEIRA),25,MOZARLÂNDIA,GOIÁS,ANA,-14.7414,-50.5772,1973-09-21,2019-09-30,47,1.2,38,19.1
01450002,GOVERNADOR LEÔNINO,25,NOVA CRIXÁS,GOIÁS,ANA,-14.0972,-50.3328,1976-08-18,2019-07-31,44,2.0,34,22.7
01452000,XAVANTINA,26,NOVA XAVANTINA,MATO GROSSO,ANA,-14.6722,-52.3547,1968-12-19,2019-10-31,52,2.8,44,15.4
01455008,FAZENDA RAIZAMA (COIMBRA),66,ROSÁRIO OESTE,MATO GROSSO,ANA,-14.8439,-55.855,1981-01-01,2019-09-30,39,9.9,30,23.1
01456001,ARENÁPOLIS (CANAÃ),66,ARENÁPOLIS,MATO GROSSO,ANA,-14.4694,-56.85,1971-08-01,2019-07-31,49,2.3,40,18.4
01456003,NORTELÂNDIA,66,NORTELÂNDIA,MATO GROSSO,ANA,-14.4511,-56.8142,1971-03-01,2019-10-31,49,5.8,39,20.4
01456004,QUEBÓ,66,NOBRES,MATO GROSSO,FURNAS,-14.6525,-56.1239,1972-08-01,2016-12-31,45,0.3,41,8.9
01464000,TRINIDAD (AASANA) 154,15,BOLÍVIA,BOLÍVIA,BOLÍVIA,-14.85,-64.95,1949-04-01,2019-11-30,71,0.6,66,7.0
01465000,SAN IGNÁCIO DE MOXOS,15,BOLÍVIA,BOLÍVIA,BOLÍVIA,-14.9686,-65.6325,1950-01-01,2019-11-30,70,7.4,58,17.1
01467002,RURRENABAQUE (AASANA),15,BOLÍVIA,BOLÍVIA,BOLÍVIA,-14.4294,-67.5031,1949-04-01,2019-11-30,71,7.3,59,16.9
01539006,ITAPEBI,54,ITAPEBI,BAHIA,ANA,-15.9608,-39.5261,1943-06-01,2019-11-30,77,4.1,62,19.5
01539010,MASCOTE,53,MASCOTE,BAHIA,ANA,-15.5642,-39.3017,1944-01-01,2019-11-30,76,1.4,61,19.7
01540020,BANDEIRA,54,BANDEIRA,MINAS GERAIS,ANA,-15.8817,-40.5633,1995-04-07,2019-11-30,25,0.1,21,16.0
01541010,ITAMARATI,53,ÁGUAS VERMELHAS,MINAS GERAIS,ANA,-15.5808,-41.4086,1976-09-24,2019-11-30,44,1.6,34,22.7
01541013,VEREDA DO PARAÍSO,53,SÃO JOÃO DO PARAÍSO,MINAS GERAIS,ANA,-15.4897,-41.4578,1985-02-26,2019-11-30,35,0.6,27,22.9
01543002,COLÔNIA DO JAÍBA,44,JAÍBA,MINAS GERAIS,ANA,-15.3411,-43.6753,1962-07-01,2019-11-30,58,2.0,47,19.0
01543013,JANAÚBA,44,JANAÚBA,MINAS GERAIS,ANA,-15.7756,-43.2797,1969-05-21,2019-08-31,51,1.5,39,23.5
01544012,SÃO FRANCISCO,44,SÃO FRANCISCO,MINAS GERAIS,ANA,-15.9494,-44.8681,1938-01-01,2019-11-30,82,2.2,73,11.0
01544019,SÃO JOÃO DA PONTE,44,SÃO JOÃO DA PONTE,MINAS GERAIS,ANA,-15.9303,-44.0042,1975-10-22,2019-11-30,45,2.9,35,22.2
01544030,VARZELÂNDIA,44,VARZELÂNDIA,MINAS GERAIS,ANA,-15.7042,-44.0286,1983-02-03,2019-11-30,37,1.9,28,24.3
01545004,GAUCHOS,43,SÃO FRANCISCO,MINAS GERAIS,ANA,-15.295,-45.6267,1995-04-20,2019-11-30,25,2.0,20,20.0
01546000,ARINOS - MONTANTE,43,ARINOS,MINAS GERAIS,ANA,-15.9178,-46.1192,1962-10-23,2019-11-30,58,4.0,44,24.1
01546011,PIRATINGA,43,FORMOSO,MINAS GERAIS,ANA,-15.0314,-46.2922,1999-11-01,2019-11-30,21,0.0,17,19.0
01547004,BRASÍLIA,60,BRASÍLIA,DISTRITO FEDERAL,INMET,-15.79,-47.9228,1961-08-01,2020-03-13,60,0.3,54,10.0
01547008,ETE SUL,60,BRASÍLIA,DISTRITO FEDERAL,CAESB,-15.8414,-47.9086,1971-01-01,2019-09-30,49,1.7,38,22.4
01547009,ETE NORTE,60,BRASÍLIA,DISTRITO FEDERAL,CAESB,-15.7433,-47.8772,1971-01-01,2019-09-30,49,1.8,39,20.4
01547013,TAQUARA,60,BRASÍLIA,DISTRITO FEDERAL,CAESB,-15.6322,-47.5203,1970-12-01,2019-09-30,50,2.8,45,10.0
01547014,ÁREA ALFA,60,BRASÍLIA,DISTRITO FEDERAL,CAESB,-15.9792,-47.975,1972-10-01,2019-09-30,48,4.7,42,12.5
01547016,CPAC - PRINCIPAL,60,BRASÍLIA,DISTRITO FEDERAL,EMBRAPA/IPAGRO,-15.5833,-47.7,1973-09-01,2015-12-31,43,0.0,42,2.3
01547018,JOCKEY CLUB,60,BRASÍLIA,DISTRITO FEDERAL,CAESB,-15.8058,-47.9981,1978-10-09,2019-09-30,42,0.4,39,7.1
01547019,ETA CABEÇA DE VEADO,60,BRASÍLIA,DISTRITO FEDERAL,CAESB,-15.8908,-47.8456,1978-07-01,2019-08-31,42,1.6,32,23.8
01547021,BARREIRO DF-130,42,BRASÍLIA,DISTRITO FEDERAL,CAESB,-15.8386,-47.6272,1978-10-18,2019-09-30,42,0.2,40,4.8
01547022,RIO PRETO,42,BRASÍLIA,DISTRITO FEDERAL,CAESB,-15.7922,-47.4328,1978-10-10,2019-09-30,42,0.2,40,4.8
01547025,CPAC - CHAPADA,60,BRASÍLIA,DISTRITO FEDERAL,EMBRAPA/IPAGRO,-15.5917,-47.7,1978-01-01,2015-12-31,38,0.0,38,0.0
01548001,MIMOSO,20,MIMOSO DE GOIÁS,GOIÁS,ANA,-15.0631,-48.1664,1973-03-20,2019-10-31,47,0.4,41,12.8
01548003,PIRENÓPOLIS,20,PIRENÓPOLIS,GOIÁS,ANA,-15.8547,-48.9661,1969-01-01,2019-08-31,51,4.1,43,15.7
01548006,TAGUATINGA - ETA RD,60,BRASÍLIA,DISTRITO FEDERAL,CAESB,-15.7897,-48.1128,1971-01-01,2019-09-30,49,1.7,38,22.4
01548008,DESCOBERTO,60,BRASÍLIA,DISTRITO FEDERAL,CAESB,-15.7794,-48.2303,1978-10-01,2019-09-30,42,3.8,34,19.0
01548010,ETE RIACHO FUNDO-GM-3,60,BRASÍLIA,DISTRITO FEDERAL,CAESB,-15.8906,-48.025,1978-10-07,2019-09-30,42,1.4,32,23.8
01549001,GOIANÉSIA,20,GOIANÉSIA,GOIÁS,ANA,-15.3292,-49.1217,1964-07-11,2019-10-31,56,6.5,44,21.4
01549002,ITAPURANGA,20,ITAPURANGA,GOIÁS,ANA,-15.5642,-49.9436,1969-01-16,2019-09-30,51,1.4,45,11.8
01549003,JARAGUÁ,20,JARAGUÁ,GOIÁS,ANA,-15.7581,-49.3369,1964-07-10,2019-10-31,56,0.7,50,10.7
01549004,NOVA AMÉRICA,25,NOVA AMÉRICA,GOIÁS,ANA,-15.0206,-49.8917,1973-09-26,2019-09-30,47,1.4,41,12.8
01550000,ITAPIRAPUA,25,ITAPIRAPUÃ,GOIÁS,ANA,-15.8158,-50.6086,1973-02-11,2019-09-30,47,1.1,42,10.6
01550001,JEROAQUARA,25,FAINA,GOIÁS,ANA,-15.3731,-50.5,1973-05-16,2019-09-30,47,1.5,39,17.0
01550002,TRAVESSÃO,25,MATRINCHÃ,GOIÁS,ANA,-15.5356,-50.7028,1973-09-20,2019-10-31,47,2.5,38,19.1
01551000,BRITÂNIA,25,BRITÂNIA,GOIÁS,ANA,-15.2461,-51.1633,1973-09-19,2019-09-30,47,1.2,39,17.0
01551002,PERES,24,ARAGARÇAS,GOIÁS,ANA,-15.89,-51.8536,1971-11-24,2019-10-31,49,3.7,37,24.5
01551003,SANTA FÉ,25,SANTA FÉ DE GOIÁS,GOIÁS,ANA,-15.7672,-51.1044,1973-09-18,2019-09-30,47,1.2,37,21.3
01552001,GENERAL CARNEIRO,24,GENERAL CARNEIRO,MATO GROSSO,ANA,-15.7111,-52.7544,1971-03-01,2019-09-30,49,3.8,40,18.4
01552002,TORIQUEJE,26,BARRA DO GARÇAS,MATO GROSSO,ANA,-15.2503,-53.0553,1971-03-23,2019-09-30,49,5.6,37,24.5
01552006,PINDAÍBA,24,BARRA DO GARÇAS,MATO GROSSO,ANA,-15.0356,-52.2375,1983-11-01,2019-08-31,37,6.9,28,24.3
01554006,JACIARA,66,JACIARA,MATO GROSSO,ANA,-15.9889,-54.9683,1965-11-27,2019-08-31,55,4.9,46,16.4
01555001,CHAPADA DOS GUIMARÃES,66,CHAPADA DOS GUIMARÃ,MATO GROSSO,FURNAS,-15.4689,-55.7289,1968-07-21,2016-12-31,49,5.9,39,20.4
01555007,USINA CASCA III PR2,66,CHAPADA DOS GUIMARÃ,MATO GROSSO,FURNAS,-15.3656,-55.4369,1982-04-01,2016-12-31,35,1.7,31,11.4
01555008,FAZENDA ESTIVA PR3,66,CHAPADA DOS GUIMARÃ,MATO GROSSO,ANA,-15.2328,-55.7411,1982-01-01,2019-09-30,38,4.0,32,15.8
01556000,NOSSA SENHORA DA GUIA,66,CUIABÁ,MATO GROSSO,ANA,-15.355,-56.2317,1971-03-01,2019-09-30,49,0.4,41,16.3
01556002,CUIABÁ,66,CUIABÁ,MATO GROSSO,INMET,-15.6217,-56.1083,1925-01-01,2019-06-30,95,8.5,72,24.2
01556005,ACORIZAL,66,ACORIZAL,MATO GROSSO,FURNAS,-15.2067,-56.3656,1968-12-08,2016-12-31,49,2.7,43,12.2
01559000,PONTES E LACERDA,15,PONTES E LACERDA,MATO GROSSO,ANA,-15.2242,-59.3503,1974-11-14,2019-09-30,46,1.8,40,13.0
01563000,ASCENCION DE GUARAYOS 175,15,BOLÍVIA,BOLÍVIA,BOLÍVIA,-15.7,-63.1,1949-04-01,2019-11-30,71,5.6,59,16.9
01639000,MUNDO NOVO,55,EUNÁPOLIS,BAHIA,ANA,-16.265,-39.5833,1962-08-15,2019-11-30,58,7.1,45,22.4
01640001,FAZENDA CAJUEIRO,54,ALMENARA,MINAS GERAIS,ANA,-16.1203,-40.7394,1975-09-13,2019-11-30,45,1.5,37,17.8
01640009,RUBIM,54,RUBIM,MINAS GERAIS,ANA,-16.3789,-40.5408,1995-04-06,2019-11-30,25,0.1,20,20.0
01640010,FELISBURGO,54,FELISBURGO,MINAS GERAIS,ANA,-16.6342,-40.7606,1995-04-06,2019-11-30,25,1.1,19,24.0
01640012,JUCURUÇU,55,ITAMARAJU,BAHIA,ANA,-16.8386,-40.1564,1992-12-04,2019-11-30,28,0.9,23,17.9
01641001,ITAOBIM,54,ITAOBIM,MINAS GERAIS,ANA,-16.5683,-41.5031,1948-01-01,2019-05-31,72,2.4,57,20.8
01641007,SÃO JOÃO GRANDE,54,ITAOBIM,MINAS GERAIS,ANA,-16.6894,-41.4983,1974-02-16,2019-11-30,46,2.1,35,23.9
01641010,ITINGA,54,ITINGA,MINAS GERAIS,ANA,-16.6181,-41.7675,1977-01-22,2019-11-30,43,1.5,38,11.6
01641011,MEDINA,54,MEDINA,MINAS GERAIS,ANA,-16.23,-41.4808,1975-09-12,2018-12-31,44,2.6,33,25.0
01641012,FAZENDA BOA SORTE JUSANTE,54,JOAÍMA,MINAS GERAIS,ANA,-16.5961,-41.0244,1992-12-04,2019-11-30,28,0.5,21,25.0
01642002,CORONEL MURTA,54,CORONEL MURTA,MINAS GERAIS,ANA,-16.6131,-42.1869,1948-01-01,2019-11-30,72,2.0,66,8.3
01642007,PORTO MANDACARU,54,GRÃO MOGOL,MINAS GERAIS,ANA,-16.6789,-42.4856,1945-10-05,2019-11-30,75,7.4,60,20.0
01642014,FAZENDA JAMBEIRO - GRÃO MOGOL,54,GRÃO MOGOL,MINAS GERAIS,ANA,-16.5914,-42.9183,1972-12-28,2019-11-30,48,0.8,41,14.6
01642026,PONTE VACARIA,54,SALINAS,MINAS GERAIS,ANA,-16.1931,-42.5942,1992-11-29,2019-08-31,28,0.0,24,14.3
01642027,BARRA DO SALINAS,54,CORONEL MURTA,MINAS GERAIS,ANA,-16.6178,-42.3089,1992-11-30,2019-11-30,28,1.0,23,17.9
01642028,ITIRA,54,ARAÇUAÍ,MINAS GERAIS,ANA,-16.7608,-42.0061,1992-08-14,2019-11-30,28,0.4,24,14.3
01643026,BOM JARDIM,44,SÃO JOÃO DA PONTE,MINAS GERAIS,ANA,-16.1086,-43.8561,1999-11-03,2019-11-30,21,0.0,19,9.5
01644028,SÃO JOÃO DA VEREDA,42,MONTES CLAROS,MINAS GERAIS,ANA,-16.7025,-44.1172,1975-10-16,2019-11-30,45,1.9,36,20.0
01645000,SÃO ROMÃO,43,SÃO ROMÃO,MINAS GERAIS,ANA,-16.3717,-45.0828,1952-07-18,2019-11-30,68,0.5,60,11.8
01645005,VILA URUCUIA,43,SÃO FRANCISCO,MINAS GERAIS,ANA,-16.1336,-45.7422,1967-04-01,2019-10-31,53,2.0,40,24.5
01645013,FAZENDA ÁGUA BRANCA,42,BURITIZEIRO,MINAS GERAIS,ANA,-16.8072,-45.0303,1974-11-14,2019-11-30,46,0.4,40,13.0
01645019,FAZENDA CONCEIÇÃO,43,SÃO ROMÃO,MINAS GERAIS,ANA,-16.4286,-45.7422,1984-07-01,2019-11-30,36,2.3,27,25.0
01647002,UHE BATALHA CRISTALINA,60,CRISTALINA,GOIÁS,FURNAS,-16.7881,-47.6033,1973-02-23,2016-12-31,44,3.6,33,25.0
01648001,PONTE ANÁPOLIS - BRASÍLIA,60,ALEXÂNIA,GOIÁS,ANA,-16.1431,-48.6,1967-05-29,2019-08-31,53,5.1,40,24.5
01649001,ARAGOIÂNIA,60,ARAGOIÂNIA,GOIÁS,ANA,-16.9119,-49.4522,1973-08-14,2019-08-31,47,0.6,40,14.9
01649004,GOIANÁPOLIS,60,GOIANÁPOLIS,GOIÁS,ANA,-16.5164,-49.0203,1973-09-01,2019-08-31,47,4.6,39,17.0
01649007,ITABERAÍ,20,ITABERAÍ,GOIÁS,ANA,-16.0275,-49.8003,1973-10-01,2019-09-30,47,2.6,36,23.4
01649009,OURO VERDE DE GOIÁS,60,OURO VERDE DE GOIÁS,GOIÁS,ANA,-16.2186,-49.1978,1973-08-12,2019-08-31,47,1.8,38,19.1
01649013,GOIÂNIA,60,GOIÂNIA,GOIÁS,INMET,-16.6736,-49.2639,1949-01-01,2019-06-30,71,1.2,64,9.9
01650000,CACHOEIRA DE GOIÁS,24,CACHOEIRA DE GOIÁS,GOIÁS,ANA,-16.6694,-50.6492,1973-09-14,2019-07-31,47,2.4,36,23.4
01650001,CÓRREGO DO OURO,24,CÓRREGO DO OURO,GOIÁS,ANA,-16.2983,-50.5567,1973-09-18,2019-07-31,47,2.9,38,19.1
01650003,TURVÂNIA,60,TURVÂNIA,GOIÁS,ANA,-16.6094,-50.1328,1973-03-01,2019-08-31,47,0.4,41,12.8
01651002,PIRANHAS,24,PIRANHAS,GOIÁS,ANA,-16.4233,-51.8228,1973-09-15,2019-10-31,47,1.5,38,19.1
01651003,SÃO FERREIRA,24,ARENÓPOLIS,GOIÁS,ANA,-16.3058,-51.4706,1973-10-01,2019-10-31,47,1.8,38,19.1
01652000,BOM JARDIM DE GOIÁS,24,BOM JARDIM DE GOIÁS,GOIÁS,ANA,-16.2092,-52.1686,1973-09-16,2019-07-31,47,1.8,39,17.0
01652003,DOVERLÂNDIA,24,DOVERLÂNDIA,GOIÁS,ANA,-16.7217,-52.3211,1984-02-22,2019-07-31,36,4.9,27,25.0
01653000,TESOURO,24,TESOURO,MATO GROSSO,ANA,-16.0767,-53.5511,1971-04-25,2019-11-30,49,4.0,41,16.3
01653002,GUIRATINGA,24,GUIRATINGA,MATO GROSSO,ANA,-16.3528,-53.7608,1968-09-01,2019-08-31,52,5.7,41,21.2
01653004,ALTO GARÇAS,24,ALTO GARÇAS,MATO GROSSO,ANA,-16.9442,-53.5336,1976-06-28,2019-08-31,44,3.7,36,18.2
01654000,RONDONÓPOLIS,66,RONDONÓPOLIS,MATO GROSSO,ANA,-16.4711,-54.6561,1965-11-24,2019-11-30,55,3.8,42,23.6
01654001,SANTA TEREZINHA,66,PEDRA PRETA,MATO GROSSO,ANA,-16.6739,-54.2661,1969-07-25,2019-08-31,51,3.8,42,17.6
01654005,VALE RICO,66,GUIRATINGA,MATO GROSSO,ANA,-16.3911,-54.1494,1984-01-30,2019-08-31,36,0.1,28,22.2
01655002,BARÃO DE MELGAÇO,66,BARÃO DE MELGAÇO,MATO GROSSO,ANA,-16.1936,-55.9453,1968-07-25,2019-09-30,52,1.8,45,13.5
01660000,SAN INÁCIO DE VELASCO,15,BOLÍVIA,BOLÍVIA,BOLÍVIA,-16.3667,-60.95,1949-03-01,2019-11-30,71,0.2,67,5.6
01662000,CONCEPCION,15,BOLÍVIA,BOLÍVIA,BOLÍVIA,-16.25,-62.1,1949-02-01,2019-11-30,71,3.1,61,14.1
01662001,SAN JAVIER,15,BOLÍVIA,BOLÍVIA,BOLÍVIA,-16.35,-62.65,1949-04-01,2019-11-30,71,2.0,65,8.5
01739021,CACHOEIRA GRANDE,55,PRADO,BAHIA,ANA,-17.2536,-39.7783,1992-12-05,2019-07-31,28,3.8,21,25.0
01739022,FAZENDA RIO DO SUL,55,PRADO,BAHIA,ANA,-17.2494,-39.6222,1992-12-01,2019-11-30,28,3.4,21,25.0
01740033,ÁGUAS FORMOSAS,55,ÁGUAS FORMOSAS,MINAS GERAIS,ANA,-17.0825,-40.9408,1995-04-04,2019-11-30,25,0.1,22,12.0
01741013,PADRE PARAÍSO,54,PADRE PARAÍSO,MINAS GERAIS,ANA,-17.0728,-41.4831,1976-10-01,2019-11-30,44,2.5,34,22.7
01742014,CAPELINHA,54,CAPELINHA,MINAS GERAIS,ANA,-17.6917,-42.5261,1975-09-27,2019-11-30,45,1.3,42,6.7
01742017,MALACACHETA,56,MALACACHETA,MINAS GERAIS,ANA,-17.8456,-42.0756,1976-12-01,2019-11-30,44,0.0,41,6.8
01742019,ÁGUA BOA,56,ÁGUA BOA,MINAS GERAIS,ANA,-17.9922,-42.3939,1984-03-13,2019-11-30,36,0.3,31,13.9
01742020,FAZENDA FACÃO,54,ARAÇUAÍ,MINAS GERAIS,ANA,-16.9711,-42.1156,1985-02-12,2019-11-30,35,0.0,32,8.6
01742023,MINAS NOVAS,54,MINAS NOVAS,MINAS GERAIS,ANA,-17.2192,-42.5889,1992-12-08,2019-11-30,28,0.0,24,14.3
01742025,SETUBINHA,54,SETUBINHA,MINAS GERAIS,ANA,-17.5728,-42.1353,1999-10-08,2019-11-30,21,0.1,17,19.0
01743002,VILA TERRA BRANCA - JUSANTE,54,BOCAIÚVA,MINAS GERAIS,ANA,-17.3128,-43.2078,1951-06-18,2019-11-30,69,3.2,55,20.3
01743018,SENADOR MODESTINO,54,SENADOR MODESTINO G,MINAS GERAIS,ANA,-17.9531,-43.2467,1999-10-11,2019-11-30,21,1.1,17,19.0
01744010,LASSANCE,41,LASSANCE,MINAS GERAIS,ANA,-17.89,-44.5767,1941-09-01,2019-11-30,79,9.2,63,20.3
01747005,GUARDA-MOR,42,GUARDA-MOR,MINAS GERAIS,ANA,-17.7725,-47.0986,1973-11-01,2019-11-30,47,1.9,37,21.3
01748000,CRISTIANÓPOLIS,60,CRISTIANÓPOLIS,GOIÁS,FURNAS,-17.1981,-48.715,1973-02-12,2016-12-31,44,2.5,35,20.5
01748004,MARZAGÃO,60,MARZAGÃO,GOIÁS,ANA,-17.9831,-48.6833,1973-08-19,2019-08-31,47,4.0,36,23.4
01749000,EDÉIA (ALEGRETE),60,EDÉIA,GOIÁS,ANA,-17.3414,-49.9303,1973-08-15,2019-08-31,47,1.1,36,23.4
01749001,FAZENDA BOA VISTA,60,VARJÃO,GOIÁS,ANA,-17.1056,-49.6908,1971-03-01,2019-12-31,49,1.8,41,16.3
01749002,JOVIÂNIA,60,JOVIÂNIA,GOIÁS,ANA,-17.8094,-49.6264,1973-08-30,2019-08-31,47,0.9,37,21.3
01749004,PONTALINA,60,PONTALINA,GOIÁS,ANA,-17.5169,-49.4417,1973-02-27,2019-08-31,47,1.0,38,19.1
01753000,ALTO ARAGUAIA,24,ALTO ARAGUAIA,MATO GROSSO,ANA,-17.3,-53.2194,1964-01-01,2019-07-31,56,4.1,43,23.2
01754000,ITIQUIRA,66,ITIQUIRA,MATO GROSSO,ANA,-17.2078,-54.14,1965-11-22,2019-11-30,55,0.2,49,10.9
01756000,ILHA CAMARGO,66,BARÃO DE MELGAÇO,MATO GROSSO,ANA,-17.0572,-56.5856,1968-02-02,2019-10-31,52,4.8,43,17.3
01763001,SANTA CRUZ - TROMPILLO,15,BOLÍVIA,BOLÍVIA,BOLÍVIA,-17.8,-63.1667,1971-01-01,2019-11-30,49,6.7,44,10.2
01766002,COCHABAMBA,15,BOLÍVIA,BOLÍVIA,BOLÍVIA,-17.3833,-66.1,1949-04-01,2019-11-30,71,5.9,58,18.3
01840000,ÁGUIA BRANCA,56,ÁGUIA BRANCA,ESPÍRITO SANTO,ANA,-18.9856,-40.7461,1969-01-01,2019-11-30,51,0.2,47,7.8
01840004,BARRA DE SÃO FRANCISCO,55,BARRA DE SÃO FRANCI,ESPÍRITO SANTO,ANA,-18.7619,-40.89,1947-09-17,2019-11-30,73,1.4,59,19.2
01840012,FAZENDA LIMOEIRO,55,MONTANHA,ESPÍRITO SANTO,ANA,-18.1456,-40.1439,1970-01-01,2019-11-30,50,1.7,40,20.0
01840015,PATRIMÔNIO SANTA LUZIA DO NORTE,55,ECOPORANGA,ESPÍRITO SANTO,ANA,-18.2056,-40.6033,1970-01-01,2019-09-30,50,0.8,45,10.0
01840019,CÓRREGO DA BOA ESPERANÇA,55,NOVA VENÉCIA,ESPÍRITO SANTO,ANA,-18.7006,-40.4419,1976-12-01,2019-11-30,44,1.3,36,18.2
01840026,BOCA DA VALA,55,SÃO MATEUS,ESPÍRITO SANTO,ANA,-18.6586,-40.0911,1992-09-24,2019-09-30,28,2.0,22,21.4
01841001,VILA MATIAS - MONTANTE,56,MATHIAS LOBATO,MINAS GERAIS,ANA,-18.5747,-41.9178,1940-12-01,2019-11-30,80,1.3,68,15.0
01841003,CAMPANÁRIO,56,CAMPANÁRIO,MINAS GERAIS,ANA,-18.2386,-41.7486,1941-01-01,2019-11-30,79,5.8,64,19.0
01841006,VARGEM GRANDE,55,MANTENA,MINAS GERAIS,ANA,-18.6811,-41.1967,1967-01-01,2019-11-30,53,6.9,40,24.5
01841009,MANTENÓPOLIS,55,MANTENÓPOLIS,ESPÍRITO SANTO,ANA,-18.8389,-41.1103,1970-01-01,2019-11-30,50,2.7,42,16.0
01841010,SANTO AGOSTINHO,55,BARRA DE SÃO FRANCI,ESPÍRITO SANTO,ANA,-18.4061,-41.04,1970-01-01,2019-11-30,50,0.8,45,10.0
01841011,TUMIRITINGA,56,TUMIRITINGA,MINAS GERAIS,ANA,-18.9764,-41.6403,1974-01-28,2019-11-30,46,0.9,40,13.0
01841018,CENTRAL DE MINAS,55,CENTRAL DE MINAS,MINAS GERAIS,ANA,-18.7631,-41.3083,1976-08-11,2019-09-30,44,1.6,34,22.7
01841019,DIVINO DAS LARANJEIRAS,56,DIVINO DAS LARANJEI,MINAS GERAIS,ANA,-18.7769,-41.4828,1984-01-17,2019-11-30,36,2.4,27,25.0
01842004,SÃO PEDRO DO SUAÇUÍ,56,SÃO PEDRO DO SUAÇUÍ,MINAS GERAIS,ANA,-18.3631,-42.6022,1941-11-01,2019-10-31,79,2.7,62,21.5
01842005,COROACI,56,COROACI,MINAS GERAIS,ANA,-18.6119,-42.2786,1941-12-10,2019-11-30,79,1.1,73,7.6
01842008,SANTA MARIA DO SUAÇUÍ,56,SANTA MARIA DO SUAÇ,MINAS GERAIS,ANA,-18.2011,-42.4553,1969-07-14,2019-11-30,51,3.1,40,21.6
01842020,SÃO JOÃO EVANGELISTA,56,SÃO JOÃO EVANGELIST,MINAS GERAIS,ANA,-18.5528,-42.7642,1984-03-13,2019-11-30,36,0.0,31,13.9
01843011,SERRO,56,SERRO,MINAS GERAIS,ANA,-18.5928,-43.4125,1984-01-13,2019-11-30,36,0.0,33,8.3
01843012,RIO VERMELHO,56,RIO VERMELHO,MINAS GERAIS,ANA,-18.2797,-43.0006,1984-03-11,2019-11-30,36,2.8,30,16.7
01844017,CORINTO,41,CORINTO,MINAS GERAIS,ANA,-18.3722,-44.4436,1984-01-25,2019-11-30,36,1.3,29,19.4
01846003,MAJOR PORTO,41,PATOS DE MINAS,MINAS GERAIS,ANA,-18.7069,-46.0369,1968-08-03,2019-11-30,52,1.4,41,21.2
01846004,GUIMARANIA,60,GUIMARANIA,MINAS GERAIS,ANA,-18.8497,-46.8008,1974-10-25,2019-11-30,46,2.5,36,21.7
01846005,PRESIDENTE OLEGÁRIO,60,PRESIDENTE OLEGÁRIO,MINAS GERAIS,ANA,-18.4125,-46.4222,1974-10-24,2019-11-30,46,0.2,41,10.9
01846006,PANTANO,60,COROMANDEL,MINAS GERAIS,ANA,-18.5594,-46.8003,1975-01-25,2019-11-30,45,1.4,35,22.2
01846007,SANTANA DE PATOS,60,PATOS DE MINAS,MINAS GERAIS,ANA,-18.8411,-46.5508,1966-11-18,2019-11-30,54,1.0,49,9.3
01846023,LAGAMAR,42,LAGAMAR,MINAS GERAIS,ANA,-18.1828,-46.8042,1983-02-12,2019-09-22,37,2.1,28,24.3
01847001,ESTRELA DO SUL,60,ESTRELA DO SUL,MINAS GERAIS,ANA,-18.7381,-47.69,1944-05-16,2019-11-30,76,0.3,68,10.5
01847003,ABADIA DOS DOURADOS,60,ABADIA DOS DOURADOS,MINAS GERAIS,ANA,-18.4911,-47.4064,1946-06-18,2019-11-30,74,0.7,68,8.1
01847007,CASCALHO RICO,60,CASCALHO RICO,MINAS GERAIS,ANA,-18.5789,-47.8792,1975-09-17,2019-11-30,45,2.3,36,20.0
01847010,IRAÍ DE MINAS,60,IRAÍ DE MINAS,MINAS GERAIS,ANA,-18.9819,-47.4575,1966-11-19,2019-11-30,54,0.7,46,14.8
01848006,TUPACIGUARA,60,TUPACIGUARA,MINAS GERAIS,ANA,-18.6008,-48.6908,1974-12-17,2019-11-30,46,2.1,36,21.7
01848008,BRILHANTE,60,TUPACIGUARA,MINAS GERAIS,ANA,-18.4922,-48.9028,1975-09-16,2019-11-30,45,3.2,34,24.4
01848055,UHE ITUMBIARA TUPACIGUARA,60,TUPACIGUARA,MINAS GERAIS,FURNAS,-18.6217,-48.6847,2000-01-01,2015-05-31,16,0.6,13,18.8
01849006,AVANTIGUARA,60,CANÁPOLIS,MINAS GERAIS,ANA,-18.7719,-49.0697,1975-05-01,2019-11-30,45,1.5,37,17.8
01849016,PONTE MEIA PONTE,60,ITUMBIARA,GOIÁS,ANA,-18.3394,-49.6114,1971-04-01,2019-10-31,49,0.1,44,10.2
01849026,PONTE BR-365 (FAZ. BOA VISTA),60,GURINHATÃ,MINAS GERAIS,ANA,-18.8869,-50.0003,1995-08-08,2019-11-30,25,0.4,20,20.0
01850001,FAZENDA ALIANÇA,60,GOIATUBA,GOIÁS,ANA,-18.1047,-50.0314,1971-04-01,2019-12-31,49,2.4,43,12.2
01850003,MAURILÂNDIA,60,MAURILÂNDIA,GOIÁS,ANA,-17.9797,-50.3372,1973-08-27,2019-10-31,47,0.5,40,14.9
01851001,CAMPO ALEGRE,60,APORÉ,GOIÁS,ANA,-18.5178,-52.0928,1972-07-27,2019-10-31,48,2.7,38,20.8
01851005,SERRANÓPOLIS,60,SERRANÓPOLIS,GOIÁS,ANA,-18.3044,-51.9622,1983-01-21,2019-07-31,37,2.2,31,16.2
01853005,COLÔNIA FIGUEIRÃO,66,FIGUEIRÃO,MATO GROSSO DO SUL,ANA,-18.6797,-53.6378,1984-01-18,2019-08-31,36,0.7,30,16.7
01854006,CONFLUÊNCIA DO RIO JAURU,66,RIO VERDE DE MATO G,MATO GROSSO DO SUL,ANA,-18.7303,-54.5786,1984-01-14,2019-09-30,36,3.7,31,13.9
01939002,POVOAÇÃO,56,LINHARES,ESPÍRITO SANTO,ANA,-19.5775,-39.7944,1974-05-19,2019-11-30,46,0.4,42,8.7
01940000,ITARANA,56,ITARANA,ESPÍRITO SANTO,ANA,-19.8744,-40.8744,1947-08-04,2019-11-30,73,2.4,67,8.2
01940001,SÃO JOÃO DE PETRÓPOLIS,56,SANTA TERESA,ESPÍRITO SANTO,ANA,-19.8053,-40.6789,1947-08-01,2019-11-30,73,1.0,67,8.2
01940005,CAVALINHO,56,IBIRAÇU,ESPÍRITO SANTO,ANA,-19.6922,-40.3981,1948-06-01,2019-10-31,72,0.6,64,11.1
01940006,COLATINA - CORPO DE BOMBEIROS,56,COLATINA,ESPÍRITO SANTO,ANA,-19.5308,-40.6231,1967-05-01,2019-11-30,53,0.1,48,9.4
01940007,FUNDÃO,57,FUNDÃO,ESPÍRITO SANTO,ANA,-19.9369,-40.4014,1948-02-29,2019-11-30,72,1.3,62,13.9
01940009,PANCAS,56,PANCAS,ESPÍRITO SANTO,ANA,-19.2203,-40.8533,1957-06-11,2019-11-30,63,0.2,57,9.5
01940010,VALSUGANA VELHA - MONTANTE,57,SANTA TERESA,ESPÍRITO SANTO,ANA,-19.9533,-40.5525,1956-03-20,2019-11-30,64,0.8,54,15.6
01940012,ITAIMBÉ,56,ITAGUAÇU,ESPÍRITO SANTO,ANA,-19.6636,-40.8353,1957-04-05,2019-11-30,63,0.1,60,4.8
01940013,NOVO BRASIL,56,COLATINA,ESPÍRITO SANTO,ANA,-19.2375,-40.5914,1969-01-01,2019-11-30,51,0.0,50,2.0
01940016,BARRA DE SÃO GABRIEL,56,SÃO GABRIEL DA PALH,ESPÍRITO SANTO,ANA,-19.0578,-40.5164,1968-01-01,2019-11-30,52,1.7,47,9.6
01940020,CALDEIRÃO,56,SANTA TERESA,ESPÍRITO SANTO,ANA,-19.955,-40.7417,1970-01-01,2019-11-30,50,0.9,42,16.0
01940022,JACUPEMBA,57,ARACRUZ,ESPÍRITO SANTO,ANA,-19.5886,-40.1981,1970-01-01,2019-11-30,50,0.0,49,2.0
01940023,RIO BANANAL,56,LINHARES,ESPÍRITO SANTO,ANA,-19.2742,-40.3208,1970-01-01,2019-11-30,50,0.5,44,12.0
01941000,IPANEMA,56,IPANEMA,MINAS GERAIS,ANA,-19.7989,-41.7061,1941-06-01,2018-10-31,78,0.1,73,6.4
01941003,BAIXO GUANDU,56,BAIXO GUANDÚ,ESPÍRITO SANTO,ANA,-19.5253,-41.0153,1941-04-14,2019-11-30,79,1.7,69,12.7
01941004,RESPLENDOR - JUSANTE,56,RESPLENDOR,MINAS GERAIS,ANA,-19.3431,-41.2461,1941-04-17,2019-09-30,79,2.3,70,11.4
01941005,BARRA DO CUIETÉ - JUSANTE,56,CONSELHEIRO PENA,MINAS GERAIS,ANA,-19.0617,-41.5328,1944-07-21,2019-11-30,76,2.5,64,15.8
01941006,ASSARAI - MONTANTE,56,POCRANE,MINAS GERAIS,ANA,-19.5947,-41.4581,1946-01-01,2019-11-30,74,0.3,69,6.8
01941008,LARANJA DA TERRA,56,AFONSO CLÁUDIO,ESPÍRITO SANTO,ANA,-19.9011,-41.0581,1947-08-03,2019-11-30,73,0.3,64,12.3
01941009,IBITUBA,56,BAIXO GUANDÚ,ESPÍRITO SANTO,ANA,-19.6911,-41.02,1967-06-15,2019-11-30,53,0.0,50,5.7
01941010,SÃO SEBASTIÃO DA ENCRUZILHADA,56,AIMORÉS,MINAS GERAIS,ANA,-19.4925,-41.1617,1967-10-25,2019-11-30,53,0.2,50,5.7
01941011,SANTO ANTÔNIO DO MANHUAÇU,56,CARATINGA,MINAS GERAIS,ANA,-19.6783,-41.8361,1970-01-01,2019-11-30,50,0.2,45,10.0
01941012,ALTO RIO NOVO,56,PANCAS,ESPÍRITO SANTO,ANA,-19.0592,-41.0275,1970-01-01,2019-11-30,50,0.2,48,4.0
01941018,ITANHOMI,56,ITANHOMI,MINAS GERAIS,ANA,-19.1617,-41.8622,1984-01-21,2019-11-30,36,0.5,27,25.0
01941019,MUTUM,56,MUTUM,MINAS GERAIS,ANA,-19.8111,-41.4378,1983-01-19,2019-08-31,37,2.0,30,18.9
01941021,ALVARENGA,56,ALVARENGA,MINAS GERAIS,ANA,-19.4158,-41.7297,1995-04-21,2019-11-30,25,0.2,20,20.0
01942002,BOM JESUS DO GALHO,56,BOM JESUS DO GALHO,MINAS GERAIS,ANA,-19.8336,-42.3178,1941-04-17,2019-11-30,79,0.4,64,19.0
01942006,VERMELHO VELHO,56,RAUL SOARES,MINAS GERAIS,ANA,-19.9989,-42.3475,1946-06-20,2019-10-31,74,0.1,66,10.8
01942008,DOM CAVATI,56,DOM CAVATI,MINAS GERAIS,ANA,-19.3736,-42.105,1969-07-28,2019-11-30,51,6.3,43,15.7
01942029,MARIO DE CARVALHO,56,CORONEL FABRICIANO,MINAS GERAIS,ANA,-19.5247,-42.6442,1986-09-19,2019-11-30,34,1.6,28,17.6
01942030,BELO ORIENTE,56,BELO ORIENTE,MINAS GERAIS,ANA,-19.3164,-42.3961,1986-11-12,2019-11-30,34,0.1,30,11.8
01942031,CACHOEIRA DOS ÓCULOS - MONTANTE,56,CÓRREGO NOVO,MINAS GERAIS,ANA,-19.7769,-42.4769,1986-11-25,2019-11-30,34,1.8,30,11.8
01942032,NAQUE VELHO,56,NAQUE,MINAS GERAIS,ANA,-19.1886,-42.4228,1986-11-22,2019-11-30,34,1.5,31,8.8
01943001,RIO PIRACICABA,56,RIO PIRACICABA,MINAS GERAIS,ANA,-19.9228,-43.1778,1940-11-01,2019-11-30,80,2.4,69,13.8
01943002,CONCEIÇÃO DO MATO DENTRO,56,CONCEIÇÃO DO MATO D,MINAS GERAIS,ANA,-19.0167,-43.4442,1941-01-01,2019-11-30,79,8.9,63,20.3
01943003,FERROS,56,FERROS,MINAS GERAIS,ANA,-19.2503,-43.0144,1941-03-23,2019-11-30,79,9.2,65,17.7
01943007,SANTA BÁRBARA,56,SANTA BÁRBARA,MINAS GERAIS,ANA,-19.9453,-43.4011,1941-10-12,2019-11-30,79,0.2,70,11.4
01943008,SANTA MARIA DO ITABIRA,56,SANTA MARIA DE ITAB,MINAS GERAIS,ANA,-19.4403,-43.1186,1941-10-14,2019-11-30,79,1.3,70,11.4
01943010,CAETÉ,41,CAETÉ,MINAS GERAIS,ANA,-19.9028,-43.6664,1941-06-16,2019-11-30,79,2.5,60,24.1
01943023,TAQUARAÇU,41,TAQUARAÇU DE MINAS,MINAS GERAIS,ANA,-19.6639,-43.6881,1942-02-10,2019-11-30,78,1.3,64,17.9
01943025,MORRO DO PILAR,56,MORRO DO PILAR,MINAS GERAIS,ANA,-19.2175,-43.3742,1945-06-01,2019-11-30,75,1.0,72,4.0
01943027,USINA PETI,56,SÃO GONÇALO DO RIO ,MINAS GERAIS,ANA,-19.8808,-43.3675,1946-10-01,2019-09-30,74,1.6,64,13.5
01943055,BELO HORIZONTE (HORTO),41,BELO HORIZONTE,MINAS GERAIS,INMET,-19.9,-43.9167,1961-08-01,2019-06-30,59,0.1,47,20.3
01944004,PONTE NOVA DO PARAOPEBA,40,JUATUBA,MINAS GERAIS,ANA,-19.9489,-44.4722,1941-03-24,2019-11-30,79,0.7,72,8.9
01944026,BARRO PRETO,40,MATEUS LEME,MINAS GERAIS,ANA,-19.9642,-44.4519,1970-05-20,2019-11-30,50,0.7,45,10.0
01944027,JUATUBA,40,MATEUS LEME,MINAS GERAIS,ANA,-19.9556,-44.3344,1970-06-17,2019-11-30,50,5.9,41,18.0
01944049,PAPAGAIOS,40,PAPAGAIOS,MINAS GERAIS,ANA,-19.4283,-44.7197,1975-08-23,2019-01-31,45,3.3,34,24.4
01944059,FORTUNA DE MINAS,40,FORTUNA DE MINAS,MINAS GERAIS,ANA,-19.5631,-44.4469,1984-05-09,2019-11-30,36,0.5,33,8.3
01944063,SILVA CAMPOS,40,POMPÉU,MINAS GERAIS,ANA,-19.0872,-44.9472,1995-03-04,2019-11-30,25,0.4,22,12.0
01944068,FAZENDA CAPÃO DO GADO,41,CORDISBURGO,MINAS GERAIS,ANA,-19.0289,-44.1939,1999-11-21,2019-10-31,21,1.3,16,23.8
01945008,BOM DESPACHO,40,BOM DESPACHO,MINAS GERAIS,ANA,-19.7425,-45.255,1974-10-20,2019-11-30,46,1.1,36,21.7
01945019,DORES DO INDÁIA (CVSF),40,DORES DO INDÁIA,MINAS GERAIS,ANA,-19.4686,-45.6017,1958-07-17,2019-09-30,62,4.4,47,24.2
01945038,PORTO DAS ANDORINHAS,40,ABAETÉ,MINAS GERAIS,ANA,-19.2786,-45.2858,1983-01-21,2019-11-30,37,0.9,34,8.1
01946000,TAPIRAÍ - JUSANTE,40,TAPIRAÍ,MINAS GERAIS,ANA,-19.8794,-46.0328,1941-08-27,2019-11-30,79,3.3,61,22.8
01946005,SALITRE,60,PATROCÍNIO,MINAS GERAIS,ANA,-19.0706,-46.7958,1944-11-01,2019-11-30,76,3.8,58,23.7
01946007,FAZENDA SÃO MATEUS,60,IBIÁ,MINAS GERAIS,ANA,-19.5167,-46.5711,1967-03-08,2019-11-30,53,1.9,45,15.1
01946011,TAPIRA,60,TAPIRA,MINAS GERAIS,ANA,-19.9269,-46.8253,1974-12-15,2019-11-30,46,1.0,37,19.6
01946022,CARMO DO PARANAIBA,60,CARMO DO PARANAIBA,MINAS GERAIS,ANA,-19.0033,-46.3061,1941-11-01,2019-10-31,79,1.3,69,12.7
01947001,SANTA JULIANA,60,SANTA JULIANA,MINAS GERAIS,ANA,-19.3158,-47.5261,1941-09-01,2019-11-29,79,0.4,69,12.7
01947006,PONTE JOÃO CÂNDIDO,60,PATROCÍNIO,MINAS GERAIS,ANA,-19.1467,-47.1847,1967-10-13,2019-11-30,53,5.4,41,22.6
01947007,PERDIZES,60,PERDIZES,MINAS GERAIS,ANA,-19.3486,-47.2953,1974-11-22,2019-11-30,46,0.6,37,19.6
01948007,CAMPO FLORIDO,61,CAMPO FLORIDO,MINAS GERAIS,ANA,-19.7706,-48.5742,1975-01-17,2019-11-30,45,0.6,41,8.9
01948010,PIRAJUBA,61,PIRAJUBA,MINAS GERAIS,ANA,-19.9075,-48.6936,1989-01-01,2019-11-30,31,9.7,25,19.4
01949006,PONTE DO PRATA,60,ITUIUTABA,MINAS GERAIS,ANA,-19.0353,-49.6967,1967-03-16,2019-07-31,53,1.3,41,22.6
01950000,ITURAMA,61,ITURAMA,MINAS GERAIS,ANA,-19.7247,-50.1917,1975-10-16,2019-11-30,45,0.3,40,11.1
01950011,PONTE SÃO DOMINGOS,60,SANTA VITÓRIA,MINAS GERAIS,ANA,-19.2081,-50.6628,1984-02-01,2019-11-30,36,1.1,30,16.7
01950012,UNIÃO (VILA UNIÃO),60,ITURAMA,MINAS GERAIS,ANA,-19.5289,-50.3286,1995-04-01,2019-11-30,25,0.1,20,20.0
01951001,ITAJÁ,60,ITAJÁ,GOIÁS,ANA,-19.1364,-51.5344,1972-07-23,2019-10-31,48,1.4,42,12.5
02040001,FAZENDA JUCURUABA,57,VIANA,ESPÍRITO SANTO,ANA,-20.415,-40.4853,1951-01-01,2019-11-30,69,1.3,63,8.7
02040005,ICONHA - MONTANTE,57,ICONHA,ESPÍRITO SANTO,ANA,-20.7836,-40.8258,1947-07-09,2019-11-30,73,1.4,64,12.3
02040007,SANTA MARIA DO JETIBÁ,57,SANTA MARIA DE JETI,ESPÍRITO SANTO,ANA,-20.0281,-40.7442,1947-09-20,2019-11-30,73,0.8,61,16.4
02040009,ANCHIETA (DNOS),57,ANCHIETA,ESPÍRITO SANTO,ANA,-20.8036,-40.6556,1948-02-01,2019-10-31,72,1.4,55,23.6
02040011,MATILDE (DNOS),57,ALFREDO CHAVES,ESPÍRITO SANTO,ANA,-20.5567,-40.8114,1949-10-15,2019-11-30,71,0.9,63,11.3
02040012,MARECHAL FLORIANO (DNOS),57,DOMINGOS MARTINS,ESPÍRITO SANTO,ANA,-20.4119,-40.6822,1949-10-13,2019-11-30,71,0.8,57,19.7
02040017,DUAS BARRAS (DNOS),57,ICONHA,ESPÍRITO SANTO,ANA,-20.7281,-40.8825,1957-05-01,2019-11-30,63,1.0,57,9.5
02040018,CACHOEIRA SUIÇA (DNOS),57,SANTA LEOPOLDINA,ESPÍRITO SANTO,ANA,-20.0794,-40.6067,1959-05-10,2019-11-30,61,0.9,55,9.8
02040020,VILA NOVA MARAVILHA,57,ALFREDO CHAVES,ESPÍRITO SANTO,ANA,-20.5875,-40.9492,1964-02-29,2019-11-30,56,0.5,50,10.7
02040035,VITÓRIA,57,VITÓRIA,ESPÍRITO SANTO,INMET,-20.5167,-40.5167,1925-01-01,2019-06-30,95,2.9,72,24.2
02040045,CÓRREGO DO GALO,57,DOMINGOS MARTINS,ESPÍRITO SANTO,ANA,-20.3175,-40.6528,1999-01-01,2019-11-30,21,0.1,18,14.3
02041001,GUAÇUÍ,57,GUAÇUÍ,ESPÍRITO SANTO,ANA,-20.7736,-41.6817,1939-10-17,2019-10-31,81,1.0,65,19.8
02041002,CASTELO,57,CASTELO,ESPÍRITO SANTO,ANA,-20.6056,-41.1997,1939-10-29,2019-10-31,81,0.4,66,18.5
02041003,RIVE,57,ALEGRE,ESPÍRITO SANTO,ANA,-20.7469,-41.4661,1939-11-01,2018-12-31,80,0.8,77,3.8
02041008,DORES DO MANHUMIRIM,56,MANHUAÇU,MINAS GERAIS,ANA,-20.1081,-41.7283,1946-05-15,2019-11-30,74,5.4,62,16.2
02041010,JACIGUA (DNOS),57,VARGEM ALTA,ESPÍRITO SANTO,ANA,-20.7019,-41.0164,1947-07-10,2019-11-30,73,1.0,59,19.2
02041013,IÚNA,57,IÚNA,ESPÍRITO SANTO,ANA,-20.3458,-41.5375,1954-02-05,2019-11-30,66,2.6,50,24.2
02041014,DORES DO RIO PRETO,57,DORES DO RIO PRETO,ESPÍRITO SANTO,ANA,-20.6858,-41.8461,1948-08-22,2019-10-31,72,1.7,57,20.8
02041016,IBITIRAMA,57,ALEGRE,ESPÍRITO SANTO,ANA,-20.5406,-41.6656,1954-02-07,2019-11-30,66,4.3,50,24.2
02041017,SANTA CRUZ - CAPARAÓ,57,IÚNA,ESPÍRITO SANTO,ANA,-20.3228,-41.7042,1956-04-01,2019-11-30,64,2.3,48,25.0
02041018,USINA FORTALEZA,57,MUNIZ FREIRE,ESPÍRITO SANTO,ANA,-20.3714,-41.4089,1956-03-16,2019-09-30,64,1.5,52,18.8
02041019,ITAICI,57,MUNIZ FREIRE,ESPÍRITO SANTO,ANA,-20.5283,-41.5114,1961-07-23,2019-11-30,59,0.1,54,8.5
02041020,ARACE (FAZENDA MODELO),57,DOMINGOS MARTINS,ESPÍRITO SANTO,ANA,-20.3667,-41.0611,1963-01-28,2019-09-30,57,0.3,49,14.0
02041021,BURARAMA,57,CACHOEIRO DO  ITAPE,ESPÍRITO SANTO,ANA,-20.6806,-41.3483,1964-02-02,2019-11-30,56,0.4,48,14.3
02041023,AFONSO CLAÚDIO - MONTANTE,56,AFONSO CLÁUDIO,ESPÍRITO SANTO,ANA,-20.0786,-41.1214,1967-04-17,2019-11-30,53,1.4,45,15.1
02041048,FAZENDA VARGEM ALEGRE,56,MANHUAÇU,MINAS GERAIS,ANA,-20.1706,-41.9611,1983-06-19,2019-10-31,37,1.3,32,13.5
02042008,RAUL SOARES - MONTANTE,56,RAUL SOARES,MINAS GERAIS,ANA,-20.1036,-42.44,1941-01-01,2019-11-30,79,0.2,76,3.8
02042010,ABRE CAMPO,56,ABRE CAMPO,MINAS GERAIS,ANA,-20.2989,-42.4781,1941-12-18,2019-11-30,79,0.4,68,13.9
02042011,RIO CASCA,56,RIO CASCA,MINAS GERAIS,ANA,-20.2147,-42.6522,1942-01-22,2019-11-30,78,2.9,65,16.7
02042014,BICUIBA,58,SÃO FRANCISCO DO GL,MINAS GERAIS,ANA,-20.7694,-42.3011,1962-07-14,2019-08-31,58,1.3,50,13.8
02042016,SÃO MIGUEL DO ANTA,56,SÃO MIGUEL DO ANTA,MINAS GERAIS,ANA,-20.6825,-42.8067,1967-02-21,2019-11-30,53,0.2,46,13.2
02042017,MATIPÓ,56,MATIPÓ,MINAS GERAIS,ANA,-20.2772,-42.3256,1967-03-16,2019-11-30,53,0.4,45,15.1
02042018,PONTE NOVA JUSANTE,56,PONTE NOVA,MINAS GERAIS,ANA,-20.3847,-42.9028,1975-02-01,2019-11-30,45,1.3,41,8.9
02042027,PORCIUNCULA,58,PORCIÚNCULA,RIO DE JANEIRO,ANA,-20.9692,-42.0517,1939-01-01,2019-10-31,81,0.9,68,16.0
02042031,FAZENDA CACHOEIRA D'ANTAS,56,SÃO JOSÉ DO GOIABAL,MINAS GERAIS,ANA,-20.0114,-42.6742,1981-11-19,2019-11-30,39,0.0,37,5.1
02043009,ACAIACA - JUSANTE,56,ACAIACA,MINAS GERAIS,ANA,-20.3625,-43.1439,1941-03-27,2019-11-30,79,0.2,76,3.8
02043010,PIRANGA,56,PIRANGA,MINAS GERAIS,ANA,-20.6906,-43.2994,1941-07-19,2019-09-30,79,4.9,73,7.6
02043011,FAZENDA PARAÍSO,56,MARIANA,MINAS GERAIS,ANA,-20.39,-43.1803,1941-04-23,2019-11-30,79,0.3,76,3.8
02043014,PORTO FIRME,56,PORTO FIRME,MINAS GERAIS,ANA,-20.6703,-43.0881,1941-06-20,2019-11-30,79,0.2,72,8.9
02043025,USINA DA BRECHA,56,GUARACIABA,MINAS GERAIS,ANA,-20.5167,-43.0167,1959-10-01,2019-11-30,61,0.1,57,6.6
02043026,BRAZ PIRES,56,BRÁS PIRES,MINAS GERAIS,ANA,-20.8475,-43.2419,1967-02-18,2019-11-30,53,5.2,44,17.0
02043027,FAZENDA OCIDENTE,56,BARRA LONGA,MINAS GERAIS,ANA,-20.2856,-43.0989,1967-03-05,2019-11-30,53,0.6,46,13.2
02043042,REPRESA DAS CODORNAS (MMV),41,NOVA LIMA,MINAS GERAIS,ANA,-20.1647,-43.8919,1976-09-13,2019-11-30,44,1.3,35,20.5
02043060,ITABIRITO LINIGRAFO,41,ITABIRITO,MINAS GERAIS,ANA,-20.2878,-43.8,1984-01-27,2019-11-30,36,2.3,28,22.2
02044016,FAZENDA BENEDITO CHAVES,40,ITATIAIUÇU,MINAS GERAIS,ANA,-20.1692,-44.515,1970-05-30,2019-10-31,50,2.0,41,18.0
02044019,FAZENDA VISTA ALEGRE,40,MATEUS LEME,MINAS GERAIS,ANA,-20.0514,-44.4517,1970-05-21,2019-11-30,50,0.9,41,18.0
02044021,ALTO DA BOA VISTA,40,MATEUS LEME,MINAS GERAIS,ANA,-20.1056,-44.4011,1972-10-01,2019-08-31,48,1.8,37,22.9
02044024,FAZENDA CURRALINHO,40,MATEUS LEME,MINAS GERAIS,ANA,-20.0075,-44.3311,1972-12-09,2019-11-30,48,0.7,42,12.5
02044026,FAZENDA COQUEIROS,40,ITAÚNA,MINAS GERAIS,ANA,-20.1297,-44.4744,1974-04-10,2019-11-30,46,0.1,38,17.4
02044041,FAZENDA LARANJEIRAS - JUSANTE,40,ITAÚNA,MINAS GERAIS,ANA,-20.1022,-44.4847,1976-11-10,2019-11-30,44,0.0,41,6.8
02044042,CARMO DA MATA (ETA - COPASA),40,CARMO DA MATA,MINAS GERAIS,ANA,-20.5625,-44.8675,1977-01-27,2019-11-30,43,0.9,35,18.6
02044052,JARDIM,40,MATEUS LEME,MINAS GERAIS,ANA,-20.045,-44.4078,1982-12-01,2019-11-30,38,0.2,34,10.5
02044053,ESCOLA DE VETERINÁRIA,40,MATEUS LEME,MINAS GERAIS,ANA,-20.0686,-44.345,1986-02-01,2019-06-30,34,1.3,28,17.6
02044054,SERRA AZUL,40,MATEUS LEME,MINAS GERAIS,ANA,-20.0867,-44.4272,1987-07-10,2019-11-30,33,0.3,30,9.1
02045004,SANTANA DO JACARÉ,61,SANTANA DO JACARÉ,MINAS GERAIS,FURNAS,-20.905,-45.125,1941-03-25,2016-12-31,76,1.5,64,15.8
02045005,LAMOUNIER,40,ITAPECERICA,MINAS GERAIS,ANA,-20.4722,-45.0361,1941-05-28,2019-05-31,79,1.5,65,17.7
02045010,ARCOS (COPASA),40,ARCOS,MINAS GERAIS,ANA,-20.2947,-45.5428,1974-10-16,2019-11-30,46,1.4,40,13.0
02045011,LAGOA DA PRATA,40,LAGOA DA PRATA,MINAS GERAIS,ANA,-20.0367,-45.5353,1974-10-17,2019-11-30,46,0.8,39,15.2
02045012,PIUMHI,40,PIUMHI,MINAS GERAIS,ANA,-20.4619,-45.945,1975-01-01,2019-11-30,45,2.5,36,20.0
02045013,SANTO ANTÔNIO DO MONTE,40,SANTO ANTÔNIO DO MO,MINAS GERAIS,ANA,-20.0844,-45.2967,1975-01-01,2019-11-26,45,0.6,37,17.8
02045026,ILICÍNEA,61,ILICÍNEA,MINAS GERAIS,ANA,-20.9453,-45.8236,1983-02-04,2019-11-30,37,4.7,29,21.6
02045028,GUAPÉ,61,GUAPÉ,MINAS GERAIS,FURNAS,-20.7653,-45.9258,2000-01-01,2016-12-31,17,5.9,16,5.9
02046007,FAZENDA AJUDAS,40,BAMBUÍ,MINAS GERAIS,ANA,-20.1017,-46.055,1941-03-01,2019-11-30,79,2.5,60,24.1
02046011,USINA SANTANA,61,PRATÁPOLIS,MINAS GERAIS,ANA,-20.8111,-46.8081,1966-08-18,2019-11-30,54,2.5,48,11.1
02046028,CARMO DO RIO CLARO,61,CARMO DO RIO CLARO,MINAS GERAIS,FURNAS,-20.965,-46.1522,2000-01-01,2016-12-31,17,9.8,13,23.5
02047016,FRANCA,61,FRANCA,SÃO PAULO,ANA,-20.5442,-47.4233,1966-01-01,2019-11-30,54,2.4,45,16.7
02047025,ORLÂNDIA,61,ORLÂNDIA,SÃO PAULO,DAEE-SP,-20.7333,-47.8833,1937-05-01,2018-02-28,82,0.9,72,12.2
02047027,FAZENDA CONQUISTA,61,SALES OLIVEIRA,SÃO PAULO,DAEE-SP,-20.8,-47.7667,1940-09-12,2015-01-09,76,1.2,58,23.7
02047029,BATATAIS,61,BATATAIS,SÃO PAULO,DAEE-SP,-20.8833,-47.6167,1943-01-01,2018-01-31,76,1.0,59,22.4
02047032,BRODOSQUI,61,BRODOSQUI,SÃO PAULO,ANA,-20.9967,-47.6606,1966-01-01,2019-06-30,54,3.2,44,18.5
02047037,DESEMBOQUE,60,SACRAMENTO,MINAS GERAIS,ANA,-20.0136,-47.0192,1971-05-01,2019-11-30,49,1.2,45,8.2
02047116,USINA JUNQUEIRA (SEDE),61,IGARAPAVA,SÃO PAULO,ANA,-19.99,-47.795,2000-01-01,2019-11-30,20,0.4,18,10.0
02048004,FAZENDA SÃO DOMINGOS,61,GUAÍRA,SÃO PAULO,ANA,-20.2106,-48.29,1966-07-01,2019-05-04,54,2.8,41,24.1
02048013,GUARACI,61,GUARACI,SÃO PAULO,ANA,-20.4967,-48.9403,1966-10-01,2019-07-28,54,4.4,41,24.1
02048014,RIBEIRO DOS SANTOS,61,OLÍMPIA,SÃO PAULO,DAEE-SP,-20.6,-48.9833,1943-05-01,2018-05-31,76,1.3,67,11.8
02048020,TERRA ROXA,61,TERRA ROXA,SÃO PAULO,ANA,-20.7906,-48.3292,1940-12-01,2019-06-30,80,2.2,68,15.0
02048029,MONTE VERDE PAULISTA,61,CAJOBI,SÃO PAULO,DAEE-SP,-20.85,-48.8,1943-02-01,2015-01-23,73,0.5,68,6.8
02048034,BOTAFOGO (CPEF),61,BEBEDOURO,SÃO PAULO,DAEE-SP,-20.9997,-48.55,1943-02-01,2015-01-23,73,1.3,65,11.0
02048047,OLÍMPIA,61,OLÍMPIA,SÃO PAULO,DAEE-SP,-20.7333,-48.9,1938-12-01,2018-04-30,81,0.7,72,11.1
02048101,FAZENDA BELA VISTA,61,PONTAL,SÃO PAULO,FURNAS,-20.94,-48.0775,1983-01-01,2016-12-31,34,0.5,33,2.9
02048102,FRUTAL,61,FRUTAL,MINAS GERAIS,ANA,-20.02,-48.9431,1995-04-01,2019-11-30,25,0.5,19,24.0
02050002,GUARANI D'OESTE,61,GUARANI D'OESTE,SÃO PAULO,DAEE-SP,-20.0667,-50.35,1959-03-01,2015-01-22,57,0.0,53,7.0
02050012,PALMEIRA D'OESTE,62,PALMEIRA D'OESTE,SÃO PAULO,DAEE-SP,-20.4167,-50.7667,1970-06-01,2015-01-22,46,0.0,41,10.9
02063000,CAMIRI,15,BOLÍVIA,BOLÍVIA,BOLÍVIA,-20.05,-63.5667,1949-04-01,2019-11-30,71,2.8,62,12.7
02141003,CARDOSO MOREIRA,58,CAMPO DOS GOYTACAZE,RIO DE JANEIRO,ANA,-21.4872,-41.6136,1939-01-01,2019-10-31,81,1.6,68,16.0
02141006,DOIS RIOS,58,SÃO FIDÉLIS,RIO DE JANEIRO,ANA,-21.6433,-41.8586,1939-01-01,2019-10-31,81,1.0,68,16.0
02141007,TRÊS IRMÃOS,58,CAMBUCI,RIO DE JANEIRO,ANA,-21.6253,-41.9853,1943-03-01,2019-10-31,77,0.2,73,5.2
02141014,PONTE DO ITABAPOANA,57,MIMOSO DO SUL,ESPÍRITO SANTO,ANA,-21.2061,-41.4628,1937-04-17,2019-10-31,83,0.2,78,6.0
02141015,MIMOSO DO SUL,57,MIMOSO DO SUL,ESPÍRITO SANTO,ANA,-21.0647,-41.3625,1964-01-13,2019-09-30,56,1.0,42,25.0
02141016,SÃO JOSÉ DO CALÇADO,57,SÃO JOSÉ DO CALÇADO,ESPÍRITO SANTO,ANA,-21.0169,-41.6628,1952-09-06,2019-10-31,68,0.9,58,14.7
02141017,SÃO JOSÉ DAS TORRES,57,MIMOSO DO SUL,ESPÍRITO SANTO,ANA,-21.0731,-41.2383,1969-01-01,2019-10-31,51,2.5,39,23.5
02142000,ASTOLFO DUTRA,58,ASTOLFO DUTRA,MINAS GERAIS,ANA,-21.3069,-42.8606,1939-01-01,2019-10-31,81,2.3,68,16.0
02142001,CATAGUASES,58,CATAGUASES,MINAS GERAIS,ANA,-21.3894,-42.6964,1939-01-01,2019-10-31,81,2.4,62,23.5
02142002,PATROCÍNIO DO MURIAÉ,58,PATROCÍNIO DO MURIA,MINAS GERAIS,ANA,-21.15,-42.2011,1935-01-01,2019-10-31,85,0.5,79,7.1
02142004,FAZENDA UMBAÚBAS,58,MURIAÉ,MINAS GERAIS,ANA,-21.0503,-42.5156,1943-04-21,2019-09-30,77,2.5,63,18.2
02142006,USINA MAURÍCIO,58,ITAMARATI DE MINAS,MINAS GERAIS,ANA,-21.4714,-42.8131,1943-12-02,2019-08-31,77,1.2,65,15.6
02142007,FAZENDA DA BARRA (PIRAPETINGA),58,PIRAPETINGA,MINAS GERAIS,ANA,-21.6581,-42.3428,1960-09-01,2019-10-31,60,0.1,57,5.0
02142008,VOLTA GRANDE,58,VOLTA GRANDE,MINAS GERAIS,ANA,-21.7692,-42.5397,1962-07-07,2019-10-31,58,1.3,50,13.8
02142014,PAQUEQUER,58,CARMO,RIO DE JANEIRO,ANA,-21.8708,-42.6403,1956-01-01,2019-08-31,64,4.1,49,23.4
02142015,PONTO DE PERGUNTA,58,ITAOCARA,RIO DE JANEIRO,ANA,-21.7428,-42.9883,1965-12-01,2019-09-30,55,0.2,50,9.1
02142022,ALDEIA,58,CANTAGALO,RIO DE JANEIRO,ANA,-21.9514,-42.3561,1939-01-01,2019-09-30,81,1.3,66,18.5
02142058,SANTO ANTÔNIO DE PÁDUA,58,SANTO ANTÔNIO DE PÁ,RIO DE JANEIRO,ANA,-21.5419,-42.1825,1966-11-12,2019-09-30,54,1.1,47,13.0
02143000,USINA ITUERÊ,58,RIO POMBA,MINAS GERAIS,ANA,-21.3094,-43.2022,1935-08-01,2019-08-31,85,2.3,68,20.0
02143001,GUARANI,58,GUARANI,MINAS GERAIS,ANA,-21.3556,-43.0503,1941-01-13,2019-10-31,79,0.5,69,12.7
02143003,DESTERRO DO MELO,56,DESTERRO DO MELO,MINAS GERAIS,ANA,-21.1492,-43.52,1941-05-01,2019-11-30,79,1.0,72,8.9
02143005,CAMPOLIDE,61,ANTÔNIO CARLOS,MINAS GERAIS,ANA,-21.2789,-43.82,1941-05-01,2019-08-31,79,1.8,72,8.9
02143006,BARROSO,61,BARROSO,MINAS GERAIS,ANA,-21.1872,-43.98,1941-06-01,2019-08-31,79,2.7,64,19.0
02143009,USINA BARBACENA,61,BARBACENA,MINAS GERAIS,ANA,-21.2747,-43.8786,1941-08-01,2019-09-30,79,4.4,61,22.8
02143011,CONCEIÇÃO DO IBITIPOCA,58,LIMA DUARTE,MINAS GERAIS,ANA,-21.7578,-43.9178,1941-12-17,2019-09-30,79,0.5,70,11.4
02143013,ESTEVÃO PINTO,58,MAR DE ESPANHA,MINAS GERAIS,ANA,-21.8964,-43.0414,1943-03-17,2019-10-31,77,1.3,63,18.2
02143016,TORREÕES,58,JUIZ DE FORA,MINAS GERAIS,ANA,-21.8692,-43.5556,1943-05-01,2019-08-31,77,1.0,64,16.9
02143017,TABULEIRO,58,TABULEIRO,MINAS GERAIS,ANA,-21.355,-43.2469,1943-12-17,2019-10-31,77,2.5,61,20.8
02143018,RIO NOVO,58,RIO NOVO,MINAS GERAIS,ANA,-21.4725,-43.1211,1944-01-01,2019-09-30,76,0.6,60,21.1
02143019,USINA BRUMADO,58,LIMA DUARTE,MINAS GERAIS,ANA,-21.8556,-43.8864,1944-03-19,2019-09-30,76,1.7,70,7.9
02143020,CHAPEU D'UVAS,58,JUIZ DE FORA,MINAS GERAIS,ANA,-21.5933,-43.5033,1950-01-01,2019-09-30,70,0.5,63,10.0
02143021,SOBRAJI,58,BELMIRO BRAGA,MINAS GERAIS,ANA,-21.9664,-43.3725,1952-10-01,2019-10-31,68,3.7,51,25.0
02143022,PIAU,58,PIAU,MINAS GERAIS,ANA,-21.4994,-43.1536,1957-09-12,2019-09-30,63,0.7,54,14.3
02143062,SANTOS DUMONT,58,SANTOS DUMONT,MINAS GERAIS,ANA,-21.4311,-43.5531,1989-05-27,2019-09-30,31,1.9,25,19.4
02144001,BOM JARDIM DE MINAS,61,BOM JARDIM DE MINAS,MINAS GERAIS,ANA,-21.9472,-44.1939,1941-01-01,2019-06-30,79,3.5,62,21.5
02144004,BAEPENDI,61,BAEPENDI,MINAS GERAIS,ANA,-21.9511,-44.8761,1941-03-01,2019-06-30,79,3.5,63,20.3
02144005,ITUMIRIM,61,ITUMIRIM,MINAS GERAIS,ANA,-21.3208,-44.8728,1941-02-12,2019-08-31,79,2.6,70,11.4
02144006,LUMINARIAS,61,LUMINÁRIAS,MINAS GERAIS,ANA,-21.5069,-44.9156,1941-02-10,2019-08-31,79,3.6,67,15.2
02144007,MADRE DE DEUS DE MINAS,61,MADRE DE DEUS DE MI,MINAS GERAIS,ANA,-21.4922,-44.3261,1941-03-01,2019-08-31,79,7.4,63,20.3
02144009,PORTO DO ELVAS,61,TIRADENTES,MINAS GERAIS,ANA,-21.165,-44.1356,1941-06-01,2019-08-31,79,4.2,61,22.8
02144018,AIURUOCA,61,AIURUOCA,MINAS GERAIS,ANA,-21.9772,-44.6033,1943-03-07,2019-06-30,77,5.3,59,23.4
02144020,USINA SÃO JOÃO DEL REI,61,SÃO JOÃO DEL REI,MINAS GERAIS,ANA,-21.0556,-44.2089,1961-10-31,2019-09-30,59,3.9,49,16.9
02144037,CRUZÍLIA,61,CRUZÍLIA,MINAS GERAIS,ANA,-21.8353,-44.8008,1975-08-16,2019-06-30,45,5.5,36,20.0
02145007,USINA COURO DO CERVO,61,LAVRAS,MINAS GERAIS,ANA,-21.3436,-45.1703,1941-03-17,2019-11-30,79,2.2,68,13.9
02145032,COQUEIRAL,61,COQUEIRAL,MINAS GERAIS,ANA,-21.1928,-45.4486,1975-09-24,2019-11-30,45,3.5,37,17.8
02145046,UHE FURNAS RIO VERDE,61,ELÓI MENDES,MINAS GERAIS,FURNAS,-21.6108,-45.49,2000-01-01,2016-12-31,17,0.9,14,17.6
02146029,CACHOEIRA POÇO FUNDO,61,POÇO FUNDO,MINAS GERAIS,ANA,-21.7908,-46.1242,1967-07-22,2019-11-30,53,2.6,46,13.2
02146078,BOM JESUS DA PENHA,61,BOM JESUS DA PENHA,MINAS GERAIS,ANA,-21.0194,-46.5214,1995-01-01,2019-11-30,25,4.0,20,20.0
02147004,CLUBE DE REGATAS,61,RIBEIRÃO PRETO,SÃO PAULO,DAEE-SP,-21.1,-47.75,1945-01-01,2015-01-26,71,0.1,60,15.5
02147016,FAZENDA CAPÃO DA CRUZ,61,LUÍS ANTÔNIO,SÃO PAULO,DAEE-SP,-21.45,-47.9,1950-02-01,2015-01-08,66,3.5,60,9.1
02147022,SANTA ROSA DO VITERBO,61,SANTA ROSA DE VITER,SÃO PAULO,ANA,-21.5217,-47.3644,1966-01-01,2019-06-14,54,2.1,43,20.4
02147034,UHE MARIMBONDO PORTO FERREIRA,61,PORTO FERREIRA,SÃO PAULO,FURNAS,-21.8461,-47.4742,1966-06-01,2016-12-31,51,3.2,39,23.5
02147043,FAZENDA SANTA RITA,61,DESCALVADO,SÃO PAULO,DAEE-SP,-21.9667,-47.7,1955-12-01,2015-01-23,61,0.0,57,6.6
02147054,FAZENDA CARVALHAIS,61,ITAMOGI,MINAS GERAIS,ANA,-21.1331,-47.0219,1966-08-19,2019-11-30,54,2.3,44,18.5
02148012,ESTAÇÃO EXPERIMENTAL,61,PINDORAMA,SÃO PAULO,DAEE-SP,-21.2167,-48.9,1936-01-01,2015-01-12,80,0.3,73,8.8
02148028,PONTE GUATAPARA,61,GUATAPARÁ,SÃO PAULO,ANA,-21.5,-48.0333,1924-02-01,2019-04-30,96,5.5,75,21.9
02148031,ITÁPOLIS,62,ITÁPOLIS,SÃO PAULO,DAEE-SP,-21.5833,-48.8167,1970-05-01,2015-01-14,46,0.8,39,15.2
02148033,MATÃO,62,MATÃO,SÃO PAULO,DAEE-SP,-21.6,-48.35,1941-08-01,2015-01-27,75,0.4,69,8.0
02148043,USINA SANTA FÉ,62,NOVA EUROPA,SÃO PAULO,DAEE-SP,-21.8,-48.6,1940-01-01,2015-01-27,76,0.4,68,10.5
02148061,USINA CHIBARRO (CPFL),62,ARARAQUARA,SÃO PAULO,DAEE-SP,-21.8833,-48.15,1931-09-01,2018-04-30,88,5.1,71,19.3
02148106,CÂNDIDO RODRIGUES,62,CÂNDIDO RODRIGUES,SÃO PAULO,DAEE-SP,-21.3333,-48.6333,1941-08-01,2015-01-13,75,0.3,70,6.7
02148167,GAVIÃO PEIXOTO,62,GAVIÃO PEIXOTO,SÃO PAULO,ANA,-21.8367,-48.4953,1978-12-01,2019-04-30,42,4.6,32,23.8
02149001,POTIRENDABA,62,POTIRENDABA,SÃO PAULO,DAEE-SP,-21.0333,-49.3833,1950-01-01,2018-06-30,69,0.6,60,13.0
02149006,URUPES,62,URUPÊS,SÃO PAULO,DAEE-SP,-21.1833,-49.3,1940-07-01,2018-06-30,79,1.0,65,17.7
02149017,GUAICARA,62,GUAIÇARA,SÃO PAULO,DAEE-SP,-21.6167,-49.8,1937-05-01,2017-10-31,81,1.2,64,21.0
02149021,CAFELÂNDIA,62,CAFELÂNDIA,SÃO PAULO,DAEE-SP,-21.8167,-49.6333,1937-06-01,2018-05-31,82,3.2,65,20.7
02149022,NOVA FÁTIMA,63,GUAIMBÊ,SÃO PAULO,DAEE-SP,-21.7833,-49.8,1944-10-01,2018-05-31,75,1.8,59,21.3
02149078,TERMAS DE IBIRA,62,IBIRA,SÃO PAULO,DAEE-SP,-21.1,-49.1833,1972-04-01,2018-06-30,47,0.9,36,23.4
02150024,FAZENDA N.S. APARECIDA,62,BRAUNA,SÃO PAULO,DAEE-SP,-21.5667,-50.3333,1939-11-01,2018-05-31,80,8.5,62,22.5
02150029,FAZENDA BOM RETIRO,63,GETULINA,SÃO PAULO,DAEE-SP,-21.7,-50.3,1946-08-20,2018-04-30,73,1.8,58,20.5
02150030,MACUCOS,63,GETULINA,SÃO PAULO,DAEE-SP,-21.75,-50.1167,1939-11-23,2018-06-30,80,1.2,65,18.8
02150034,QUEIROZ,63,QUEIROZ,SÃO PAULO,DAEE-SP,-21.8,-50.2333,1946-08-01,2018-05-31,73,5.6,58,20.5
02151006,MONTE CASTELO,63,MONTE CASTELO,SÃO PAULO,DAEE-SP,-21.3,-51.5667,1957-05-01,2018-05-31,62,0.2,55,11.3
02151013,FAZENDA SANTO ANDRÉ,63,FLÓRIDA PAULISTA,SÃO PAULO,DAEE-SP,-21.5,-51.15,1947-07-01,2018-02-28,72,2.2,63,12.5
02151049,VALPARAÍSO / ADAMANTINA,63,VALPARAÍSO,SÃO PAULO,DAEE-SP,-21.4333,-51.0167,1971-02-17,2018-05-31,48,0.9,38,20.8
02151051,TECAINDA,63,MARTINÓPOLIS,SÃO PAULO,DAEE-SP,-21.9997,-51.1333,1971-06-01,2018-04-30,48,4.0,37,22.9
02151053,GRANJA YUBA,62,MIRANDÓPOLIS,SÃO PAULO,DAEE-SP,-21.0167,-51.1,1958-01-01,2018-05-31,61,4.2,51,16.4
02151055,MIRANDÓPOLIS,63,MIRANDÓPOLIS,SÃO PAULO,DAEE-SP,-21.1333,-51.1,1972-08-10,2018-05-31,47,0.4,39,17.0
02241001,FAROL DE SÃO TOMÉ,59,CAMPO DOS GOYTACAZE,RIO DE JANEIRO,ANA,-22.0425,-41.0556,1966-12-03,2019-09-30,54,0.6,44,18.5
02241002,USINA QUISSAMA,59,MACAÉ,RIO DE JANEIRO,ANA,-22.1061,-41.4711,1966-11-12,2019-08-31,54,0.6,43,20.4
02241003,MACABUZINHO,59,CONCEIÇÃO DE MACABU,RIO DE JANEIRO,ANA,-22.0861,-41.7397,1943-05-08,2019-09-30,77,0.9,68,11.7
02242001,LEITÃO DA CUNHA,59,TRAJANO DE MORAIS,RIO DE JANEIRO,ANA,-22.0428,-42.0442,1965-12-01,2019-10-31,55,0.8,43,21.8
02242002,MARIA MENDONÇA,59,TRAJANO DE MORAIS,RIO DE JANEIRO,ANA,-22.1864,-42.1636,1965-12-04,2019-10-31,55,0.1,51,7.3
02242003,PILLER,59,NOVA FRIBURGO,RIO DE JANEIRO,ANA,-22.4047,-42.3392,1950-08-25,2019-09-30,70,0.2,62,11.4
02242004,GALDINÓPOLIS,59,NOVA FRIBURGO,RIO DE JANEIRO,ANA,-22.3631,-42.3808,1950-08-24,2019-10-31,70,0.0,64,8.6
02242005,FAZENDA SÃO JOÃO,59,NOVA FRIBURGO,RIO DE JANEIRO,ANA,-22.3903,-42.4947,1967-05-23,2019-10-31,53,0.4,42,20.8
02242007,QUARTEIS,59,SILVA JARDIM,RIO DE JANEIRO,ANA,-22.4672,-42.3072,1967-06-01,2019-09-30,53,0.2,46,13.2
02242008,GAVIÕES,59,SILVA JARDIM,RIO DE JANEIRO,ANA,-22.5489,-42.5461,1967-05-25,2019-09-30,53,0.1,47,11.3
02242011,ESTAÇÃO DE BOMB. DE IMUNANA,59,MAGÉ,RIO DE JANEIRO,ANA,-22.6856,-42.9497,1967-07-19,2019-09-30,53,1.1,42,20.8
02242013,FAZENDA DO CARMO,59,CACHOEIRAS DE MACAC,RIO DE JANEIRO,ANA,-22.4397,-42.7636,1967-07-20,2019-10-31,53,0.4,42,20.8
02242014,JAPUIBA,59,CACHOEIRAS DE MACAC,RIO DE JANEIRO,ANA,-22.5564,-42.69,1967-07-26,2019-09-30,53,0.2,47,11.3
02242017,VISCONDE DE IMBE,58,TRAJANO DE MORAIS,RIO DE JANEIRO,ANA,-22.0678,-42.16,1965-12-01,2019-10-31,55,0.2,51,7.3
02242018,BARRA ALEGRE,58,BOM JARDIM,RIO DE JANEIRO,ANA,-22.2356,-42.2858,1965-12-01,2019-09-30,55,1.8,42,23.6
02242019,VARGEM ALTA,58,BOM JARDIM,RIO DE JANEIRO,ANA,-22.2994,-42.4011,1965-12-01,2019-09-30,55,6.2,46,16.4
02242020,VARGEM GRANDE,58,NOVA FRIBURGO,RIO DE JANEIRO,ANA,-22.2761,-42.5039,1965-12-01,2019-09-30,55,2.1,42,23.6
02242021,BOM JARDIM,58,BOM JARDIM,RIO DE JANEIRO,ANA,-22.1569,-42.4164,1941-01-01,2019-10-31,79,1.0,71,10.1
02242022,FAZENDA MENDES,58,NOVA FRIBURGO,RIO DE JANEIRO,ANA,-22.2858,-42.66,1949-06-11,2019-09-30,71,1.9,56,21.1
02242024,TEODORO DE OLIVEIRA,58,NOVA FRIBURGO,RIO DE JANEIRO,ANA,-22.3772,-42.5517,1965-12-08,2019-10-31,55,0.2,50,9.1
02242025,CASCATINHA DO CONEGO,58,NOVA FRIBURGO,RIO DE JANEIRO,ANA,-22.3425,-42.5572,1967-09-01,2019-09-30,53,2.1,44,17.0
02242026,BOM SUCESSO,58,TERESÓPOLIS,RIO DE JANEIRO,ANA,-22.2714,-42.7947,1965-11-24,2019-10-31,55,1.1,45,18.2
02242027,FAZENDA SOBRADINHO,58,TERESÓPOLIS,RIO DE JANEIRO,ANA,-22.2011,-42.9,1936-05-01,2019-08-31,84,0.8,77,8.3
02242028,ANTA,58,SAPUCAIA,RIO DE JANEIRO,ANA,-22.0353,-42.9908,1944-01-01,2019-10-31,76,0.6,66,13.2
02242029,SUMIDOURO,58,SUMIDOURO,RIO DE JANEIRO,ANA,-22.0503,-42.6783,1951-11-01,2019-09-30,69,1.9,52,24.6
02243003,PARAÍBA DO SUL,58,PARAÍBA DO SUL,RIO DE JANEIRO,ANA,-22.1483,-43.2911,1939-01-01,2019-10-31,81,0.6,74,8.6
02243004,CONSERVATORIA,58,VALENÇA,RIO DE JANEIRO,ANA,-22.2875,-43.9294,1945-04-01,2019-09-30,75,1.0,64,14.7
02243005,VALENÇA,58,VALENÇA,RIO DE JANEIRO,ANA,-22.2189,-43.7036,1944-06-25,2019-10-31,76,0.4,69,9.2
02243006,PENTAGNA,58,VALENÇA,RIO DE JANEIRO,ANA,-22.1569,-43.7525,1944-01-01,2019-09-30,76,3.2,57,25.0
02243007,TABOAS,58,RIO DAS FLORES,RIO DE JANEIRO,ANA,-22.2086,-43.6233,1941-12-01,2019-09-30,79,1.3,60,24.1
02243008,MANUEL DUARTE,58,RIO DAS FLORES,RIO DE JANEIRO,ANA,-22.0858,-43.5567,1942-08-01,2019-10-31,78,4.0,62,20.5
02243010,ITAMARATI - SE,58,PETRÓPOLIS,RIO DE JANEIRO,ANA,-22.4853,-43.1492,1938-07-01,2019-10-31,82,0.5,77,6.1
02243011,RIO DA CIDADE,58,PETRÓPOLIS,RIO DE JANEIRO,ANA,-22.4381,-43.1703,1938-07-12,2019-09-30,82,0.5,76,7.3
02243012,PEDRO DO RIO,58,PETRÓPOLIS,RIO DE JANEIRO,ANA,-22.3325,-43.1361,1938-12-01,2019-10-31,82,0.5,73,11.0
02243013,AREAL (GRANJA GABI),58,TRÊS RIOS,RIO DE JANEIRO,ANA,-22.2439,-43.0972,1939-04-01,2019-10-31,81,1.3,62,23.5
02243015,MOURA BRASIL,58,TRÊS RIOS,RIO DE JANEIRO,ANA,-22.1403,-43.1542,1936-05-01,2019-10-31,84,0.6,73,13.1
02243016,MORELI (PARADA MORELI),58,PETRÓPOLIS,RIO DE JANEIRO,ANA,-22.1931,-43.0083,1955-01-01,2019-10-31,65,1.1,53,18.5
02243202,FAZENDA SÃO GABRIEL,58,RIO PRETO,MINAS GERAIS,ANA,-22.0117,-43.875,1946-02-01,2019-08-31,74,1.6,57,23.0
02243255,AVELAR,58,PATY DO ALFERES,RIO DE JANEIRO,INMET,-22.3333,-43.4167,1985-01-01,2015-12-31,31,4.3,25,19.4
02244001,QUELUZ,58,QUELUZ,SÃO PAULO,ANA,-22.5406,-44.7736,1943-01-01,2019-08-31,77,7.7,63,18.2
02244010,FAZENDA SANTA CLARA (EX BOCAINA),58,CACHOEIRA PAULISTA,SÃO PAULO,ANA,-22.6919,-44.975,1935-12-01,2019-10-31,85,2.7,76,10.6
02244030,NHANGAPI,58,RESENDE,RIO DE JANEIRO,ANA,-22.5033,-44.6156,1956-11-01,2019-09-30,64,2.4,51,20.3
02244033,SANTA ISABEL DO RIO PRETO,58,VALENÇA,RIO DE JANEIRO,ANA,-22.2311,-44.0647,1942-01-25,2019-09-30,78,0.5,69,11.5
02244034,RIBEIRÃO DE SÃO JOAQUIM,58,BARRA MANSA,RIO DE JANEIRO,ANA,-22.3036,-44.1869,1942-02-01,2019-10-31,78,0.5,71,9.0
02244035,SANTA RITA DO JACUTINGA,58,SANTA RITA DO JACUT,MINAS GERAIS,ANA,-22.1506,-44.09,1935-12-01,2019-10-31,85,1.1,71,16.5
02244037,FUMAÇA,58,RESENDE,RIO DE JANEIRO,ANA,-22.2975,-44.3106,1947-12-01,2019-09-30,73,0.4,68,6.8
02244038,PONTE DO SOUZA,58,RESENDE,RIO DE JANEIRO,ANA,-22.2706,-44.3917,1939-01-01,2019-09-30,81,1.9,74,8.6
02244039,FAZENDA AGULHAS NEGRAS,58,RESENDE,RIO DE JANEIRO,ANA,-22.3378,-44.5903,1941-02-04,2019-09-30,79,1.1,72,8.9
02244041,VOLTA REDONDA,58,VOLTA REDONDA,RIO DE JANEIRO,ANA,-22.5011,-44.0919,1943-12-01,2019-10-31,77,1.6,62,19.5
02244042,UHE FUNIL JUSANTE 2,58,BARRA MANSA,RIO DE JANEIRO,FURNAS,-22.5375,-44.1758,1940-04-19,2016-02-29,77,1.5,62,19.5
02244044,GLICÉRIO,58,BARRA MANSA,RIO DE JANEIRO,ANA,-22.4742,-44.2289,1967-09-01,2019-10-31,53,2.5,41,22.6
02244045,NOSSA SENHORA DO AMPARO,58,BARRA MANSA,RIO DE JANEIRO,ANA,-22.3856,-44.1075,1968-01-01,2019-10-31,52,1.0,49,5.8
02244047,VISCONDE DE MAUÁ (ESC. AGROT),58,RESENDE,RIO DE JANEIRO,ANA,-22.33,-44.5383,1937-06-01,2019-10-31,83,1.9,69,16.9
02244048,CAMPOS DE CUNHA,58,CUNHA,SÃO PAULO,ANA,-22.9211,-44.8222,1967-08-01,2019-10-31,53,0.2,48,9.4
02244057,PONTE DO COSTA,61,BOCAINA DE MINAS,MINAS GERAIS,ANA,-22.1269,-44.4083,1941-02-01,2019-06-30,79,4.7,62,21.5
02244058,MIRANTÃO (CAPELINHA DAS FLORES),58,BOCAINA DE MINAS,MINAS GERAIS,ANA,-22.2539,-44.495,1971-01-01,2019-10-31,49,0.2,45,8.2
02244065,ALAGOA,61,ALAGOA,MINAS GERAIS,ANA,-22.17,-44.6369,1942-06-01,2019-06-30,78,2.4,67,14.1
02244071,POUSO ALTO,61,POUSO ALTO,MINAS GERAIS,ANA,-22.1992,-44.9733,1960-01-01,2019-04-30,60,2.3,48,20.0
02244133,BANANAL,58,BANANAL,SÃO PAULO,FURNAS,-22.6833,-44.3167,1937-09-01,2016-12-31,80,3.1,65,18.8
02244149,BRACUI,59,ANGRA DOS REIS,RIO DE JANEIRO,ANA,-22.9361,-44.3917,1990-01-01,2019-09-30,30,1.5,25,16.7
02244154,PEDRA SELADA,58,RESENDE,RIO DE JANEIRO,FURNAS,-22.3278,-44.3919,1995-09-15,2016-12-31,22,0.0,20,9.1
02245020,LORENA,58,LORENA,SÃO PAULO,DAEE-SP,-22.7333,-45.0833,1957-06-19,2018-04-30,62,1.0,52,16.1
02245048,PINDAMONHANGABA,58,PINDAMONHANGABA,SÃO PAULO,ANA,-22.9111,-45.4694,1932-01-01,2019-07-31,88,3.1,71,19.3
02245054,MONTEIRO LOBATO,58,MONTEIRO LOBATO,SÃO PAULO,DAEE-SP,-22.9333,-45.8333,1939-05-25,2018-05-30,80,2.7,68,15.0
02245074,UHE MARECHAL MASCARENHAS DE MORAES RIO SAPUCAÍ,61,CAREAÇU,MINAS GERAIS,FURNAS,-22.0533,-45.6992,1941-05-01,2019-06-30,79,3.2,61,22.8
02245086,PONTE DO RODRIGUES,61,POUSO ALEGRE,MINAS GERAIS,ANA,-22.3542,-45.8539,1967-05-21,2019-04-30,53,3.1,40,24.5
02245088,MARIA DA FÉ,61,MARIA DA FÉ,MINAS GERAIS,ANA,-22.3147,-45.3731,1974-11-22,2019-07-31,46,4.5,36,21.7
02245089,SILVIANÓPOLIS,61,SILVIANÓPOLIS,MINAS GERAIS,ANA,-22.0342,-45.8353,1974-11-21,2019-06-30,46,4.5,37,19.6
02245104,SAPUCAÍ-MIRIM,61,SAPUCAÍ-MIRIM,MINAS GERAIS,ANA,-22.7453,-45.7447,1975-08-28,2019-04-30,45,5.5,36,20.0
02246003,AGUAÍ,61,AGUAÍ,SÃO PAULO,ANA,-22.0378,-46.965,1966-01-01,2019-06-12,54,1.0,50,7.4
02246009,MOGI GUAÇU,61,MOGI-GUAÇU,SÃO PAULO,ANA,-22.3678,-46.9306,1966-06-01,2019-06-12,54,3.5,43,20.4
02246019,SERRA NEGRA,61,SERRA NEGRA,SÃO PAULO,DAEE-SP,-22.6,-46.7,1936-11-01,2015-01-26,80,0.3,73,8.8
02246020,FAZENDA CHAPADÃO,62,AMPARO,SÃO PAULO,DAEE-SP,-22.6167,-46.85,1940-10-01,2018-04-30,79,3.8,61,22.8
02246021,FAZENDA DA BARRA,62,JAGUARIUNA,SÃO PAULO,DAEE-SP,-22.6667,-46.9667,1942-12-01,2018-05-31,77,1.2,60,22.1
02246022,MONTE ALEGRE DO SUL,62,MONTE ALEGRE DO SUL,SÃO PAULO,DAEE-SP,-22.7,-46.6667,1942-10-01,2018-07-30,77,0.1,71,7.8
02246033,RIO ABAIXO  (FAZ. CACHOEIRA),62,BRAGANÇA PAULISTA,SÃO PAULO,ANA,-22.8811,-46.6317,1944-09-01,2019-06-30,76,2.4,63,17.1
02246034,MORUNGABA,62,MORUNGABA,SÃO PAULO,DAEE-SP,-22.8833,-46.7833,1947-07-01,2015-01-12,69,1.3,57,17.4
02246036,BRAGANÇA PAULISTA,62,BRAGANÇA PAULISTA,SÃO PAULO,DAEE-SP,-22.9333,-46.5333,1970-01-14,2015-01-26,46,4.7,36,21.7
02246038,ITATIBA,62,ITATIBA,SÃO PAULO,ANA,-22.9847,-46.83,1945-12-18,2019-06-30,75,4.0,57,24.0
02246047,BEIRA DE SANTA RITA,61,SANTA RITA DE CALDA,MINAS GERAIS,ANA,-22.0233,-46.3039,1942-08-13,2019-11-30,78,2.5,70,10.3
02246090,JOANÓPOLIS,62,JOANÓPOLIS,SÃO PAULO,DAEE-SP,-22.9333,-46.2667,1952-01-01,2015-01-26,64,0.4,53,17.2
02247004,ANALÂNDIA,62,ANALÂNDIA,SÃO PAULO,DAEE-SP,-22.1333,-47.6667,1937-01-01,2018-06-30,82,0.4,70,14.6
02247010,CORUMBATAI,62,CORUMBATAÍ,SÃO PAULO,DAEE-SP,-22.2167,-47.6167,1939-04-01,2018-06-30,80,0.2,72,10.0
02247015,GRAUNA,62,ITIRAPINA,SÃO PAULO,DAEE-SP,-22.3,-47.75,1937-02-01,2018-02-09,82,1.1,69,15.9
02247018,FAZENDA SÃO JOSÉ,62,RIO CLARO,SÃO PAULO,DAEE-SP,-22.3333,-47.4833,1953-03-23,2018-01-31,66,1.1,60,9.1
02247020,RIO CLARO,62,RIO CLARO,SÃO PAULO,DAEE-SP,-22.4167,-47.55,1933-01-01,2018-04-30,86,1.2,72,16.3
02247021,IPEUNA,62,IPEUNA,SÃO PAULO,DAEE-SP,-22.4333,-47.7167,1970-04-01,2018-05-31,49,5.8,40,18.4
02247022,SANTA GERTRUDES,62,SANTA GERTRUDES,SÃO PAULO,DAEE-SP,-22.4833,-47.5167,1941-11-01,2018-04-30,78,3.9,60,23.1
02247041,FAZENDA MONTE D'ESTE,62,CAMPINAS,SÃO PAULO,DAEE-SP,-22.7833,-47.0333,1958-01-01,2018-03-31,61,0.3,57,6.6
02247042,BARÃO GERALDO,62,CAMPINAS,SÃO PAULO,DAEE-SP,-22.8333,-47.0667,1958-03-01,2018-06-30,61,2.0,48,21.3
02247044,RIO DAS PEDRAS,62,RIO DAS PEDRAS,SÃO PAULO,DAEE-SP,-22.8667,-47.6167,1946-10-15,2017-10-31,72,1.7,59,18.1
02247054,PÁDUA SALES,61,CONCHAL,SÃO PAULO,ANA,-22.3008,-47.1336,1966-06-01,2019-06-13,54,1.7,43,20.4
02247055,JAGUARIUNA,62,JAGUARIUNA,SÃO PAULO,ANA,-22.7086,-46.9869,1942-03-11,2019-06-11,78,1.8,66,15.4
02247059,CAPIVARI,62,CAPIVARI,SÃO PAULO,ANA,-23.0161,-47.5092,1943-01-01,2019-06-30,77,3.5,61,20.8
02247094,PIRACICABA (SEMAE),62,PIRACICABA,SÃO PAULO,DAEE-SP,-22.7175,-47.6519,1973-08-01,2015-01-12,43,0.1,35,18.6
02247110,CAPIVARI,62,CAPIVARI,SÃO PAULO,DAEE-SP,-22.9997,-47.5,1946-10-18,2018-05-31,73,4.6,62,15.1
02247182,RIBEIRÃO DO FEIJÃO,62,SÃO CARLOS,SÃO PAULO,ANA,-22.1522,-47.8864,1977-01-01,2019-04-30,43,4.1,34,20.9
02247214,SUMARÉ,62,SUMARÉ,SÃO PAULO,DAEE-SP,-22.85,-47.25,1988-04-20,2015-01-26,28,3.6,24,14.3
02248015,GUAIANAS,62,PEDERNEIRAS,SÃO PAULO,DAEE-SP,-22.3167,-48.8833,1937-01-01,2018-05-31,82,7.5,65,20.7
02248029,FAZENDA S. JOÃO MORRO VERMELHO,62,BOTUCATU,SÃO PAULO,DAEE-SP,-22.8167,-48.4333,1954-08-01,2018-04-30,65,0.6,60,7.7
02248051,GLEBA RIO CLARO,64,LENÇÓIS PAULISTA,SÃO PAULO,DAEE-SP,-22.7667,-48.8333,1972-08-01,2017-12-31,46,0.9,39,15.2
02248107,POUSO ALEGRE,62,JAÚ,SÃO PAULO,DAEE-SP,-22.2167,-48.6,1976-02-16,2015-01-27,40,0.0,36,10.0
02249005,SÃO FRANCISCO DA CORREDEIRA,63,PIRAJUÍ,SÃO PAULO,DAEE-SP,-22.05,-49.6167,1942-01-01,2018-05-31,77,3.2,58,24.7
02249006,GARÇA,63,GARÇA,SÃO PAULO,DAEE-SP,-22.2,-49.65,1938-12-01,2018-06-30,81,0.7,74,8.6
02249023,CABRALIA PAULISTA,64,CABRALIA PAULISTA,SÃO PAULO,DAEE-SP,-22.45,-49.3167,1938-12-01,2015-01-08,78,0.9,68,12.8
02249025,PAULISTÂNIA,64,AGUDOS,SÃO PAULO,DAEE-SP,-22.5833,-49.4,1970-10-16,2015-07-31,46,0.4,44,4.3
02249103,TURVINHO,64,LENÇÓIS PAULISTA,SÃO PAULO,ANA,-22.7397,-49.0308,1981-03-26,2019-06-30,39,2.7,30,23.1
02250009,RANCHARIA (MC FADDEN),64,RANCHARIA,SÃO PAULO,DAEE-SP,-22.2167,-50.8833,1941-10-01,2018-04-30,78,2.2,59,24.4
02250013,ECHAPORA,64,ECHAPORA,SÃO PAULO,DAEE-SP,-22.4333,-50.2167,1946-05-01,2018-03-31,73,1.8,57,21.9
02250028,PARANAGI,64,SERTANEJA,PARANÁ,AGUASPARANÁ,-22.8511,-50.8744,1975-08-24,2018-12-31,44,0.4,41,6.8
02250030,CAMPO ALEGRE,64,LEÓPOLIS,PARANÁ,AGUASPARANÁ,-22.9597,-50.7711,1975-08-24,2018-12-31,44,0.3,41,6.8
02250031,TRÊS CANTOS (DESPEDIDA),64,LEÓPOLIS,PARANÁ,AGUASPARANÁ,-22.95,-50.6497,1975-08-23,2015-06-30,41,1.0,35,14.6
02250032,SÃO JOAQUIM DO PONTAL,64,ITAMBARACA,PARANÁ,AGUASPARANÁ,-22.9722,-50.4789,1975-08-27,2018-12-31,44,0.0,43,2.3
02250033,NOSSA SENHORA  APARECIDA,64,ANDIRÁ,PARANÁ,AGUASPARANÁ,-22.9653,-50.2661,1975-08-27,2018-12-31,44,0.0,43,2.3
02250045,GARDENIA,64,RANCHARIA,SÃO PAULO,DAEE-SP,-22.6333,-50.9,1972-01-20,2018-05-31,47,0.9,43,8.5
02250047,TABAJARA,64,LUTÉCIA,SÃO PAULO,DAEE-SP,-22.4667,-50.3667,1972-03-15,2018-05-31,47,1.1,36,23.4
02250048,ÁGUA DA FORTUNA,64,ASSIS,SÃO PAULO,DAEE-SP,-22.6833,-50.4833,1970-06-01,2018-05-31,49,0.4,44,10.2
02250063,PARAGUAÇU PAULISTA,64,PARAGUAÇU PAULISTA,SÃO PAULO,DAEE-SP,-22.4167,-50.5667,1953-01-01,2018-03-31,66,0.7,54,18.2
02251023,PORECATU,64,PORECATU,PARANÁ,AGUASPARANÁ,-22.7547,-51.3739,1979-04-23,2018-07-31,40,1.2,35,12.5
02251027,BELA VISTA DO PARAÍSO,64,BELA VISTA DO PARAÍ,PARANÁ,INMET,-22.95,-51.2,1971-11-01,2016-03-31,46,0.9,42,8.7
02251033,ALTO ALEGRE,64,COLORADO,PARANÁ,AGUASPARANÁ,-22.8981,-51.8881,1975-01-17,2018-12-31,44,0.0,43,2.3
02251037,CAFEARA,64,CAFEARA,PARANÁ,AGUASPARANÁ,-22.7878,-51.7114,1975-01-12,2018-12-31,44,0.7,39,11.4
02251038,ALVORADA DO SUL,64,ALVORADA DO SUL,PARANÁ,AGUASPARANÁ,-22.7667,-51.2331,1975-01-11,2018-12-31,44,0.7,39,11.4
02251039,PRIMEIRO DE MAIO,64,PRIMEIRO DE MAIO,PARANÁ,AGUASPARANÁ,-22.8517,-51.0319,1975-01-10,2018-12-31,44,0.0,43,2.3
02251041,SANTO INÁCIO,64,SANTO INÁCIO,PARANÁ,AGUASPARANÁ,-22.6964,-51.7897,1975-01-12,2018-12-31,44,0.0,43,2.3
02251042,MAIRA,64,LUPIONÓPOLIS,PARANÁ,AGUASPARANÁ,-22.6997,-51.6422,1975-01-12,2018-12-31,44,0.2,42,4.5
02251069,CENTENÁRIO DO SUL,64,CENTENÁRIO DO SUL,PARANÁ,AGUASPARANÁ,-22.8228,-51.5956,1975-01-12,2018-12-31,44,0.0,43,2.3
02252013,JARDIM OLINDA,64,JARDIM OLINDA,PARANÁ,AGUASPARANÁ,-22.5508,-52.0364,1975-08-18,2018-12-31,44,0.0,43,2.3
02252015,DIAMANTE DO NORTE,64,DIAMANTE DO NORTE,PARANÁ,AGUASPARANÁ,-22.6542,-52.8606,1975-08-18,2018-12-31,44,0.4,41,6.8
02252017,FAZENDA SANTO ANTÔNIO,64,PARANAVAI,PARANÁ,AGUASPARANÁ,-22.6528,-52.5181,1975-08-10,2018-12-31,44,1.7,37,15.9
02252019,FAZENDA GUANABARA,64,PARANAPOEMA,PARANÁ,AGUASPARANÁ,-22.6608,-52.1331,1975-08-12,2018-04-30,44,4.7,36,18.2
02252020,NOVA LONDRINA,64,NOVA LONDRINA,PARANÁ,AGUASPARANÁ,-22.7667,-52.9831,1975-08-13,2018-12-31,44,7.1,35,20.5
02252022,TERRA RICA,64,TERRA RICA,PARANÁ,AGUASPARANÁ,-22.7306,-52.6164,1975-08-13,2018-12-31,44,0.4,41,6.8
02252023,CRISTO REI,64,PARANAVAI,PARANÁ,AGUASPARANÁ,-22.7311,-52.4464,1975-08-11,2018-12-31,44,0.0,43,2.3
02252024,SANTO ANTÔNIO DO CAIUÁ,64,SANTO ANTÔNIO DO CA,PARANÁ,AGUASPARANÁ,-22.7331,-52.35,1975-08-11,2018-12-31,44,0.1,42,4.5
02252027,FAZENDA AURORA,64,PARANAVAI,PARANÁ,AGUASPARANÁ,-22.8831,-52.5331,1975-08-13,2018-12-31,44,0.4,42,4.5
02253008,LEONI,64,SÃO PEDRO DO PARANÁ,PARANÁ,AGUASPARANÁ,-22.795,-53.1592,1975-08-14,2018-12-31,44,1.7,42,4.5
02253010,ICATU,64,QUERÊNCIA DO NORTE,PARANÁ,AGUASPARANÁ,-22.9747,-53.3964,1975-08-16,2018-12-31,44,2.5,40,9.1
02253011,SANTA CRUZ DO MONTE CASTELO,64,SANTA CRUZ DE MONTE,PARANÁ,AGUASPARANÁ,-22.9667,-53.2831,1975-08-16,2017-09-30,43,3.2,36,16.3
02253013,FAZENDA ERECHIM,64,LOANDA,PARANÁ,AGUASPARANÁ,-22.9331,-53.0331,1975-08-14,2017-09-30,43,3.0,37,14.0
02253016,PORTO SÃO JOSÉ,64,SÃO PEDRO DO PARANÁ,PARANÁ,ANA,-22.7181,-53.1767,1985-05-01,2017-09-30,33,3.1,26,21.2
02254005,ITAPORÃ,64,ITAPORÃ,MATO GROSSO DO SUL,ANA,-22.0747,-54.7839,1984-02-26,2019-08-31,36,3.3,27,25.0
02344008,SÃO ROQUE,59,PARATI,RIO DE JANEIRO,ANA,-23.0722,-44.6981,1967-09-01,2019-09-30,53,0.2,41,22.6
02344009,ALTO S. DO MAR - B. MATO LIMPO,58,CUNHA,SÃO PAULO,ANA,-23.1522,-44.8597,1967-09-01,2019-10-31,53,0.3,47,11.3
02344016,VILA MAMBUCABA,59,ANGRA DOS REIS,RIO DE JANEIRO,ANA,-23.0258,-44.5181,1982-02-09,2019-10-31,38,0.5,29,23.7
02344019,VILA PEREQUE,59,ANGRA DOS REIS,RIO DE JANEIRO,ANA,-23.0047,-44.5364,1994-12-10,2019-09-30,26,0.2,21,19.2
02345062,TAUBATÉ,58,TAUBATÉ,SÃO PAULO,ANA,-23.0394,-45.5597,1937-08-01,2019-09-30,83,1.0,70,15.7
02345063,CAÇAPAVA,58,CAÇAPAVA,SÃO PAULO,ANA,-23.0778,-45.7114,1929-07-01,2019-09-30,91,3.3,70,23.1
02345065,SÃO LUÍS DO PARAITINGA,58,SÃO LUÍS DO PARAITI,SÃO PAULO,ANA,-23.2392,-45.3056,1935-10-07,2019-10-31,85,0.4,74,12.9
02345067,PONTE ALTA 1,58,SÃO LUÍS DO PARAITI,SÃO PAULO,ANA,-23.3292,-45.1403,1936-10-10,2019-10-31,84,0.0,80,4.8
02345071,SANTA BRANCA,58,SANTA BRANCA,SÃO PAULO,ANA,-23.3692,-45.9003,1952-06-01,2019-10-31,68,4.3,55,19.1
02345159,FAZENDA SÃO JOÃO,58,TAUBATÉ,SÃO PAULO,DAEE-SP,-23.2,-45.4667,1954-01-01,2015-05-31,62,1.6,49,21.0
02346002,BAIXO COTIA,62,BARUERI,SÃO PAULO,DAEE-SP,-23.55,-46.8667,1937-01-01,2017-05-31,81,7.4,61,24.7
02346010,NAZARÉ PAULISTA,62,NAZARÉ PAULISTA,SÃO PAULO,DAEE-SP,-23.1833,-46.4,1946-07-01,2018-04-30,73,0.2,68,6.8
02346030,BOM SUCESSO,62,GUARULHOS,SÃO PAULO,DAEE-SP,-23.4167,-46.4,1936-08-19,2018-04-30,83,2.8,67,19.3
02346040,MONTE BELO,62,ITAQUAQUECETUBA,SÃO PAULO,DAEE-SP,-23.4833,-46.3667,1943-03-01,2015-01-13,73,1.8,59,19.2
02346052,CACHOEIRA DA GRAÇA,62,COTIA,SÃO PAULO,DAEE-SP,-23.65,-46.95,1935-09-01,2018-05-31,84,1.8,64,23.8
02346059,OBSERVATÓRIO DO IAG,62,SÃO PAULO,SÃO PAULO,DAEE-SP,-23.65,-46.6333,1933-01-01,2015-01-13,83,0.0,82,1.2
02346060,PEDRO BEICHT,62,COTIA,SÃO PAULO,DAEE-SP,-23.7167,-46.9667,1936-10-16,2018-02-28,83,2.1,65,21.7
02346095,ATIBAIA,62,ATIBAIA,SÃO PAULO,ANA,-23.1033,-46.5581,1938-06-01,2019-06-30,82,2.2,69,15.9
02346101,BIRITIBA MIRIM,62,BIRITIBA-MIRIM,SÃO PAULO,ANA,-23.5769,-46.0378,1943-03-13,2019-05-31,77,0.8,66,14.3
02346103,VARINHAS,62,MOGI DAS CRUZES,SÃO PAULO,ANA,-23.5864,-46.2558,1963-07-01,2019-05-31,57,3.9,44,22.8
02346117,SÃO PAULO (MIRANTE SANTANA),62,SÃO PAULO,SÃO PAULO,INMET,-23.5,-46.6167,1961-01-01,2019-06-30,59,0.0,58,1.7
02346329,FAZENDA PRIMAVERA,62,JARINU,SÃO PAULO,DAEE-SP,-23.0,-46.7167,1953-03-01,2018-05-31,66,2.3,51,22.7
02346345,PARELHEIROS,62,SÃO PAULO,SÃO PAULO,DAEE-SP,-23.8333,-46.7333,1972-09-01,2015-01-18,44,0.0,41,6.8
02346395,EMBURA,62,SÃO PAULO,SÃO PAULO,DAEE-SP,-23.8833,-46.75,1979-06-01,2015-01-26,37,0.3,30,18.9
02347006,PEREIRAS,62,PEREIRAS,SÃO PAULO,DAEE-SP,-23.0667,-47.9667,1956-12-01,2017-08-31,62,0.8,49,21.0
02347011,FAZENDA SANTA RITA,62,INDAIATUBA,SÃO PAULO,DAEE-SP,-23.1667,-47.1333,1970-08-02,2015-01-26,46,0.2,41,10.9
02347014,PORTO FELIZ,62,PORTO FELIZ,SÃO PAULO,DAEE-SP,-23.2,-47.5167,1970-05-02,2015-01-27,46,0.1,42,8.7
02347048,SÍTIO FRUTOLÂNDIA,62,PIEDADE,SÃO PAULO,DAEE-SP,-23.75,-47.4833,1971-06-09,2015-01-26,45,0.1,37,17.8
02347057,ITUPEVA,62,ITUPEVA,SÃO PAULO,ANA,-23.1503,-47.0564,1944-03-01,2019-06-30,76,3.0,58,23.7
02347060,SALTO DE PIRAPORA,62,SALTO DE PIRAPORA,SÃO PAULO,ANA,-23.6383,-47.5733,1948-01-07,2019-07-31,72,2.4,59,18.1
02347061,BAIRRO DO SARAPU,62,ALAMBARI,SÃO PAULO,ANA,-23.4953,-47.8125,1945-08-01,2019-07-31,75,4.6,59,21.3
02348003,CONCHAS,62,CONCHAS,SÃO PAULO,DAEE-SP,-23.0,-48.0167,1956-12-01,2018-02-28,63,2.6,48,23.8
02348033,ANGATUBA,64,ANGATUBA,SÃO PAULO,ANA,-23.5639,-48.3897,1938-03-01,2019-07-31,82,3.8,62,24.4
02348037,CERRADINHO,64,CAPÃO BONITO,SÃO PAULO,ANA,-23.9697,-48.2783,1939-06-01,2019-07-31,81,1.4,68,16.0
02348088,ENGENHEIRO BACELAR,64,ITAPEVA,SÃO PAULO,ANA,-23.8889,-48.7708,1981-03-24,2019-07-31,39,1.2,32,17.9
02349005,PORTO ERMIDÃO (FAZ. HARMONIA),64,CHAVANTES,SÃO PAULO,ANA,-23.0822,-49.7364,1951-01-24,2019-06-30,69,0.4,62,10.1
02349007,PIRAJU,64,PIRAJU,SÃO PAULO,ANA,-23.1858,-49.3903,1938-05-17,2019-06-30,82,0.2,69,15.9
02349020,ITAPORANGA,64,ITAPORANGA,SÃO PAULO,ANA,-23.7078,-49.4764,1951-08-31,2019-06-30,69,0.4,59,14.5
02349030,JOAQUIM TÁVORA MTE,64,JOAQUIM TÁVORA,PARANÁ,ANA,-23.5,-49.8667,1971-10-01,2016-12-15,46,2.0,40,13.0
02349036,RIBEIRÃO CLARO,64,RIBEIRÃO CLARO,PARANÁ,AGUASPARANÁ,-23.2,-49.75,1975-08-23,2017-09-30,43,4.3,36,16.3
02349059,CONSELHEIRO ZACARIAS,64,SANTO ANTÔNIO DA PL,PARANÁ,AGUASPARANÁ,-23.4139,-49.9808,1975-11-13,2017-09-30,43,2.0,39,9.3
02349060,PINTOS - NOVA BRASÍLIA,64,CARLÓPOLIS,PARANÁ,AGUASPARANÁ,-23.5456,-49.7469,1975-11-12,2017-09-30,43,2.4,38,11.6
02349061,SANTANA DO ITARARÉ,64,SANTANA DO ITARARÉ,PARANÁ,AGUASPARANÁ,-23.7544,-49.6225,1975-11-11,2017-09-30,43,2.0,39,9.3
02349064,SÃO JOSÉ DA BOA VISTA,64,SÃO JOSÉ DA BOA VIS,PARANÁ,AGUASPARANÁ,-23.9144,-49.65,1975-11-07,2017-09-30,43,2.6,38,11.6
02350002,UHE CAPIVARA ANDIRÁ,64,ANDIRÁ,PARANÁ,PARANAPANEMA,-23.0853,-50.2856,1945-10-17,2017-09-30,73,1.5,57,21.9
02350006,SANTO ANTÔNIO DO PARAÍSO,64,SANTO ANTÔNIO DO PA,PARANÁ,AGUASPARANÁ,-23.5,-50.65,1975-01-18,2017-09-30,43,2.7,37,14.0
02350011,CAMBARÁ,64,CAMBARÁ,PARANÁ,AGUASPARANÁ,-23.0419,-50.07,1973-02-23,2017-08-31,45,3.3,39,13.3
02350012,SANTO ANTÔNIO DA PLATINA,64,SANTO ANTÔNIO DA PL,PARANÁ,AGUASPARANÁ,-23.3,-50.0667,1973-02-23,2015-12-31,43,1.2,40,7.0
02350018,BANDEIRANTES (FAC. AGRONOMIA),64,BANDEIRANTES,PARANÁ,IAPAR,-23.1,-50.35,1974-04-01,2017-04-30,44,4.3,38,13.6
02350021,DOUTOR CLOVIS,64,NOVA FÁTIMA,PARANÁ,AGUASPARANÁ,-23.35,-50.6331,1975-01-19,2017-09-30,43,3.3,38,11.6
02350023,URAI,64,URAÍ,PARANÁ,AGUASPARANÁ,-23.2072,-50.7953,1975-01-17,2017-09-30,43,3.7,36,16.3
02350026,LEÓPOLIS,64,LEÓPOLIS,PARANÁ,AGUASPARANÁ,-23.08,-50.7544,1975-01-17,2017-09-30,43,3.4,37,14.0
02350029,SANTA AMÉLIA,64,SANTA AMÉLIA,PARANÁ,AGUASPARANÁ,-23.2664,-50.4319,1975-08-22,2017-09-30,43,4.9,35,18.6
02350032,CERRO LEÃO,64,ASSAÍ,PARANÁ,AGUASPARANÁ,-23.3939,-50.9239,1975-08-21,2017-09-30,43,1.2,38,11.6
02350033,RIBEIRÃO DO PINHAL,64,RIBEIRÃO DO PINHAL,PARANÁ,AGUASPARANÁ,-23.4,-50.35,1975-08-21,2017-09-30,43,3.2,39,9.3
02350037,TERRA NOVA,64,SÃO JERÔNIMO DA SER,PARANÁ,AGUASPARANÁ,-23.7806,-50.8142,1975-10-01,2017-08-31,43,3.6,37,14.0
02350041,AMORINHA,64,IBAITI,PARANÁ,AGUASPARANÁ,-23.9167,-50.25,1975-11-14,2017-09-30,43,3.8,38,11.6
02350042,PATRIMÔNIO DO CAFÉ,64,IBAITI,PARANÁ,AGUASPARANÁ,-23.8883,-50.1844,1975-11-14,2017-09-30,43,4.4,36,16.3
02350043,RIBEIRÃO DO CAFÉ,64,PINHALÃO,PARANÁ,AGUASPARANÁ,-23.95,-50.0167,1975-11-14,2017-09-30,43,3.4,38,11.6
02350046,JAPIRA,64,JAPIRA,PARANÁ,AGUASPARANÁ,-23.8167,-50.1331,1979-01-01,2017-09-30,39,3.4,36,7.7
02350048,SANTA MARIA DO RIO DO PEIXE,64,CONGONHINHAS,PARANÁ,AGUASPARANÁ,-23.6339,-50.4744,1975-11-16,2017-09-30,43,3.6,39,9.3
02350049,CALIXTO,64,IBAITI,PARANÁ,AGUASPARANÁ,-23.6311,-50.3097,1975-11-13,2017-09-30,43,4.6,34,20.9
02350052,TRIOLÂNDIA,64,RIBEIRÃO DO PINHAL,PARANÁ,AGUASPARANÁ,-23.55,-50.4,1975-12-04,2017-09-30,43,3.2,39,9.3
02350053,JUNDIAÍ DO SUL,64,JUNDIAÍ DO SUL,PARANÁ,AGUASPARANÁ,-23.45,-50.2331,1975-11-14,2017-09-30,43,3.2,39,9.3
02350054,GUAPIRAMA,64,GUAPIRAMA,PARANÁ,AGUASPARANÁ,-23.5167,-50.0331,1975-11-13,2017-09-30,43,3.2,39,9.3
02350061,SAPOPEMA,64,SAPOPEMA,PARANÁ,AGUASPARANÁ,-23.9039,-50.5708,1975-11-14,2017-09-30,43,5.6,35,18.6
02350062,USINA FIGUEIRA,64,FIGUEIRA,PARANÁ,ANA,-23.8503,-50.3911,1964-09-23,2017-09-30,54,2.5,49,9.3
02350063,FAZENDA SANTA LAURA,64,IBAITI,PARANÁ,AGUASPARANÁ,-23.8192,-50.3289,1981-03-01,2017-09-30,37,5.3,29,21.6
02351003,LONDRINA (EST. AGROCLIMAT.),64,LONDRINA,PARANÁ,IAPAR,-23.3,-51.15,1976-01-01,2017-09-30,42,0.0,41,2.4
02351004,BOM SUCESSO,64,BOM SUCESSO,PARANÁ,AGUASPARANÁ,-23.7,-51.7667,1975-01-24,2017-08-31,43,3.1,39,9.3
02351011,IBIPORA,64,IBIPORÃ,PARANÁ,IAPAR,-23.2667,-51.0167,1971-11-01,2015-06-19,45,1.9,41,8.9
02351023,SÃO PEDRO DO IVAÍ,64,SÃO PEDRO DO IVAÍ,PARANÁ,AGUASPARANÁ,-23.8642,-51.8583,1975-01-23,2017-09-30,43,3.5,37,14.0
02351024,KALORE,64,KALORE,PARANÁ,AGUASPARANÁ,-23.8167,-51.6667,1975-01-23,2017-09-30,43,7.0,37,14.0
02351026,RIO BOM,64,RIO BOM,PARANÁ,AGUASPARANÁ,-23.7639,-51.4108,1975-01-23,2017-09-30,43,3.3,38,11.6
02351027,SÃO JOSÉ,64,MARILÂNDIA DO SUL (,PARANÁ,AGUASPARANÁ,-23.8269,-51.2664,1975-01-19,2017-09-30,43,4.1,36,16.3
02351028,ITAMBÉ,64,ITAMBÉ,PARANÁ,AGUASPARANÁ,-23.65,-51.9831,1975-01-24,2017-09-30,43,3.7,38,11.6
02351029,SÃO MIGUEL DO CAMBUI,64,MARIALVA,PARANÁ,AGUASPARANÁ,-23.6097,-51.86,1975-01-24,2017-09-30,43,3.7,38,11.6
02351031,PRATA,64,CAMBÉ,PARANÁ,AGUASPARANÁ,-23.0661,-51.2611,1975-01-09,2017-09-30,43,3.1,39,9.3
02351035,SÃO LUIZ,64,LONDRINA,PARANÁ,AGUASPARANÁ,-23.5167,-51.2331,1975-08-20,2017-09-30,43,3.4,38,11.6
02351037,CALIFORNIA,64,CALIFORNIA,PARANÁ,AGUASPARANÁ,-23.65,-51.35,1975-09-01,2017-09-30,43,3.7,36,16.3
02351041,BAIRRO TRÊS VENDAS,64,ORTIGUEIRA,PARANÁ,AGUASPARANÁ,-23.9831,-51.0831,1975-08-19,2017-09-30,43,3.8,37,14.0
02351043,CRUZEIRO,64,CAMBIRA,PARANÁ,AGUASPARANÁ,-23.6628,-51.6025,1975-12-12,2017-09-30,43,4.9,35,18.6
02351044,VALE AZUL (EST. JAGUARAUNA KM18),64,SARANDI,PARANÁ,AGUASPARANÁ,-23.4839,-51.9056,1975-12-13,2017-09-30,43,4.8,36,16.3
02351045,GUAIAPO,64,MARINGÁ,PARANÁ,AGUASPARANÁ,-23.4,-51.8739,1975-12-13,2017-09-30,43,3.4,39,9.3
02351048,ARAPONGAS,64,ARAPONGAS,PARANÁ,AGUASPARANÁ,-23.4,-51.4333,1975-12-11,2017-09-30,43,1.8,38,11.6
02351051,ASTORGA,64,ASTORGA,PARANÁ,AGUASPARANÁ,-23.2372,-51.6614,1975-12-12,2017-09-30,43,3.2,39,9.3
02351053,SÃO MARTINHO,64,ROLÂNDIA,PARANÁ,AGUASPARANÁ,-23.2,-51.45,1975-12-12,2017-09-30,43,3.8,38,11.6
02351065,SANTA FÉ,64,SANTA FÉ,PARANÁ,AGUASPARANÁ,-23.0403,-51.8056,1979-12-13,2017-09-30,39,4.2,34,12.8
02351066,VILA RICA,64,FÊNIX,PARANÁ,ANA,-23.9006,-51.9525,1985-09-15,2017-09-30,33,3.4,30,9.1
02352002,QUINTA DO SOL,64,QUINTA DO SOL,PARANÁ,ANA,-23.8167,-52.1833,1974-08-01,2017-04-30,44,3.7,36,18.2
02352010,PORTO BANANEIRA,64,ENGENHEIRO BELTRÃO,PARANÁ,ANA,-23.6747,-52.1172,1974-02-21,2017-09-30,44,7.6,38,13.6
02352014,BELA VISTA DO IVAÍ,64,FÊNIX,PARANÁ,AGUASPARANÁ,-23.8481,-52.0283,1975-01-23,2017-09-30,43,5.5,37,14.0
02352017,PARANAVAI,64,PARANAVAI,PARANÁ,ANA,-23.0833,-52.4333,1974-09-01,2017-09-30,44,0.0,42,4.5
02352026,CANAÃ,64,TUNEIRAS DO OESTE,PARANÁ,AGUASPARANÁ,-23.9067,-52.9547,1976-01-07,2017-09-30,42,3.8,35,16.7
02352029,PEABIRU,64,PEABIRU,PARANÁ,AGUASPARANÁ,-23.9108,-52.3361,1975-10-22,2017-09-30,43,3.2,39,9.3
02352030,SILVIOLÂNDIA,64,PEABIRU,PARANÁ,AGUASPARANÁ,-23.9944,-52.1961,1975-10-22,2017-09-30,43,5.2,34,20.9
02352031,IGARITE,64,CIANORTE,PARANÁ,AGUASPARANÁ,-23.8,-52.6331,1975-10-23,2017-09-30,43,3.2,39,9.3
02352033,SALTINHO,64,ENGENHEIRO BELTRÃO,PARANÁ,AGUASPARANÁ,-23.8,-52.3331,1975-10-22,2017-06-30,43,1.8,37,14.0
02352034,ENGENHEIRO BELTRÃO,64,ENGENHEIRO BELTRÃO,PARANÁ,AGUASPARANÁ,-23.7831,-52.25,1975-10-22,2017-09-30,43,3.5,37,14.0
02352035,MALU - TERRA BOA,64,TERRA BOA,PARANÁ,AGUASPARANÁ,-23.6731,-52.3806,1976-01-14,2017-09-30,42,3.4,36,14.3
02352037,FLORAI,64,FLORAÍ,PARANÁ,AGUASPARANÁ,-23.3239,-52.2994,1975-12-14,2017-09-30,43,3.6,37,14.0
02352038,OURIZONA,64,OURIZONA,PARANÁ,AGUASPARANÁ,-23.4042,-52.1958,1975-12-14,2017-08-31,43,3.6,37,14.0
02352039,IVAITINGA,64,NOVA ESPERANÇA,PARANÁ,AGUASPARANÁ,-23.2219,-52.3497,1975-12-14,2017-09-30,43,3.8,37,14.0
02352042,OURO VERDE,64,TAPEJARA,PARANÁ,AGUASPARANÁ,-23.6681,-52.9761,1976-01-07,2017-09-30,42,3.6,36,14.3
02352044,INDIANÓPOLIS,64,INDIANÓPOLIS,PARANÁ,AGUASPARANÁ,-23.4828,-52.7014,1975-12-17,2015-12-31,41,1.8,34,17.1
02352045,JAPURÁ,64,JAPURÁ,PARANÁ,AGUASPARANÁ,-23.4667,-52.55,1975-12-17,2017-09-30,43,4.8,34,20.9
02352046,CIDADE GAUCHA,64,CIDADE GAUCHA,PARANÁ,AGUASPARANÁ,-23.3831,-52.9331,1975-12-18,2017-09-30,43,3.2,39,9.3
02352048,GAUCHINHA,64,PLANALTINA DO PARAN,PARANÁ,AGUASPARANÁ,-23.1492,-52.9453,1975-12-16,2017-09-30,43,3.2,39,9.3
02352050,PLANALTINA DO PARANÁ,64,PLANALTINA DO PARAN,PARANÁ,AGUASPARANÁ,-23.0228,-52.9217,1975-12-16,2017-09-30,43,0.8,40,7.0
02352051,AMAPORÃ,64,AMAPORÃ,PARANÁ,AGUASPARANÁ,-23.0853,-52.7847,1975-12-16,2017-09-30,43,3.5,38,11.6
02352052,DEPUTADO JOSÉ AFONSO,64,PARANAVAI,PARANÁ,AGUASPARANÁ,-23.0831,-52.6667,1975-12-15,2017-08-31,43,3.6,38,11.6
02352053,COPACABANA DO NORTE,64,SÃO JORGE D'OESTE,PARANÁ,AGUASPARANÁ,-23.5308,-52.3808,1975-12-13,2017-09-30,43,3.2,39,9.3
02352055,FLORIANO,64,MARINGÁ,PARANÁ,AGUASPARANÁ,-23.5264,-52.0536,1975-12-14,2017-08-31,43,4.2,35,18.6
02352060,COMUR,64,PLANALTINA DO PARAN,PARANÁ,AGUASPARANÁ,-23.0772,-52.9592,1974-07-08,2017-09-30,44,3.3,39,11.4
02352061,SÍTIO FLORESTA,64,IVATUBA,PARANÁ,AGUASPARANÁ,-23.6169,-52.1964,1974-09-04,2017-09-30,44,3.3,39,11.4
02352062,NOVA ESPERANÇA,64,NOVA ESPERANÇA,PARANÁ,AGUASPARANÁ,-23.1831,-52.1831,1972-12-02,2017-09-30,46,3.9,39,15.2
02352063,SÃO JORGE DO IVAÍ,64,SÃO JORGE D'OESTE,PARANÁ,AGUASPARANÁ,-23.4167,-52.3,1979-08-17,2017-09-30,39,5.4,33,15.4
02353001,SANTA ISABEL DO IVAÍ,64,SANTA ISABEL DO IVA,PARANÁ,ANA,-23.0067,-53.1889,1957-10-01,2017-03-31,61,5.6,47,23.0
02353003,ALTÔNIA,64,ALTÔNIA,PARANÁ,AGUASPARANÁ,-23.85,-53.8831,1967-04-11,2017-09-30,51,3.5,42,17.6
02353005,XAMBRE,64,XAMBRE,PARANÁ,AGUASPARANÁ,-23.7342,-53.4864,1967-04-01,2017-04-30,51,3.7,44,13.7
02353006,MARILUZ,64,MARILUZ,PARANÁ,AGUASPARANÁ,-23.9831,-53.1667,1967-04-08,2017-09-30,51,3.8,45,11.8
02353008,UMUARAMA,64,UMUARAMA,PARANÁ,IAPAR,-23.7331,-53.2831,1971-11-01,2017-05-31,47,1.8,43,8.5
02353010,QUERÊNCIA DO NORTE,64,QUERÊNCIA DO NORTE,PARANÁ,AGUASPARANÁ,-23.0817,-53.4811,1975-08-15,2017-09-30,43,3.4,38,11.6
02353016,PÉROLA,64,PÉROLA,PARANÁ,AGUASPARANÁ,-23.7969,-53.6756,1976-01-13,2017-09-30,42,4.8,35,16.7
02353017,SANTA MÔNICA,64,CIDADE GAUCHA,PARANÁ,AGUASPARANÁ,-23.4386,-53.0161,1975-12-17,2017-09-30,43,4.4,37,14.0
02353019,BAIRRO GURUCAIA,64,SÃO JORGE DO PATROC,PARANÁ,AGUASPARANÁ,-23.6931,-53.9089,1976-01-17,2017-09-30,42,4.0,36,14.3
02353020,PINDORAMA,64,XAMBRE,PARANÁ,AGUASPARANÁ,-23.7167,-53.7131,1976-01-12,2017-09-30,42,3.2,37,11.9
02353022,SERRA DOS DOURADOS,64,UMUARAMA,PARANÁ,AGUASPARANÁ,-23.6167,-53.3667,1976-01-11,2017-09-30,42,3.4,37,11.9
02353023,MARIA HELENA,64,MARIA HELENA,PARANÁ,AGUASPARANÁ,-23.6078,-53.2042,1975-12-18,2017-09-30,43,5.5,36,16.3
02353025,MARCO PRETO,64,UMUARAMA,PARANÁ,AGUASPARANÁ,-23.4794,-53.7269,1976-01-08,2017-09-30,42,4.2,36,14.3
02353027,SANTA ELIZA,64,UMUARAMA,PARANÁ,AGUASPARANÁ,-23.5275,-53.4628,1976-01-10,2017-09-30,42,3.8,36,14.3
02353028,VILA CARBONELA,64,MARIA HELENA,PARANÁ,AGUASPARANÁ,-23.5486,-53.3211,1976-01-10,2017-09-30,42,3.2,38,9.5
02353029,NOVA OLIMPIA,64,NOVA OLIMPIA,PARANÁ,AGUASPARANÁ,-23.4858,-53.0839,1975-12-17,2017-09-30,43,4.6,36,16.3
02353031,ICARAIMA,64,ICARAIMA,PARANÁ,AGUASPARANÁ,-23.3831,-53.6167,1976-01-09,2017-09-30,42,3.6,37,11.9
02353033,DOURADINHA,64,DOURADINA,PARANÁ,AGUASPARANÁ,-23.3667,-53.2831,1975-12-16,2017-09-30,43,3.4,38,11.6
02353034,TAPIRA,64,TAPIRA,PARANÁ,AGUASPARANÁ,-23.3197,-53.07,1975-12-17,2017-09-30,43,4.2,37,14.0
02353038,SÃO JOSÉ DO IVAÍ,64,SANTA ISABEL DO IVA,PARANÁ,AGUASPARANÁ,-23.1311,-53.2772,1975-12-16,2017-09-30,43,3.6,36,16.3
02353041,APARECIDA DO IVAÍ,64,SANTA MÔNICA,PARANÁ,AGUASPARANÁ,-23.1831,-53.0667,1974-07-01,2017-09-30,44,3.1,40,9.1
02353044,NOVO PORTO TAQUARA,64,SANTA ISABEL DO IVA,PARANÁ,ANA,-23.1869,-53.2014,1974-07-01,2017-09-30,44,3.8,36,18.2
02353047,IGUAIPORA,64,ALTÔNIA,PARANÁ,AGUASPARANÁ,-23.95,-53.9667,1976-01-12,2017-09-30,42,3.4,37,11.9
02354000,NAVIRAI,64,NAVIRAÍ,MATO GROSSO DO SUL,ANA,-23.0578,-54.1939,1972-05-12,2019-10-31,48,4.8,36,25.0
02446019,MELVI,80,PRAIA GRANDE,SÃO PAULO,DAEE-SP,-24.0333,-46.55,1982-09-01,2018-01-31,37,1.6,30,18.9
02447005,BAIRRO IPORANGA,81,JUQUIÁ,SÃO PAULO,DAEE-SP,-24.1,-47.6833,1958-01-01,2018-03-31,61,3.0,52,14.8
02447009,CAPELA DO PORTO,81,JUQUIÁ,SÃO PAULO,DAEE-SP,-24.1667,-47.65,1939-07-01,2018-03-31,80,4.7,69,13.8
02447016,BAIRRO IGREJINHA,81,ITARIRI,SÃO PAULO,DAEE-SP,-24.3333,-47.2,1955-04-01,2018-04-30,64,0.8,56,12.5
02447026,REGISTRO,81,REGISTRO,SÃO PAULO,DAEE-SP,-24.5,-47.85,1937-01-23,2015-01-14,79,6.0,62,21.5
02447043,PEDRO BARROS,81,MIRACATU,SÃO PAULO,ANA,-24.2483,-47.3733,1939-05-01,2019-05-31,81,1.3,63,22.2
02447044,MIRACATU,81,MIRACATU,SÃO PAULO,ANA,-24.2711,-47.4642,1951-12-09,2019-04-30,69,1.3,56,18.8
02447045,ITARIRI,81,ITARIRI,SÃO PAULO,ANA,-24.2886,-47.1781,1937-08-01,2019-05-31,83,1.8,65,21.7
02448013,APIAÍ,81,APIAÍ,SÃO PAULO,DAEE-SP,-24.5167,-48.85,1960-08-01,2015-01-22,56,0.5,48,14.3
02448035,TATUPEVA,81,ADRIANÓPOLIS,PARANÁ,AGUASPARANÁ,-24.7167,-48.75,1974-06-28,2017-09-30,44,3.9,38,13.6
02448037,FAZENDA BOA VISTA (CRICIUMA),81,ADRIANÓPOLIS,PARANÁ,AGUASPARANÁ,-24.7564,-48.9681,1974-06-27,2017-09-30,44,3.3,39,11.4
02448057,SERRA DOS MOTAS,81,IPORANGA,SÃO PAULO,DAEE-SP,-24.55,-48.6833,1972-04-14,2018-04-30,47,0.6,41,12.8
02449011,PIRAÍ DO SUL,64,PIRAÍ DO SUL,PARANÁ,AGUASPARANÁ,-24.5292,-49.9289,1973-02-25,2017-09-30,45,3.4,40,11.1
02449020,COSTAS,81,CERRO AZUL,PARANÁ,ANA,-24.95,-49.3,1974-08-27,2017-09-30,44,4.9,34,22.7
02449021,DR. ULISSES,81,DOUTOR ULYSSES,PARANÁ,AGUASPARANÁ,-24.5669,-49.4194,1974-08-01,2017-09-30,44,3.2,39,11.4
02449023,SÃO SEBASTIÃO,81,CERRO AZUL,PARANÁ,AGUASPARANÁ,-24.85,-49.4667,1974-08-01,2017-09-30,44,3.7,37,15.9
02449024,TUNAS,81,TUNAS DO PARANÁ,PARANÁ,AGUASPARANÁ,-24.9667,-49.0831,1974-06-26,2017-09-30,44,3.8,38,13.6
02449026,ABAPÃ,64,CASTRO,PARANÁ,AGUASPARANÁ,-24.9375,-49.8242,1975-11-01,2017-09-30,43,3.2,39,9.3
02449028,SOCAVÃO,64,CASTRO,PARANÁ,AGUASPARANÁ,-24.7744,-49.7,1975-11-01,2017-09-30,43,3.6,38,11.6
02449030,TABOR (FAZENDA MARÃO),64,CASTRO,PARANÁ,AGUASPARANÁ,-24.6331,-49.6831,1975-11-17,2017-08-31,43,3.3,34,20.9
02449032,CAPINZAL - PIRAI DO SUL,64,PIRAÍ DO SUL,PARANÁ,AGUASPARANÁ,-24.5003,-49.7264,1975-11-05,2017-09-30,43,3.2,39,9.3
02449036,EDUARDO XAVIER DA SILVA,64,JAGUARIAÍVA,PARANÁ,AGUASPARANÁ,-24.3831,-49.5831,1975-11-06,2017-09-30,43,3.4,38,11.6
02449040,JAGUARIAIVA,64,JAGUARIAÍVA,PARANÁ,AGUASPARANÁ,-24.2642,-49.7317,1975-11-08,2017-09-30,43,3.6,37,14.0
02449044,SENGES,64,SENGES,PARANÁ,AGUASPARANÁ,-24.1,-49.4667,1975-11-07,2017-09-30,43,3.4,38,11.6
02449057,CATAS ALTAS,81,RIBEIRA,SÃO PAULO,DAEE-SP,-24.6167,-49.05,1975-03-13,2018-05-31,44,1.2,37,15.9
02449063,BALSA DO JACARÉ,81,RIO BRANCO DO SUL,PARANÁ,ANA,-24.9667,-49.4667,1978-09-03,2017-08-31,40,0.0,35,12.5
02450002,TIBAJI,64,TIBAGI,PARANÁ,AGUASPARANÁ,-24.5108,-50.4,1938-04-01,2017-12-31,80,2.4,70,12.5
02450011,TELÊMACO BORBA,64,TELÊMACO BORBA,PARANÁ,IAPAR,-24.3333,-50.6167,1971-12-01,2016-06-30,46,7.5,40,13.0
02450013,CHÁCARA CACHOEIRA,64,CASTRO,PARANÁ,ANA,-24.7667,-50.0667,1975-01-12,2017-09-30,43,3.1,38,11.6
02450021,BOCAINA,64,PONTA GROSSA,PARANÁ,AGUASPARANÁ,-24.9831,-50.2667,1975-10-11,2017-05-31,43,3.2,39,9.3
02450024,CATANDUVA DE FORA (RONCA PORCO),64,CARAMBEÍ,PARANÁ,AGUASPARANÁ,-24.95,-50.0,1975-11-01,2017-09-30,43,3.4,39,9.3
02450025,FAZENDA SÃO CARLOS (SABÃO),64,TIBAGI,PARANÁ,AGUASPARANÁ,-24.6831,-50.3,1975-11-02,2017-05-31,43,3.7,36,16.3
02450026,COLÔNIA IAPÓ,64,CASTRO,PARANÁ,AGUASPARANÁ,-24.6331,-50.1331,1975-11-02,2017-09-30,43,3.2,39,9.3
02450031,GUARICANGA - PIRAI DO SUL,64,PIRAÍ DO SUL,PARANÁ,AGUASPARANÁ,-24.3667,-50.1,1975-11-16,2017-09-30,43,4.8,35,18.6
02450034,VENTANIA,64,TIBAGI,PARANÁ,AGUASPARANÁ,-24.2167,-50.2331,1975-10-14,2017-09-30,43,3.6,37,14.0
02450036,FAZENDA REDOMONA,64,ARAPOTI,PARANÁ,AGUASPARANÁ,-24.2586,-50.0839,1975-11-16,2015-10-31,41,3.5,33,19.5
02450040,JOSÉ LACERDA,64,RESERVA,PARANÁ,AGUASPARANÁ,-24.4919,-50.8186,1975-10-04,2017-09-30,43,3.4,38,11.6
02450048,CARATUVA,64,ARAPOTI,PARANÁ,AGUASPARANÁ,-24.0333,-50.0833,1975-11-16,2017-09-30,43,4.4,34,20.9
02450049,SALTINHO,64,IVAÍ,PARANÁ,AGUASPARANÁ,-24.9575,-50.8917,1975-09-21,2017-09-30,43,3.2,39,9.3
02450052,RIO NOVO,64,RESERVA,PARANÁ,AGUASPARANÁ,-24.4167,-50.9667,1975-10-01,2017-09-30,43,1.4,37,14.0
02450054,CERRO AZUL,64,IPIRANGA,PARANÁ,AGUASPARANÁ,-24.8667,-50.65,1975-10-10,2017-09-30,43,4.6,34,20.9
02450062,LAGEADO LISO,64,CURIÚVA,PARANÁ,AGUASPARANÁ,-24.0167,-50.7,1987-06-01,2017-09-30,31,5.2,25,19.4
02451002,UBÁ DO SUL,64,JARDIM ALEGRE,PARANÁ,ANA,-24.05,-51.6167,1967-04-17,2017-09-30,51,2.3,46,9.8
02451003,TEREZA CRISTINA,64,CÂNDIDO DE ABREU,PARANÁ,ANA,-24.8333,-51.15,1956-08-09,2017-05-31,62,2.5,54,12.9
02451006,PORTO MONTEIRO,64,CRUZMALTINA,PARANÁ,ANA,-24.1058,-51.4822,1974-02-01,2017-09-30,44,2.7,39,11.4
02451010,SANTA MARIA DO OESTE,64,SANTA MARIA DO OEST,PARANÁ,AGUASPARANÁ,-24.9333,-51.8833,1967-04-07,2017-09-30,51,2.6,47,7.8
02451013,PITANGA,64,PITANGA,PARANÁ,AGUASPARANÁ,-24.75,-51.7667,1965-04-16,2017-09-30,53,2.5,49,7.5
02451014,IVAIPORÃ,64,IVAIPORÃ,PARANÁ,ANA,-24.25,-51.65,1955-10-12,2017-07-31,63,0.3,54,14.3
02451015,MANOEL RIBAS,64,MANOEL RIBAS,PARANÁ,ANA,-24.5167,-51.6667,1965-09-25,2017-09-30,53,4.8,42,20.8
02451017,PORTO ESPANHOL,64,GRANDES RIOS,PARANÁ,ANA,-24.3444,-51.4239,1965-08-11,2017-08-31,53,0.5,48,9.4
02451020,BARBOSA FERRAZ,64,BARBOSA FERRAZ,PARANÁ,ANA,-24.0167,-51.95,1974-08-01,2017-09-30,44,3.0,37,15.9
02451021,BARRA GRANDE,64,SANTA MARIA DO OEST,PARANÁ,AGUASPARANÁ,-24.7792,-51.9544,1975-03-05,2017-09-30,43,3.3,38,11.6
02451022,JACUTINGA,64,IVAIPORÃ,PARANÁ,AGUASPARANÁ,-24.25,-51.5333,1975-01-25,2017-09-30,43,3.1,39,9.3
02451023,RIBEIRÃO BONITO,64,GRANDES RIOS,PARANÁ,AGUASPARANÁ,-24.1833,-51.4333,1975-01-25,2015-12-31,41,2.2,36,12.2
02451026,ARROIO GRANDE,64,PITANGA,PARANÁ,AGUASPARANÁ,-24.6167,-51.8333,1975-09-21,2017-09-30,43,3.2,39,9.3
02451027,CARAZINHO,64,BOA VENTURA DE SÃO ,PARANÁ,AGUASPARANÁ,-24.9083,-51.6578,1975-09-20,2017-09-30,43,3.2,39,9.3
02451028,BOA VENTURA DE SÃO ROQUE,64,BOA VENTURA DE SÃO ,PARANÁ,AGUASPARANÁ,-24.9333,-51.6333,1975-09-21,2017-09-30,43,3.2,39,9.3
02451029,FAXINAL DA BOA VISTA,64,PRUDENTÓPOLIS,PARANÁ,AGUASPARANÁ,-24.9167,-51.3667,1975-09-17,2017-09-30,43,3.8,38,11.6
02451032,RIO DO SUSTO (CASCATA),64,PITANGA,PARANÁ,AGUASPARANÁ,-24.7592,-51.6219,1975-09-01,2017-09-30,43,4.3,35,18.6
02451034,JACIABA,64,PRUDENTÓPOLIS,PARANÁ,AGUASPARANÁ,-24.8331,-51.2831,1975-09-16,2017-07-31,43,3.4,38,11.6
02451035,BAIRRO DA IMBUIA,64,RESERVA,PARANÁ,AGUASPARANÁ,-24.8592,-51.0089,1975-10-01,2017-09-30,43,3.2,39,9.3
02451036,BOM RETIRO,64,PITANGA,PARANÁ,AGUASPARANÁ,-24.6411,-51.7581,1975-09-21,2017-08-31,43,3.8,36,16.3
02451038,FAXINAL DE CATANDUVAS,64,CÂNDIDO DE ABREU,PARANÁ,AGUASPARANÁ,-24.6167,-51.2667,1975-10-04,2017-09-30,43,3.2,39,9.3
02451039,LARANJEIRAS,64,LARANJEIRAS DO SUL,PARANÁ,AGUASPARANÁ,-25.4167,-52.4167,1975-10-03,2015-02-19,41,0.8,38,7.3
02451043,BARRA BONITA,64,RESERVA,PARANÁ,AGUASPARANÁ,-24.5694,-51.1531,1975-10-03,2017-08-31,43,3.3,37,14.0
02451044,NOVA TEBAS,64,NOVA TEBAS,PARANÁ,AGUASPARANÁ,-24.4167,-51.9333,1975-11-18,2017-09-30,43,3.8,37,14.0
02451045,ALTO PORÃ,64,IVAIPORÃ,PARANÁ,AGUASPARANÁ,-24.3531,-51.6914,1975-10-18,2017-08-31,43,4.0,37,14.0
02451046,ARIRANHA,64,ARIRANHA DO IVAÍ,PARANÁ,AGUASPARANÁ,-24.3667,-51.5,1975-10-17,2017-09-30,43,3.7,37,14.0
02451047,RIO BRANCO DO IVAI,64,RIO BRANCO DO IVAÍ,PARANÁ,AGUASPARANÁ,-24.3167,-51.3,1975-10-16,2017-09-30,43,3.8,37,14.0
02451049,POUSO ALEGRE,64,JARDIM ALEGRE,PARANÁ,AGUASPARANÁ,-24.1144,-51.7342,1975-10-17,2017-09-30,43,4.4,37,14.0
02451051,CÂNDIDO DE ABREU,64,CÂNDIDO DE ABREU,PARANÁ,AGUASPARANÁ,-24.565,-51.3314,1975-10-04,2015-10-31,41,1.4,35,14.6
02452000,BALSA DO CANTU,64,ALTAMIRA DO PARANÁ,PARANÁ,ANA,-24.7489,-52.7019,1967-07-24,2017-09-30,51,3.5,40,21.6
02452001,PONTE DO GOIO - BANG,64,CAMPINA DA LAGOA,PARANÁ,ANA,-24.5544,-52.9014,1967-07-25,2017-09-30,51,4.4,39,23.5
02452007,CAMPO MOURÃO,64,CAMPO MOURÃO,PARANÁ,AGUASPARANÁ,-24.0472,-52.3675,1973-02-20,2017-09-30,45,4.1,38,15.6
02452008,IRETAMA,64,IRETAMA,PARANÁ,AGUASPARANÁ,-24.4167,-52.1,1965-09-17,2017-08-31,53,7.7,41,22.6
02452009,UBIRATÃ,64,UBIRATÃ,PARANÁ,AGUASPARANÁ,-24.5333,-52.9833,1965-04-16,2017-09-30,53,2.7,48,9.4
02452010,JANIÓPOLIS,64,JANIÓPOLIS,PARANÁ,AGUASPARANÁ,-24.1333,-52.7667,1967-04-08,2017-09-30,51,2.9,43,15.7
02452011,CAMPINA DA LAGOA,64,CAMPINA DA LAGOA,PARANÁ,AGUASPARANÁ,-24.5997,-52.8042,1965-04-15,2017-09-30,53,4.0,46,13.2
02452012,ALTAMIRA DO PARANÁ,64,ALTAMIRA DO PARANÁ,PARANÁ,AGUASPARANÁ,-24.8,-52.7,1966-03-18,2017-09-30,52,3.8,42,19.2
02452014,MAMBORÊ,64,MAMBORÊ,PARANÁ,AGUASPARANÁ,-24.2831,-52.5167,1965-04-15,2017-09-30,53,2.7,47,11.3
02452015,RONCADOR,64,RONCADOR,PARANÁ,AGUASPARANÁ,-24.6,-52.2667,1965-04-15,2017-09-30,53,3.3,49,7.5
02452016,PALMITAL,64,PALMITAL,PARANÁ,AGUASPARANÁ,-24.8844,-52.2028,1965-04-16,2017-01-31,53,3.0,47,11.3
02452029,FAROL,64,FAROL,PARANÁ,AGUASPARANÁ,-24.0906,-52.6214,1975-08-01,2017-09-30,43,4.2,37,14.0
02452033,PRIMAVERA,64,JURANDA,PARANÁ,AGUASPARANÁ,-24.3331,-52.9331,1975-07-30,2017-09-30,43,4.4,37,14.0
02452035,GUARANI,64,MAMBORÊ,PARANÁ,AGUASPARANÁ,-24.4331,-52.55,1974-01-01,2017-09-30,44,4.6,38,13.6
02452040,PENSAMENTO,64,MAMBORÊ,PARANÁ,AGUASPARANÁ,-24.3167,-52.65,1975-07-31,2017-09-30,43,3.2,39,9.3
02452041,SANTO ANTÔNIO,64,RONCADOR,PARANÁ,AGUASPARANÁ,-24.5006,-52.2436,1975-10-21,2017-09-30,43,3.8,35,18.6
02452042,ALTO SÃO JOÃO (RONCADOR),64,RONCADOR,PARANÁ,AGUASPARANÁ,-24.5,-52.05,1975-10-21,2017-09-30,43,4.4,36,16.3
02452044,MARILU,64,IRETAMA,PARANÁ,AGUASPARANÁ,-24.4167,-52.2,1975-10-21,2017-09-30,43,3.8,36,16.3
02452045,RIO  DA VÁRZEA,64,CAMPO MOURÃO,PARANÁ,COPEL,-24.2347,-52.4025,1975-10-18,2017-09-30,43,2.2,34,20.9
02452046,LUIZIANA,64,LUIZIANA,PARANÁ,AGUASPARANÁ,-24.2831,-52.2667,1975-10-18,2017-09-30,43,3.5,37,14.0
02452051,PORTO CARRIEL,64,DIAMANTE DO SUL,PARANÁ,ANA,-24.9472,-52.5978,1983-03-21,2017-09-30,35,0.8,30,14.3
02453000,BALSA SANTA MARIA,64,IPORÃ,PARANÁ,ANA,-24.1667,-53.7333,1972-01-01,2015-12-31,44,3.2,33,25.0
02453001,PONTE DO PIQUIRI,64,UBIRATÃ,PARANÁ,ANA,-24.5583,-53.1289,1970-04-12,2017-09-30,48,3.1,41,14.6
02453008,ALTO PIQUIRI,64,ALTO PIQUIRI,PARANÁ,AGUASPARANÁ,-24.0147,-53.4397,1967-04-13,2017-09-30,51,2.6,47,7.8
02453009,PORTO FORMOSA,64,FORMOSA DO OESTE,PARANÁ,ANA,-24.2,-53.3333,1966-05-17,2017-09-30,52,3.9,42,19.2
02453010,FORMOSA DO OESTE,64,FORMOSA DO OESTE,PARANÁ,AGUASPARANÁ,-24.2831,-53.3167,1967-04-30,2017-09-30,51,3.1,44,13.7
02453012,CORBELIA,64,CORBÉLIA,PARANÁ,AGUASPARANÁ,-24.8,-53.3,1965-04-13,2017-09-30,53,4.8,45,15.1
02453013,SALTO SAPUCAÍ,64,IGUATU,PARANÁ,ANA,-24.6333,-53.1,1964-07-26,2017-09-30,54,2.8,44,18.5
02453016,GOIOERÊ,64,GOIOERÊ,PARANÁ,AGUASPARANÁ,-24.1933,-53.0319,1967-04-08,2015-11-30,49,1.2,41,16.3
02453026,OURO VERDE DO OESTE,64,OURO VERDE DO OESTE,PARANÁ,AGUASPARANÁ,-24.7753,-53.9017,1975-07-18,2017-09-30,43,3.2,38,11.6
02453027,BOM PRINCÍPIO,64,TOLEDO,PARANÁ,AGUASPARANÁ,-24.7722,-53.6425,1975-07-15,2017-09-30,43,3.2,36,16.3
02453028,DOIS IRMÃOS,64,TOLEDO,PARANÁ,AGUASPARANÁ,-24.62,-53.9261,1975-07-15,2017-09-30,43,3.7,37,14.0
02453030,BRAGANTINA,64,ASSIS CHATEAUBRIAND,PARANÁ,AGUASPARANÁ,-24.6111,-53.6142,1975-07-26,2017-08-31,43,4.2,35,18.6
02453037,PALMITÓPOLIS,64,NOVA AURORA,PARANÁ,AGUASPARANÁ,-24.5731,-53.38,1975-07-26,2017-09-30,43,3.8,36,16.3
02453043,NOVO PORTO 2,64,NOVA AURORA,PARANÁ,ANA,-24.3781,-53.1619,1978-01-27,2017-09-30,40,4.4,31,22.5
02453047,VILA MARIPÁ,64,MARIPA,PARANÁ,AGUASPARANÁ,-24.4167,-53.8167,1976-01-12,2017-09-30,42,4.0,35,16.7
02453048,ALTO SANTA FÉ,64,NOVA SANTA ROSA,PARANÁ,AGUASPARANÁ,-24.3919,-53.9325,1976-01-12,2017-09-30,42,5.3,33,21.4
02453050,BRASILÂNDIA DO SUL,64,BRASILÂNDIA DO SUL,PARANÁ,AGUASPARANÁ,-24.1983,-53.5256,1976-01-01,2017-09-30,42,3.2,38,9.5
02453052,RIO BONITO,64,FRANCISCO ALVES,PARANÁ,AGUASPARANÁ,-24.0831,-53.95,1976-01-11,2017-09-30,42,3.7,36,14.3
02453056,SÃO JOÃO DO OESTE,64,CASCAVEL,PARANÁ,AGUASPARANÁ,-24.9628,-53.2439,1975-07-26,2017-09-30,43,1.6,37,14.0
02453059,TOLEDO,64,TOLEDO,PARANÁ,AGUASPARANÁ,-24.7333,-53.7167,1979-04-01,2017-09-30,39,5.1,33,15.4
02454003,ENTRE RIOS DO OESTE,64,ENTRE RIOS DO OESTE,PARANÁ,AGUASPARANÁ,-24.6925,-54.2325,1963-06-12,2017-09-30,55,2.6,50,9.1
02454004,GUAIRA PORTO,64,PATO BRAGADO,PARANÁ,ITAIPU,-24.6481,-54.2983,1974-01-01,2017-09-30,44,4.2,36,18.2
02454006,TERRA ROXA DO OESTE,64,TERRA ROXA,PARANÁ,AGUASPARANÁ,-24.1667,-54.1,1967-04-13,2017-09-30,51,3.9,44,13.7
02454011,SÃO SEBASTIÃO DO OESTE,64,VERA CRUZ DO OESTE,PARANÁ,AGUASPARANÁ,-24.9772,-54.0,1975-02-24,2017-09-30,43,3.1,39,9.3
02454012,SÃO CLEMENTE,64,SANTA HELENA,PARANÁ,AGUASPARANÁ,-24.7789,-54.2394,1975-07-17,2017-09-30,43,3.2,39,9.3
02454015,NOVA MERCEDES,64,MERCEDES,PARANÁ,AGUASPARANÁ,-24.45,-54.1667,1975-07-15,2017-09-30,43,3.6,36,16.3
02454016,RANCHO ALEGRE,64,GUAÍRA,PARANÁ,AGUASPARANÁ,-24.3167,-54.2167,1975-07-15,2017-09-30,43,3.2,39,9.3
02454018,PONTE QUEIMADA,64,DIAMANTE D'OESTE,PARANÁ,AGUASPARANÁ,-24.9061,-54.2014,1975-07-24,2017-09-30,43,3.4,38,11.6
02454028,IGUIPORÃ,64,MARECHAL CÂNDIDO RO,PARANÁ,AGUASPARANÁ,-24.55,-54.2167,1997-09-01,2017-09-30,21,6.7,17,19.0
02548000,MORRETES,82,MORRETES,PARANÁ,ANA,-25.4667,-48.8333,1939-01-01,2017-09-30,79,1.0,72,8.9
02548003,COLONIA DO CACHOEIRA,82,ANTONINA,PARANÁ,ANA,-25.2333,-48.75,1946-05-28,2017-09-30,72,0.3,67,6.9
02548038,MORRETES (EST.EXP.FRUTAS TROP),82,MORRETES,PARANÁ,IAPAR,-25.5,-48.8167,1966-01-01,2015-12-31,50,2.2,48,4.0
02548039,GUARAQUEÇABA,82,GUARAQUEÇABA,PARANÁ,IAPAR,-25.3,-48.3333,1978-01-01,2016-01-31,39,0.4,36,7.7
02548042,RIO GUARAQUEÇABA,82,GUARAQUEÇABA,PARANÁ,AGUASPARANÁ,-25.0831,-48.2167,1974-06-14,2017-09-30,44,6.2,34,22.7
02548043,BANANAL,82,GUARAQUEÇABA,PARANÁ,AGUASPARANÁ,-25.2331,-48.4167,1974-08-01,2017-09-30,44,5.8,34,22.7
02548049,COLÔNIA SANTA CRUZ,82,PARANAGUÁ,PARANÁ,AGUASPARANÁ,-25.5967,-48.6247,1974-06-07,2017-09-30,44,6.1,35,20.5
02548052,ILHA DO RIO CLARO,82,SÃO JOSÉ DOS PINHAI,PARANÁ,AGUASPARANÁ,-25.8128,-48.9236,1974-06-04,2018-08-31,45,0.8,39,13.3
02548068,ANTONINA,82,ANTONINA,PARANÁ,AGUASPARANÁ,-25.4333,-48.7667,1974-06-07,2017-09-30,44,3.3,39,11.4
02549000,SÃO BENTO,65,LAPA,PARANÁ,COPEL,-25.9333,-49.7833,1938-04-01,2015-11-30,78,1.5,73,6.4
02549001,PORTO AMAZONAS,65,PORTO AMAZONAS,PARANÁ,COPEL,-25.55,-49.8833,1939-09-01,2015-12-31,77,0.1,75,2.6
02549003,RIO DA VÁRZEA DOS LIMA,65,QUITANDINHA,PARANÁ,ANA,-25.95,-49.3931,1940-09-07,2017-09-30,78,1.5,73,6.4
02549004,PIRAQUARA,65,PIRAQUARA,PARANÁ,ANA,-25.45,-49.0667,1958-06-01,2017-09-30,60,2.7,54,10.0
02549006,CURITIBA,65,CURITIBA,PARANÁ,ANA,-25.4333,-49.2667,1889-01-01,2017-09-30,129,4.4,111,14.0
02549017,FAZENDINHA,65,SÃO JOSÉ DOS PINHAI,PARANÁ,ANA,-25.5192,-49.1467,1964-06-05,2017-09-30,54,0.3,50,7.4
02549019,ITAQUI,65,CAMPO LARGO,PARANÁ,AGUASPARANÁ,-25.4667,-49.5667,1964-06-06,2017-09-30,54,3.0,48,11.1
02549045,BATEIAS,81,CAMPO LARGO,PARANÁ,AGUASPARANÁ,-25.35,-49.5167,1974-07-03,2017-09-30,44,4.4,34,22.7
02549047,TRÊS CÓRREGOS,81,CAMPO LARGO,PARANÁ,AGUASPARANÁ,-25.2333,-49.6333,1974-07-04,2017-09-30,44,3.1,40,9.1
02549048,OURO FINO DE BAIXO,81,CAMPO LARGO,PARANÁ,AGUASPARANÁ,-25.2911,-49.5183,1974-07-03,2017-09-30,44,3.9,36,18.2
02549052,ITAIACOCA,81,PONTA GROSSA,PARANÁ,AGUASPARANÁ,-25.1333,-49.9,1974-10-08,2017-09-30,44,3.7,39,11.4
02549053,ERVALZINHO,81,ITAPERUÇU,PARANÁ,AGUASPARANÁ,-25.1331,-49.55,1974-10-01,2017-09-30,44,3.1,40,9.1
02549054,SANTA CRUZ - TIGRE,81,CERRO AZUL,PARANÁ,AGUASPARANÁ,-25.0653,-49.1236,1974-10-04,2017-07-31,44,4.0,34,22.7
02549056,PINHEIRINHO,81,CASTRO,PARANÁ,AGUASPARANÁ,-25.0,-49.65,1974-10-09,2017-09-30,44,4.1,38,13.6
02549059,PEDRA ALTA,65,LAPA,PARANÁ,AGUASPARANÁ,-25.8,-49.8828,1975-02-11,2017-09-30,43,3.1,39,9.3
02549061,QUITANDINHA,65,QUITANDINHA,PARANÁ,ANA,-25.855,-49.5258,1975-02-21,2017-09-30,43,2.4,40,7.0
02549062,MANDIRITUBA,65,MANDIRITUBA,PARANÁ,AGUASPARANÁ,-25.7764,-49.3244,1974-07-10,2017-09-30,44,7.1,33,25.0
02549063,RINCÃO,65,TIJUCAS DO SUL,PARANÁ,AGUASPARANÁ,-25.7833,-49.15,1975-02-21,2017-09-30,43,5.0,37,14.0
02549065,COLÔNIA WITMARSUM,64,PALMEIRA,PARANÁ,AGUASPARANÁ,-25.4333,-49.8167,1975-09-10,2017-07-31,43,4.3,35,18.6
02549076,CAMPO DO TENENTE,65,CAMPO DO TENENTE,PARANÁ,ANA,-25.9833,-49.6833,1981-05-01,2017-09-30,37,3.2,32,13.5
02549077,MONTANTE ATERRO SANITÁRIO (JURUQUI),65,ALMIRANTE TAMANDARÉ,PARANÁ,ANA,-25.3519,-49.3447,1984-09-15,2017-08-31,34,5.7,29,14.7
02549091,LAPA,65,LAPA,PARANÁ,IAPAR,-25.7833,-49.7667,1988-09-01,2017-09-30,30,0.0,28,6.7
02549093,GUAJUVIRA,65,ARAUCÁRIA,PARANÁ,ANA,-25.5992,-49.51,1990-06-18,2017-09-30,28,4.3,24,14.3
02549100,ALMIRANTE TAMANDARE,65,ALMIRANTE TAMANDARÉ,PARANÁ,AGUASPARANÁ,-25.3167,-49.3,1997-11-01,2017-09-30,21,7.1,17,19.0
02549108,SANEPAR - CAPIVARI,81,COLOMBO,PARANÁ,AGUASPARANÁ,-25.25,-49.15,1997-07-01,2017-09-30,21,8.7,16,23.8
02550000,PRUDENTÓPOLIS CAPT. SANEPAR,64,PRUDENTÓPOLIS,PARANÁ,ANA,-25.2372,-50.9608,1937-03-01,2017-09-30,81,2.4,70,13.6
02550001,SÃO MATEUS DO SUL,65,SÃO MATEUS DO SUL,PARANÁ,COPEL,-25.8756,-50.3894,1938-02-01,2015-12-31,78,0.3,75,3.8
02550003,SANTA CRUZ,64,PONTA GROSSA,PARANÁ,ANA,-25.1333,-50.15,1945-10-30,2018-06-30,74,0.8,63,14.9
02550005,RIO CLARO DO SUL (EUFROZINA),65,MALLET,PARANÁ,ANA,-25.9522,-50.6792,1948-05-01,2017-09-30,70,1.4,67,4.3
02550016,UHE MAUÁ UVAIA MONTANTE,64,PONTA GROSSA,PARANÁ,CONS.CECS,-25.0756,-50.3889,1974-01-09,2017-06-30,44,8.3,33,25.0
02550017,PONTILHÃO FERRARIA,65,SÃO MATEUS DO SUL,PARANÁ,AGUASPARANÁ,-25.95,-50.5667,1974-02-10,2017-09-30,44,5.4,34,22.7
02550025,TEIXEIRA SOARES (EST. EXPER.),64,TEIXEIRA SOARES,PARANÁ,IAPAR,-25.45,-50.5833,1963-01-01,2017-05-31,55,0.0,54,1.8
02550028,PEDRA LISA,65,LAPA,PARANÁ,AGUASPARANÁ,-25.6972,-50.0131,1975-02-14,2017-09-30,43,3.5,37,14.0
02550029,GONÇALVES JUNIOR,65,IRATI,PARANÁ,AGUASPARANÁ,-25.4667,-50.7833,1975-09-07,2017-09-30,43,3.2,39,9.3
02550035,TURVO,65,REBOUÇAS,PARANÁ,AGUASPARANÁ,-25.7,-50.5167,1975-09-08,2017-09-30,43,3.5,37,14.0
02550037,GUAIACA,65,SÃO JOÃO DO TRIUNFO,PARANÁ,AGUASPARANÁ,-25.6219,-50.2003,1975-09-08,2017-09-30,43,3.2,38,11.6
02550038,REBOUÇAS,65,REBOUÇAS,PARANÁ,AGUASPARANÁ,-25.6167,-50.7,1975-03-03,2017-09-30,43,4.4,38,11.6
02550041,VIEIRAS,64,PALMEIRA,PARANÁ,AGUASPARANÁ,-25.475,-50.2981,1975-09-12,2017-09-30,43,3.2,39,9.3
02550042,MANDACAIA,64,PALMEIRA,PARANÁ,AGUASPARANÁ,-25.4953,-50.0764,1975-09-12,2017-09-30,43,3.2,39,9.3
02550043,APIABA,64,IMBITUVA,PARANÁ,AGUASPARANÁ,-25.3333,-50.7667,1975-09-13,2017-09-30,43,3.6,35,18.6
02550045,TEIXEIRA SOARES,64,TEIXEIRA SOARES,PARANÁ,AGUASPARANÁ,-25.3667,-50.4667,1975-09-12,2017-09-30,43,3.2,39,9.3
02550048,IMBITUVA,64,IMBITUVA,PARANÁ,AGUASPARANÁ,-25.2375,-50.6006,1975-09-11,2017-09-30,43,3.2,38,11.6
02550052,BOM JARDIM DO SUL,64,IVAÍ,PARANÁ,AGUASPARANÁ,-25.0333,-50.7833,1975-10-01,2017-09-30,43,3.4,38,11.6
02550053,ITAPARA,64,IRATI,PARANÁ,AGUASPARANÁ,-25.4667,-50.9833,1975-09-13,2017-09-30,43,4.0,33,23.3
02550055,SALTINHO,64,PRUDENTÓPOLIS,PARANÁ,AGUASPARANÁ,-25.15,-50.9833,1975-09-16,2017-09-30,43,3.2,39,9.3
02550056,IVAí,64,IVAÍ,PARANÁ,AGUASPARANÁ,-25.0167,-50.85,1975-09-21,2017-09-30,43,3.2,38,11.6
02550057,GUAMIRANGA,64,GUARAPUAVA,PARANÁ,AGUASPARANÁ,-25.2,-50.8,1975-09-12,2017-09-30,43,3.8,37,14.0
02551000,GUARAPUAVA,65,GUARAPUAVA,PARANÁ,ANA,-25.35,-51.4833,1953-03-01,2017-09-30,65,1.9,57,12.3
02551001,LEONÓPOLIS,65,INÁCIO MARTINS,PARANÁ,ANA,-25.6942,-51.2025,1957-06-11,2017-08-31,61,4.6,52,14.8
02551008,COLÔNIA VITÓRIA,65,GUARAPUAVA,PARANÁ,AGUASPARANÁ,-25.5325,-51.4414,1964-07-18,2017-09-30,54,4.6,44,18.5
02551011,COLÔNIA DALEGRAVE,65,INÁCIO MARTINS,PARANÁ,AGUASPARANÁ,-25.6297,-51.0878,1975-09-07,2017-09-30,43,3.4,38,11.6
02551014,INÁCIO MARTINS,65,INÁCIO MARTINS,PARANÁ,AGUASPARANÁ,-25.5667,-51.0667,1975-09-07,2017-09-30,43,4.9,37,14.0
02551017,SANTANA,65,CRUZ MACHADO,PARANÁ,AGUASPARANÁ,-25.9439,-51.2622,1975-09-04,2017-09-30,43,3.2,39,9.3
02551019,SANTA CRUZ,65,PINHÃO,PARANÁ,AGUASPARANÁ,-25.85,-51.7667,1975-09-03,2015-12-31,41,2.1,34,17.1
02551023,FAZENDA ZANIOLO,65,CRUZ MACHADO,PARANÁ,AGUASPARANÁ,-25.8167,-51.1,1975-09-05,2017-09-30,43,3.8,36,16.3
02551024,PINHÃO,65,PINHÃO,PARANÁ,ANA,-25.65,-51.6667,1975-09-01,2017-09-30,43,2.4,40,7.0
02551026,CAMPINA BONITA,65,INÁCIO MARTINS,PARANÁ,AGUASPARANÁ,-25.5667,-51.25,1975-09-07,2017-09-30,43,4.5,36,16.3
02551033,PALMEIRINHA,65,GUARAPUAVA,PARANÁ,ANA,-25.25,-51.55,1976-01-23,2017-09-30,42,4.4,35,16.7
02551034,INVERNADINHA,65,GUARAPUAVA,PARANÁ,AGUASPARANÁ,-25.3,-51.4333,1976-01-23,2017-09-30,42,4.2,34,19.0
02551035,CAMPO DE DENTRO,65,GUARAPUAVA,PARANÁ,AGUASPARANÁ,-25.2667,-51.25,1975-08-26,2017-09-30,43,2.0,37,14.0
02551037,PEDRO LUSTOSA,65,RESERVA DO IGUAÇU,PARANÁ,AGUASPARANÁ,-25.8,-51.85,1976-01-25,2017-06-30,42,4.8,33,21.4
02551038,TIJUCO PRETO,64,PRUDENTÓPOLIS,PARANÁ,AGUASPARANÁ,-25.3797,-51.0828,1975-09-13,2017-09-30,43,3.2,38,11.6
02551039,RELÓGIO,64,PRUDENTÓPOLIS,PARANÁ,AGUASPARANÁ,-25.2833,-51.1,1975-09-20,2017-09-30,43,4.9,36,16.3
02551043,VILA ESPERANÇA,64,PRUDENTÓPOLIS,PARANÁ,AGUASPARANÁ,-25.15,-51.0667,1975-09-16,2017-09-30,43,4.2,36,16.3
02551047,US. SANTA MARIA - SALTO CURUCACA,65,CANDÓI,PARANÁ,ANA,-25.5333,-51.8167,1986-05-01,2017-09-30,32,4.0,26,18.8
02552000,QUEDAS DO IGUAÇU (CAMPO NOVO),65,QUEDAS DO IGUAÇU,PARANÁ,ANA,-25.4483,-52.9044,1949-08-01,2017-09-30,69,1.6,64,7.2
02552001,ÁGUAS DO VERE CONVENCIONAL,65,SÃO JORGE DO IVAÍ,PARANÁ,COPEL,-25.7739,-52.9328,1956-07-18,2015-12-31,60,0.4,56,6.7
02552006,GUARANIAÇU,64,GUARANIAÇÚ,PARANÁ,AGUASPARANÁ,-25.0833,-52.8833,1964-10-21,2017-09-30,54,2.7,49,9.3
02552008,MARQUINHO,64,MARQUINHO,PARANÁ,AGUASPARANÁ,-25.1,-52.2667,1967-04-06,2017-09-30,51,2.7,46,9.8
02552010,NOVA LARANJEIRAS,65,NOVA LARANJEIRAS,PARANÁ,AGUASPARANÁ,-25.3,-52.5333,1975-07-14,2017-09-30,43,3.2,39,9.3
02552019,CAMPO VERDE (FAXINAL DOS ÍNDIOS),64,LARANJEIRAS DO SUL,PARANÁ,AGUASPARANÁ,-25.2225,-52.4311,1975-03-07,2017-09-30,43,3.9,37,14.0
02552022,RESERVA DO IGUAÇU,65,RESERVA DO IGUAÇU,PARANÁ,AGUASPARANÁ,-25.8,-52.0167,1976-01-25,2017-09-30,42,3.2,38,9.5
02552023,CACHOEIRA,65,CANDÓI,PARANÁ,AGUASPARANÁ,-25.6978,-52.1967,1976-01-26,2017-09-30,42,3.4,36,14.3
02552025,PASSO  GRANDE,65,CANDÓI,PARANÁ,AGUASPARANÁ,-25.5511,-52.1069,1976-01-24,2017-09-30,42,4.0,36,14.3
02552026,GOIOXIM,65,GOIOXIM,PARANÁ,AGUASPARANÁ,-25.1997,-51.9908,1976-01-24,2017-09-30,42,3.2,37,11.9
02552030,UHE SALTO SANTIAGO CHOPINZINHO PLU,65,CHOPINZINHO,PARANÁ,ENGIE,-25.86,-52.5269,1976-01-26,2017-09-30,42,2.4,38,9.5
02552033,SÃO LUIZ DO OESTE,65,CHOPINZINHO,PARANÁ,AGUASPARANÁ,-25.7275,-52.5028,1976-01-25,2017-09-30,42,3.8,34,19.0
02552034,BAIA,65,CHOPINZINHO,PARANÁ,AGUASPARANÁ,-25.7167,-52.3833,1976-01-26,2017-09-30,42,3.4,37,11.9
02552036,RIO BONITO DO IGUAÇU,65,RIO BONITO DO IGUAÇ,PARANÁ,AGUASPARANÁ,-25.4897,-52.5322,1976-01-28,2017-09-30,42,3.4,37,11.9
02552037,PORTO BARREIRO,65,PORTO BARREIRO,PARANÁ,AGUASPARANÁ,-25.5167,-52.4,1976-01-29,2017-09-30,42,2.2,33,21.4
02552038,ESPIGÃO ALTO DO IGUAÇU,65,ESPIGÃO ALTO DO IGU,PARANÁ,AGUASPARANÁ,-25.4222,-52.8367,1976-01-29,2017-09-30,42,4.2,35,16.7
02552039,SÃO ROQUE,65,ESPIGÃO ALTO DO IGU,PARANÁ,AGUASPARANÁ,-25.3856,-52.77,1976-01-30,2017-08-31,42,3.2,38,9.5
02552040,VIRMOND,65,VIRMOND,PARANÁ,AGUASPARANÁ,-25.3806,-52.2006,1976-01-28,2017-09-30,42,4.1,36,14.3
02552041,CANTAGALO,65,CANTAGALO,PARANÁ,ANA,-25.3667,-52.1167,1976-01-28,2017-09-30,42,2.4,39,7.1
02552042,ITAPEJARA DO OESTE,65,ITAPEJARA D'OESTE,PARANÁ,AGUASPARANÁ,-25.9406,-52.825,1976-01-27,2017-09-30,42,4.0,35,16.7
02552043,VISTA ALEGRE,65,CORONEL VIVIDA,PARANÁ,AGUASPARANÁ,-25.9339,-52.7111,1976-01-27,2017-09-30,42,4.1,33,21.4
02552045,IOLÓPOLIS,65,SÃO JORGE D'OESTE,PARANÁ,AGUASPARANÁ,-25.7167,-52.9167,1976-01-27,2017-09-30,42,3.2,38,9.5
02552046,LINHA MIRIM,65,QUEDAS DO IGUAÇU,PARANÁ,AGUASPARANÁ,-25.3928,-52.9644,1976-01-29,2017-09-30,42,3.5,36,14.3
02552047,VILA GUARANI,65,NOVA LARANJEIRAS,PARANÁ,AGUASPARANÁ,-25.2114,-52.6517,1976-01-29,2017-09-30,42,3.6,36,14.3
02553004,CRUZEIRO DO IGUAÇU I,65,CRUZEIRO DO IGUAÇU,PARANÁ,AGUASPARANÁ,-25.5667,-53.1333,1963-05-01,2017-09-30,55,3.2,47,14.5
02553009,CÉU AZUL,64,CÉU AZUL,PARANÁ,AGUASPARANÁ,-25.1331,-53.85,1965-08-10,2017-09-30,53,2.6,46,13.2
02553012,AMPERE,65,AMPÉRE,PARANÁ,AGUASPARANÁ,-25.9167,-53.4833,1966-04-28,2017-09-30,52,2.9,45,13.5
02553014,PORTO MOISES LUPION,65,SERRANÓPOLIS DO IGU,PARANÁ,AGUASPARANÁ,-25.5831,-53.9831,1974-01-09,2017-09-30,44,3.7,36,18.2
02553015,PLANALTO,65,PLANALTO,PARANÁ,IAPAR,-25.7,-53.7667,1973-03-01,2015-12-31,43,2.2,41,4.7
02553019,IBEMA,65,IBEMA,PARANÁ,AGUASPARANÁ,-25.1,-53.0667,1976-01-29,2017-09-30,42,3.2,38,9.5
02553020,FLORIANO,65,MATELÂNDIA,PARANÁ,AGUASPARANÁ,-25.3064,-53.8731,1975-03-04,2017-08-31,43,4.1,37,14.0
02553022,VERA CRUZ DO OESTE,64,VERA CRUZ DO OESTE,PARANÁ,AGUASPARANÁ,-25.0661,-53.8822,1975-02-28,2017-09-30,43,3.2,38,11.6
02553024,CAPITÃO LEONIDAS MARQUES,65,CAPITÃO LEÔNIDAS MA,PARANÁ,ANA,-25.4833,-53.6167,1975-07-20,2017-09-30,43,3.4,38,11.6
02553026,FLOR DA SERRA,65,BOA VISTA DA APAREC,PARANÁ,AGUASPARANÁ,-25.3944,-53.3847,1975-07-20,2017-09-30,43,3.4,38,11.6
02553028,SANTA LÚCIA,65,SANTA LÚCIA,PARANÁ,AGUASPARANÁ,-25.4,-53.5667,1975-07-19,2017-09-30,43,3.6,38,11.6
02553029,LINHA SANTA CATARINA,65,SANTA LÚCIA,PARANÁ,AGUASPARANÁ,-25.35,-53.55,1975-07-19,2017-09-30,43,4.5,35,18.6
02553030,TRÊS BARRAS DO PARANÁ,65,TRÊS BARRAS DO PARA,PARANÁ,AGUASPARANÁ,-25.4167,-53.1833,1975-07-23,2017-09-30,43,3.4,37,14.0
02553033,BOI PRETO,65,SANTA TEREZA DO OES,PARANÁ,AGUASPARANÁ,-25.15,-53.6167,1975-07-20,2015-12-31,41,1.5,35,14.6
02553035,RIO DO SALTO,65,CASCAVEL,PARANÁ,AGUASPARANÁ,-25.1331,-53.3167,1975-07-21,2017-09-30,43,3.8,36,16.3
02553036,NOVA ESPERANÇA,65,PRANCHITA,PARANÁ,AGUASPARANÁ,-25.95,-53.8333,1976-02-18,2017-09-30,42,4.4,35,16.7
02553037,TRÊS IRMÃOS,65,BELA VISTA DA CAROB,PARANÁ,AGUASPARANÁ,-25.95,-53.6167,1976-02-21,2017-09-30,42,3.7,35,16.7
02553038,SÃO VALÉRIO,65,PLANALTO,PARANÁ,AGUASPARANÁ,-25.7697,-53.6644,1976-02-21,2017-09-30,42,3.2,37,11.9
02553039,SAGRADA FAMÍLIA,65,PLANALTO,PARANÁ,AGUASPARANÁ,-25.6667,-53.6833,1976-02-20,2017-09-30,42,1.9,36,14.3
02553041,TORRA ALTA,65,CATANDUVAS,PARANÁ,AGUASPARANÁ,-25.2167,-53.05,1976-01-30,2017-09-30,42,3.2,38,9.5
02553044,ENÉAS MARQUES,65,ENÉAS MARQUES,PARANÁ,AGUASPARANÁ,-25.9331,-53.1697,1976-02-20,2017-09-30,42,4.1,35,16.7
02553046,PINHALZINHO,65,ENÉAS MARQUES,PARANÁ,AGUASPARANÁ,-25.8875,-53.0825,1976-02-19,2017-08-31,42,3.5,37,11.9
02553052,PCH ARTURO ANDREOLI FLOR DA SERRA,65,DOIS VIZINHOS,PARANÁ,FOZ DO CHOPIM,-25.6822,-52.9844,1977-02-15,2017-06-30,41,5.9,31,24.4
02554002,SALTO CATARATAS,65,FOZ DO IGUAÇU,PARANÁ,AGUASPARANÁ,-25.6831,-54.4331,1949-08-01,2017-09-30,69,1.4,60,13.0
02554005,MATELÂNDIA,64,MATELÂNDIA,PARANÁ,AGUASPARANÁ,-25.24,-53.9753,1965-08-10,2017-08-31,53,2.6,46,13.2
02554006,SÃO MIGUEL DO IGUAÇU,65,SÃO MIGUEL DO IGUAÇ,PARANÁ,AGUASPARANÁ,-25.3458,-54.2442,1962-08-01,2017-09-30,56,3.6,47,16.1
02554012,SANTA TEREZINHA DE ITAIPU,65,SANTA TEREZINHA DE ,PARANÁ,AGUASPARANÁ,-25.4408,-54.4031,1975-03-03,2017-09-30,43,3.4,39,9.3
02554013,SANTA ELIZA,65,SÃO MIGUEL DO IGUAÇ,PARANÁ,AGUASPARANÁ,-25.45,-54.3167,1975-03-01,2017-09-30,43,4.7,36,16.3
02554018,JARDINÓPOLIS,65,SERRANÓPOLIS DO IGU,PARANÁ,AGUASPARANÁ,-25.4133,-54.0372,1975-02-27,2017-09-30,43,3.2,38,11.6
02554020,MISSAL,64,MISSAL,PARANÁ,AGUASPARANÁ,-25.0872,-54.2481,1975-02-28,2017-09-30,43,3.1,39,9.3
02554023,FAZENDA RAMI,64,RAMILÂNDIA,PARANÁ,AGUASPARANÁ,-25.0453,-54.0556,1975-02-28,2017-09-30,43,4.4,36,16.3
02554025,ITACORA (ESQUINA GAUCHA),64,ITAIPULÂNDIA,PARANÁ,AGUASPARANÁ,-25.1094,-54.3997,1975-03-02,2017-09-30,43,5.0,36,16.3
02554030,CACIC,65,FOZ DO IGUAÇU,PARANÁ,AGUASPARANÁ,-25.3069,-54.4125,1995-08-01,2017-09-30,23,1.9,19,17.4
02648002,LUIZ ALVES,83,LUIZ ALVES,SANTA CATARINA,ANA,-26.7242,-48.9317,1941-01-01,2019-08-31,79,7.3,64,19.0
02649002,POMERODE,83,POMERODE,SANTA CATARINA,ANA,-26.7367,-49.1703,1929-06-01,2019-10-31,91,0.1,78,14.3
02649004,TIMBÓ NOVO,83,TIMBÓ,SANTA CATARINA,ANA,-26.8297,-49.2719,1929-01-01,2019-09-30,91,0.8,82,9.9
02649005,INDAIAL,83,INDAIAL,SANTA CATARINA,ANA,-26.9136,-49.2675,1941-01-01,2015-12-31,75,9.0,58,22.7
02649006,RIO NEGRO,65,RIO NEGRO,PARANÁ,COPEL,-26.1,-49.8,1922-12-01,2015-12-31,94,0.1,91,3.2
02649007,BLUMENAU  (PCD),83,BLUMENAU,SANTA CATARINA,ANA,-26.9181,-49.0653,1944-03-28,2019-10-31,76,4.1,63,17.1
02649008,ARROZEIRA,83,RIO DOS CEDROS,SANTA CATARINA,ANA,-26.7408,-49.2706,1941-01-01,2019-10-31,79,0.8,68,13.9
02649009,GARCIA,83,BLUMENAU,SANTA CATARINA,ANA,-26.9683,-49.0742,1941-01-01,2019-10-31,79,9.7,64,19.0
02649010,ITOUPAVA CENTRAL,83,BLUMENAU,SANTA CATARINA,ANA,-26.7967,-49.0836,1941-01-01,2019-10-31,79,3.4,71,10.1
02649013,CORUPÁ,82,CORUPÁ,SANTA CATARINA,ANA,-26.4239,-49.2925,1945-10-14,2019-08-31,75,1.5,61,18.7
02649017,DOUTOR PEDRINHO,83,DOUTOR PEDRINHO,SANTA CATARINA,ANA,-26.7172,-49.4831,1953-12-14,2019-09-30,67,2.8,56,16.4
02649018,FRAGOSOS,65,PIÊN,PARANÁ,COPEL,-26.1547,-49.3806,1967-05-13,2015-08-31,49,0.2,45,8.2
02649021,RIO NEGRO,65,RIO NEGRO,PARANÁ,ANA,-26.1,-49.8,1925-01-01,2017-09-30,93,7.5,73,21.5
02649054,MOEMA,65,ITAIÓPOLIS,SANTA CATARINA,ANA,-26.5306,-49.8436,1976-07-01,2017-07-31,42,5.4,33,21.4
02649057,CAMPO ALEGRE,65,CAMPO ALEGRE,SANTA CATARINA,ANA,-26.1864,-49.2733,1976-07-09,2018-06-30,43,0.4,39,9.3
02650006,FLUVIÓPOLIS,65,SÃO MATEUS DO SUL,PARANÁ,COPEL,-26.0192,-50.5925,1965-10-13,2015-12-31,51,1.0,47,7.8
02650015,RESIDENCIA FUCK (LAJEADINHO),65,MONTE CASTELO,SANTA CATARINA,ANA,-26.7103,-50.2908,1976-07-18,2017-09-30,42,5.1,32,23.8
02650018,PINHEIROS,65,CANOINHAS,SANTA CATARINA,ANA,-26.3514,-50.6456,1976-07-15,2017-09-30,42,3.1,35,16.7
02650024,FOZ DO CACHOEIRA,65,TIMBÓ GRANDE,SANTA CATARINA,COPEL,-26.5875,-50.7283,1986-05-23,2015-12-31,30,1.3,24,20.0
02651000,UNIÃO DA VITÓRIA,65,UNIÃO DA VITÓRIA,PARANÁ,COPEL,-26.2281,-51.0803,1938-02-01,2015-12-31,78,0.2,74,5.1
02651001,CAMPINA DA ALEGRIA,73,VARGEM BONITA,SANTA CATARINA,ANA,-26.8733,-51.7964,1943-04-11,2019-10-31,77,1.4,66,14.3
02651003,JANGADA DO SUL - 396,65,GENERAL CARNEIRO,PARANÁ,COPEL,-26.3867,-51.2719,1945-11-24,2015-12-31,71,2.0,64,9.9
02651004,PORTO VITÓRIA (rio espingarda),65,PORTO VITÓRIA,PARANÁ,ANA,-26.1667,-51.2167,1945-11-20,2017-09-30,73,4.9,61,16.4
02651005,PALMITAL DO MEIO,65,UNIÃO DA VITÓRIA,PARANÁ,COPEL,-26.0306,-51.1419,1945-11-01,2015-12-31,71,0.7,66,7.0
02651010,SERRARIA SÃO SEBASTIÃO - INDUBRAS,65,GENERAL CARNEIRO,PARANÁ,AGUASPARANÁ,-26.6331,-51.3331,1976-02-13,2017-09-30,42,4.6,34,19.0
02651013,COLÔNIA AUGUSTO LOUREIRO,65,BITURUNA,PARANÁ,AGUASPARANÁ,-26.1906,-51.2978,1955-09-03,2017-09-30,63,2.9,55,12.7
02651016,SALTO DO VAU,65,UNIÃO DA VITÓRIA,PARANÁ,AGUASPARANÁ,-26.05,-51.2,1960-04-30,2017-09-30,58,2.8,49,15.5
02651020,SANTO ANTÔNIO DO IRATIM,65,BITURUNA,PARANÁ,AGUASPARANÁ,-26.15,-51.4,1975-08-31,2017-09-30,43,3.2,38,11.6
02651023,LINHA SANTA MARIA,65,BITURUNA,PARANÁ,AGUASPARANÁ,-26.1167,-51.5667,1975-09-01,2017-09-30,43,3.5,37,14.0
02651026,IRATIM,65,GENERAL CARNEIRO,PARANÁ,AGUASPARANÁ,-26.4797,-51.4281,1976-02-13,2017-09-30,42,5.4,32,23.8
02651029,SÃO PEDRO - CODEGA,65,PALMAS,PARANÁ,AGUASPARANÁ,-26.4333,-51.5667,1976-02-14,2017-09-30,42,3.9,35,16.7
02651031,UBALDINO TAQUES,65,PALMAS,PARANÁ,ANA,-26.2667,-51.9,1976-02-14,2017-09-30,42,2.8,38,9.5
02651035,FAZENDA SANTA TEREZA,65,PALMAS,PARANÁ,AGUASPARANÁ,-26.3667,-51.8667,1976-02-14,2015-12-31,40,4.8,32,20.0
02651036,QUILOMETRO 30,72,MACIEIRA,SANTA CATARINA,ANA,-26.7758,-51.2628,1976-04-24,2019-10-31,44,2.2,33,25.0
02651040,PONTE SERRADA,73,PONTE SERRADA,SANTA CATARINA,ANA,-26.9056,-51.9717,1976-09-28,2019-10-31,44,2.4,35,20.5
02651043,PALMAS,65,PALMAS,PARANÁ,ANA,-26.4833,-51.9833,1979-01-01,2017-05-31,39,0.0,38,2.6
02652000,ABELARDO LUZ,73,ABELARDO LUZ,SANTA CATARINA,ANA,-26.5561,-52.3308,1957-10-04,2019-10-31,63,1.0,57,9.5
02652001,BONITO,73,IPUMIRIM,SANTA CATARINA,ANA,-26.9508,-52.1817,1969-08-20,2019-10-31,51,2.2,42,17.6
02652002,MARATA,73,SÃO DOMINGOS,SANTA CATARINA,ANA,-26.5836,-52.6403,1972-03-01,2019-10-31,48,1.8,39,18.8
02652009,PONTE DO VITORINO,65,BOM SUCESSO DO SUL,PARANÁ,ANA,-26.0506,-52.8008,1957-05-07,2017-07-31,61,1.8,57,6.6
02652010,PALMAS,65,PALMAS,PARANÁ,AGUASPARANÁ,-26.4833,-52.0,1964-08-19,2017-09-30,54,2.8,48,11.1
02652011,MARIÓPOLIS,65,MARIÓPOLIS,PARANÁ,AGUASPARANÁ,-26.35,-52.5667,1964-08-20,2017-09-30,54,2.5,49,9.3
02652013,PATO BRANCO,65,PATO BRANCO,PARANÁ,AGUASPARANÁ,-26.2333,-52.6833,1964-08-20,2017-09-30,54,3.5,47,13.0
02652015,SALTO CLAUDELINO,65,CLEVELÂNDIA,PARANÁ,ANA,-26.2781,-52.2961,1965-03-11,2017-09-30,53,3.8,45,15.1
02652021,JARDINÓPOLIS,73,SUL BRASIL,SANTA CATARINA,ANA,-26.7369,-52.9017,1976-03-18,2019-10-31,44,1.7,36,18.2
02652023,USINA CHOPIM,65,PALMAS,PARANÁ,AGUASPARANÁ,-26.3833,-52.0,1976-02-16,2017-09-30,42,5.4,33,21.4
02652025,SÃO CARVAJO,65,VITORINO,PARANÁ,AGUASPARANÁ,-26.3167,-52.7167,1976-02-17,2017-09-30,42,3.4,37,11.9
02652027,CACHOEIRA - GENEROSO,65,MANGUEIRINHA,PARANÁ,AGUASPARANÁ,-26.1272,-52.1839,1976-02-15,2017-09-30,42,3.6,35,16.7
02652031,SÃO LOURENÇO DO OESTE,73,SÃO LOURENÇO DO OES,SANTA CATARINA,ANA,-26.4003,-52.8956,1976-09-24,2019-10-31,44,2.8,38,13.6
02652032,GRAMADOS,65,CORONEL VIVIDA,PARANÁ,AGUASPARANÁ,-26.0833,-52.5167,1976-01-26,2017-09-30,42,3.8,36,14.3
02652033,PASSO DA ILHA,65,PATO BRANCO,PARANÁ,AGUASPARANÁ,-26.2311,-52.5967,1976-02-17,2017-09-30,42,3.2,38,9.5
02652035,PATO BRANCO,65,PATO BRANCO,PARANÁ,IAPAR,-26.1167,-52.6833,1979-01-01,2016-12-31,38,0.0,38,0.0
02653004,PONTE DO SARGENTO,74,ROMELÂNDIA,SANTA CATARINA,ANA,-26.6828,-53.2867,1969-11-22,2019-10-31,51,1.6,45,11.8
02653007,SAUDADES,73,SAUDADES,SANTA CATARINA,ANA,-26.9283,-53.0075,1954-07-01,2019-10-31,66,0.9,59,10.6
02653012,FRANCISCO BELTRÃO,65,FRANCISCO BELTRÃO,PARANÁ,ANA,-26.0833,-53.0667,1973-05-01,2017-05-31,45,0.6,42,6.7
02653014,MARCIANÓPOLIS,65,SANTO ANTÔNIO DO SU,PARANÁ,AGUASPARANÁ,-26.1167,-53.65,1976-02-18,2017-09-30,42,3.2,38,9.5
02653015,LINHA GAUCHA,65,FRANCISCO BELTRÃO,PARANÁ,AGUASPARANÁ,-26.0833,-53.2,1976-02-19,2015-05-31,40,2.5,34,15.0
02653016,SÃO SEBASTIÃO DA BELA VISTA,65,SALGADO FILHO,PARANÁ,AGUASPARANÁ,-26.0644,-53.3622,1976-02-18,2017-09-30,42,3.5,35,16.7
02653017,GUABIJU,65,SALGADO FILHO,PARANÁ,AGUASPARANÁ,-26.1122,-53.4633,1976-02-18,2017-09-30,42,3.4,37,11.9
02653019,RIO VERDE,65,FLOR DA SERRA DO SU,PARANÁ,AGUASPARANÁ,-26.2333,-53.2,1976-02-18,2017-09-30,42,3.2,38,9.5
02653020,SALGADO FILHO,65,SALGADO FILHO,PARANÁ,AGUASPARANÁ,-26.1833,-53.3833,1976-02-18,2017-07-31,42,4.6,35,16.7
02653021,SIQUEIRA BELO,65,BARRACÃO,PARANÁ,AGUASPARANÁ,-26.2167,-53.4833,1976-02-18,2017-08-31,42,3.2,38,9.5
02653022,FAXINAL DO CAMPO ERE,65,MARMELEIRO,PARANÁ,AGUASPARANÁ,-26.3781,-53.0447,1976-02-17,2017-09-30,42,4.4,38,9.5
02653023,RINCÃO DO CAPETINGA,74,FLOR DA SERRA DO SU,PARANÁ,AGUASPARANÁ,-26.3186,-53.1831,1976-02-19,2017-09-30,42,3.6,36,14.3
02653024,PONTE MARMELEIRO MTE. ETA,65,MARMELEIRO,PARANÁ,ANA,-26.1525,-53.0183,1977-02-13,2017-04-30,41,2.7,37,9.8
02748001,MAJOR GERCINO,84,MAJOR GERCINO,SANTA CATARINA,ANA,-27.4158,-48.9511,1945-10-19,2019-09-30,75,0.9,64,14.7
02748003,GARCIA DE ANGELINA,84,ANGELINA,SANTA CATARINA,ANA,-27.4858,-48.9869,1945-10-20,2019-10-31,75,0.1,71,5.3
02748016,ANTONIO CARLOS,84,ANTÔNIO CARLOS,SANTA CATARINA,ANA,-27.5169,-48.7694,1976-04-08,2019-10-31,44,1.6,33,25.0
02749000,APIUNA - RÉGUA NOVA,83,APIÚNA,SANTA CATARINA,ANA,-27.0381,-49.395,1941-01-01,2019-09-30,79,0.1,77,2.5
02749001,IBIRAMA,83,IBIRAMA,SANTA CATARINA,ANA,-27.0539,-49.5167,1934-01-01,2019-07-31,86,0.7,78,9.3
02749002,ITUPORANGA,83,ITUPORANGA,SANTA CATARINA,ANA,-27.3986,-49.6058,1941-01-01,2019-08-31,79,1.5,70,11.4
02749003,TAIÓ,83,TAIÓ,SANTA CATARINA,ANA,-27.1131,-49.9944,1929-04-19,2019-08-31,91,2.3,77,15.4
02749005,NOVA BREMEN DALBERGIA,83,IBIRAMA,SANTA CATARINA,ANA,-27.0342,-49.5897,1941-01-01,2019-09-30,79,0.7,63,20.3
02749006,POUSO REDONDO,83,POUSO REDONDO,SANTA CATARINA,ANA,-27.2572,-49.9408,1941-01-01,2019-08-31,79,0.1,71,10.1
02749007,LOMBA ALTA,83,ALFREDO WAGNER,SANTA CATARINA,ANA,-27.7306,-49.3828,1941-01-01,2019-08-31,79,1.3,73,7.6
02749012,DIVISA DE ANITAPOLIS,84,ANITÁPOLIS,SANTA CATARINA,ANA,-27.9956,-49.1156,1945-11-18,2019-10-31,75,0.2,67,10.7
02749013,TROMBUDO CENTRAL,83,TROMBUDO CENTRAL,SANTA CATARINA,ANA,-27.2903,-49.7689,1945-11-24,2019-08-31,75,0.0,70,6.7
02749015,FAZENDA BOA ESPERANCA,84,MAJOR GERCINO,SANTA CATARINA,ANA,-27.3978,-48.9803,1955-11-16,2019-10-31,65,1.9,51,21.5
02749016,NEISSE CENTRAL,83,APIÚNA,SANTA CATARINA,ANA,-27.0403,-49.3814,1956-04-07,2019-09-30,64,1.3,52,18.8
02749017,BARRAGEM SUL,83,ITUPORANGA,SANTA CATARINA,ANA,-27.5019,-49.5531,1970-07-16,2019-08-31,50,0.9,45,10.0
02749027,ANITAPOLIS,84,ANITÁPOLIS,SANTA CATARINA,ANA,-27.9097,-49.1297,1972-06-28,2019-10-31,48,1.6,38,20.8
02749031,VILA CANOAS,71,BOCAINA DO SUL,SANTA CATARINA,ANA,-27.8042,-49.78,1957-06-14,2019-10-31,63,4.6,49,22.2
02749037,SALTINHO,83,ALFREDO WAGNER,SANTA CATARINA,ANA,-27.6833,-49.3653,1976-06-01,2019-08-31,44,2.8,34,22.7
02749045,BOTUVERA-MONTANTE,83,BOTUVERÁ,SANTA CATARINA,ANA,-27.1967,-49.0872,1986-08-24,2019-10-31,34,0.1,29,14.7
02750007,PAINEL,71,PAINEL,SANTA CATARINA,ANA,-27.9131,-50.0317,1958-05-30,2019-10-31,62,1.4,49,21.0
02750009,PASSO MAROMBAS,71,CURITIBANOS,SANTA CATARINA,ANA,-27.3339,-50.7533,1958-06-20,2019-10-31,62,1.2,51,17.7
02750010,PONTE ALTA DO NORTE,71,PONTE ALTA DO NORTE,SANTA CATARINA,ANA,-27.1611,-50.4689,1959-10-01,2019-10-31,61,1.5,46,24.6
02750012,PONTE DO RIO ANTINHAS,71,SÃO CRISTOVÃO DO SU,SANTA CATARINA,ANA,-27.3453,-50.4358,1961-08-22,2019-09-30,59,2.8,46,22.0
02750021,CABECEIRA RIBEIRÃO CAETANO,83,MIRIM DOCE,SANTA CATARINA,ANA,-27.1411,-50.2644,1984-04-16,2019-08-31,36,0.5,28,22.2
02751004,JOAÇABA,72,JOAÇABA,SANTA CATARINA,ANA,-27.1717,-51.5003,1943-04-01,2019-10-31,77,10.0,58,24.7
02751006,PAIM FILHO,72,PAIM FILHO,RIO GRANDE DO SUL,ANA,-27.7125,-51.7378,1957-10-17,2019-10-31,63,1.4,57,9.5
02751007,SANANDUVA,72,SANANDUVA,RIO GRANDE DO SUL,ANA,-27.9828,-51.7836,1957-07-03,2019-10-31,63,1.5,55,12.7
02751012,CAPINZAL,72,CAPINZAL,SANTA CATARINA,ANA,-27.3422,-51.6083,1976-04-27,2019-10-31,44,1.8,34,22.7
02752006,EREBANGO,73,EREBANGO,RIO GRANDE DO SUL,ANA,-27.8542,-52.3047,1943-04-07,2019-10-31,77,2.0,64,16.9
02752017,ITATIBA DO SUL,73,ITATIBA DO SUL,RIO GRANDE DO SUL,ANA,-27.3889,-52.4544,1976-05-20,2019-10-31,44,1.5,38,13.6
02753002,FREDERICO WESTPHALEN,74,FREDERICO WESTPHALE,RIO GRANDE DO SUL,ANA,-27.3608,-53.3975,1961-02-24,2019-10-31,59,5.9,53,10.2
02753004,LINHA CESCON,74,SARANDI,RIO GRANDE DO SUL,ANA,-27.8117,-53.0278,1959-07-01,2019-10-31,61,1.9,53,13.1
02753007,SANTO AUGUSTO,74,SANTO AUGUSTO,RIO GRANDE DO SUL,ANA,-27.8517,-53.7764,1948-01-01,2019-10-31,72,4.5,66,8.3
02753009,TRÊS PASSOS,74,TRÊS PASSOS,RIO GRANDE DO SUL,ANA,-27.4514,-53.925,1961-01-01,2019-09-30,59,5.6,52,11.9
02753013,IPORÃ,74,IPORÃ DO OESTE,SANTA CATARINA,ANA,-27.0014,-53.5256,1976-08-01,2019-10-31,44,1.7,33,25.0
02753014,LIBERATO SALZANO,74,LIBERATO SALZANO,RIO GRANDE DO SUL,ANA,-27.5992,-53.0714,1976-05-22,2019-10-31,44,1.0,37,15.9
02754001,ALTO URUGUAI,74,TIRADENTES DO SUL,RIO GRANDE DO SUL,ANA,-27.3019,-54.1394,1949-06-01,2019-10-31,71,2.0,63,11.3
02754007,TRÊS DE MAIO,74,TRÊS DE MAIO,RIO GRANDE DO SUL,ANA,-27.7817,-54.2408,1960-12-16,2019-10-31,60,6.1,51,15.0
02754009,TUCUNDUVA,74,TUCUNDUVA,RIO GRANDE DO SUL,ANA,-27.6742,-54.4625,1976-07-25,2019-10-31,44,1.2,35,20.5
02754010,ESQUINA ARAUJO,74,INDEPENDÊNCIA,RIO GRANDE DO SUL,ANA,-27.9681,-54.1164,1976-09-22,2019-10-31,44,1.7,35,20.5
02755001,PORTO LUCENA,74,PORTO LUCENA,RIO GRANDE DO SUL,ANA,-27.8544,-55.0236,1949-03-22,2019-10-31,71,4.0,59,16.9
02848006,VARGEM DO CEDRO,84,SÃO MARTINHO,SANTA CATARINA,ANA,-28.1036,-48.9194,1976-03-19,2019-10-31,44,2.7,38,13.6
02849000,RIO DO POUSO,84,TUBARÃO,SANTA CATARINA,ANA,-28.4197,-49.1069,1939-05-26,2019-10-31,81,3.7,62,23.5
02849001,ORLEANS - MONTANTE,84,ORLEANS,SANTA CATARINA,ANA,-28.3589,-49.295,1939-05-01,2019-09-30,81,3.4,63,22.2
02849002,SÃO LUDGERO I,84,SÃO LUDGERO,SANTA CATARINA,ANA,-28.3258,-49.1792,1939-05-28,2019-09-30,81,2.6,62,23.5
02849008,RIO PEQUENO,84,GRÃO PARÁ,SANTA CATARINA,ANA,-28.2094,-49.195,1945-11-09,2019-10-31,75,0.3,68,9.3
02849023,DESPRAIADO,70,BOM JARDIM DA SERRA,SANTA CATARINA,ANA,-28.3692,-49.8078,1976-12-11,2019-09-30,44,1.6,33,25.0
02849031,SANTA ROSA DE LIMA,84,SANTA ROSA DE LIMA,SANTA CATARINA,ANA,-28.0322,-49.1186,1986-12-01,2019-10-31,34,3.3,26,23.5
02850002,CAPELA SÃO JOSÉ DOS AUSENTES,86,SÃO JOSÉ DOS AUSENT,RIO GRANDE DO SUL,ANA,-28.7144,-50.0689,1961-01-16,2019-10-31,59,5.7,53,10.2
02850009,PASSO TAINHAS,86,JAQUIRANA,RIO GRANDE DO SUL,ANA,-28.8675,-50.4561,1943-06-01,2019-10-31,77,1.6,65,15.6
02851003,ANTÔNIO PRADO,86,ANTÔNIO PRADO,RIO GRANDE DO SUL,ANA,-28.8533,-51.2844,1943-05-01,2019-10-31,77,4.0,66,14.3
02851010,FAZENDA ROSEIRA,86,CAMPESTRE DA SERRA,RIO GRANDE DO SUL,ANA,-28.6733,-51.1428,1962-10-27,2019-09-30,58,6.0,51,12.1
02851020,PASSO DAS PEDRAS,72,CASEIROS,RIO GRANDE DO SUL,ANA,-28.2556,-51.8619,1963-01-01,2019-10-31,57,5.9,50,12.3
02851021,PASSO DO PRATA,86,VILA FLORES,RIO GRANDE DO SUL,ANA,-28.8775,-51.4483,1957-11-07,2019-10-31,63,1.0,51,19.0
02851022,PASSO MIGLIAVACA,86,CASCA,RIO GRANDE DO SUL,ANA,-28.6194,-51.8667,1957-10-09,2019-10-31,63,1.1,53,15.9
02851024,PRATA,86,NOVA PRATA,RIO GRANDE DO SUL,ANA,-28.7561,-51.6283,1944-08-27,2019-10-31,76,2.1,65,14.5
02851028,TRINTA E CINCO,86,DAVID CANABARRO,RIO GRANDE DO SUL,ANA,-28.3911,-51.8489,1962-10-30,2019-10-31,58,6.0,52,10.3
02851043,ESMERALDA,70,ESMERALDA,RIO GRANDE DO SUL,ANA,-28.0592,-51.1881,1977-12-12,2019-10-31,43,1.5,33,23.3
02852004,AULER,86,SOLEDADE,RIO GRANDE DO SUL,ANA,-28.8039,-52.3817,1962-12-03,2019-10-31,58,5.6,52,10.3
02852007,COLÔNIA XADREZ,74,COQUEIROS DO SUL,RIO GRANDE DO SUL,ANA,-28.1892,-52.7458,1944-01-01,2019-10-31,76,7.4,60,21.1
02852009,DEPÓSITO,85,ESPUMOSO,RIO GRANDE DO SUL,ANA,-28.9331,-52.8,1963-01-01,2019-10-31,57,5.7,51,10.5
02852014,ILÓPOLIS,86,ILÓPOLIS,RIO GRANDE DO SUL,ANA,-28.9283,-52.1275,1944-08-16,2019-10-31,76,4.3,69,9.2
02852024,PULADOR,85,PASSO FUNDO,RIO GRANDE DO SUL,ANA,-28.2931,-52.555,1962-12-01,2019-10-31,58,5.7,51,12.1
02852031,VILA TRÊS PASSOS,85,MARAU,RIO GRANDE DO SUL,ANA,-28.4808,-52.3667,1959-05-03,2019-10-31,61,5.7,54,11.5
02852046,TAPEJARA,72,TAPEJARA,RIO GRANDE DO SUL,ANA,-28.0575,-51.9961,1976-09-14,2019-10-31,44,1.4,36,18.2
02853003,CONCEIÇÃO,75,IJUÍ,RIO GRANDE DO SUL,ANA,-28.4561,-53.9717,1959-08-22,2019-10-31,61,1.6,49,19.7
02853010,PASSO FAXINAL,75,AJURICABA,RIO GRANDE DO SUL,ANA,-28.2894,-53.7794,1957-10-16,2019-10-31,63,5.1,49,22.2
02853014,SANTA CLARA DO INGAI,85,QUINZE DE NOVEMBRO,RIO GRANDE DO SUL,ANA,-28.7289,-53.1853,1944-09-01,2019-10-31,76,1.2,59,22.4
02853015,TRÊS CAPÕES,85,BOA VISTA DO INCRA,RIO GRANDE DO SUL,ANA,-28.8264,-53.5019,1961-01-01,2019-08-31,59,7.0,52,11.9
02853023,CONDOR,75,CONDOR,RIO GRANDE DO SUL,ANA,-28.2256,-53.4703,1976-08-29,2019-10-31,44,2.7,34,22.7
02854003,GIRUA,74,GIRUÁ,RIO GRANDE DO SUL,ANA,-28.0542,-54.3614,1943-04-23,2019-10-31,77,1.0,69,10.4
02854005,PASSO MAJOR ZEFERINO,75,SÃO MIGUEL DAS MISS,RIO GRANDE DO SUL,ANA,-28.7336,-54.6478,1957-10-12,2019-08-31,63,1.2,53,15.9
02854006,PASSO VIOLA,75,GUARANI DAS MISSÕES,RIO GRANDE DO SUL,ANA,-28.2111,-54.6031,1959-08-25,2019-10-31,61,4.8,48,21.3
02854012,COIMBRA,75,SÃO MIGUEL DAS MISS,RIO GRANDE DO SUL,ANA,-28.7878,-54.4525,1976-09-24,2019-10-31,44,1.8,33,25.0
02855001,GARRUCHOS,75,GARRUCHOS,RIO GRANDE DO SUL,ANA,-28.1878,-55.6369,1949-03-24,2019-10-31,71,3.2,57,19.7
02855002,PASSO DO SARMENTO,75,SANTO ANTÔNIO DAS M,RIO GRANDE DO SUL,ANA,-28.2089,-55.3233,1957-10-21,2019-10-31,63,3.0,51,19.0
02950008,CAMISAS,86,CAMBARÁ DO SUL,RIO GRANDE DO SUL,ANA,-29.1083,-50.1875,1946-02-19,2019-10-31,74,4.6,65,12.2
02950019,LAJEADO GRANDE,86,SÃO FRANCISCO DE PA,RIO GRANDE DO SUL,ANA,-29.0994,-50.6308,1941-04-22,2019-10-31,79,4.1,72,8.9
02950028,ROLANTE,87,ROLANTE,RIO GRANDE DO SUL,ANA,-29.6508,-50.5728,1961-01-01,2019-07-31,59,7.6,53,10.2
02950033,SECA,86,CAXIAS DO SUL,RIO GRANDE DO SUL,ANA,-29.0719,-50.9739,1944-08-31,2019-10-31,76,4.3,70,7.9
02950034,SERRA DO PINTO,87,ITATI,RIO GRANDE DO SUL,ANA,-29.3758,-50.1803,1960-10-01,2019-10-31,60,5.7,52,13.3
02951017,JANSEN,86,FARROUPILHA,RIO GRANDE DO SUL,ANA,-29.3908,-51.8489,1962-11-01,2019-10-31,58,5.7,52,10.3
02951022,NOVA PALMIRA,87,CAXIAS DO SUL,RIO GRANDE DO SUL,ANA,-29.335,-51.1903,1943-04-28,2019-10-31,77,1.4,62,19.5
02951028,SAPUCAIA DO SUL,87,SAPUCAIA DO SUL,RIO GRANDE DO SUL,ANA,-29.82,-51.1611,1964-09-01,2019-10-31,56,2.8,44,21.4
02953008,DONA FRANCISCA,85,DONA FRANCISCA,RIO GRANDE DO SUL,ANA,-29.6244,-53.3519,1943-05-01,2019-10-31,77,3.2,66,14.3
02954001,CACEQUI,76,CACEQUI,RIO GRANDE DO SUL,ANA,-29.8786,-54.8253,1943-04-09,2019-10-31,77,1.2,69,10.4
02954004,ERNESTO ALVES,76,SANTIAGO,RIO GRANDE DO SUL,ANA,-29.3661,-54.7356,1959-07-17,2019-10-31,61,1.5,56,8.2
02954005,FURNAS DO SEGREDO,76,JAGUARI,RIO GRANDE DO SUL,ANA,-29.3589,-54.5019,1966-08-08,2019-10-31,54,1.7,46,14.8
02954007,JAGUARI,76,JAGUARI,RIO GRANDE DO SUL,ANA,-29.5069,-54.6775,1957-10-01,2019-08-31,63,1.8,50,20.6
02954030,FLORIDA,76,SANTIAGO,RIO GRANDE DO SUL,ANA,-29.2517,-54.5983,1983-01-21,2019-10-31,37,2.5,28,24.3
02955002,CACHOEIRA SANTA CECÍLIA,76,ITAQUI,RIO GRANDE DO SUL,ANA,-29.1961,-55.4753,1959-06-12,2019-10-31,61,4.7,50,18.0
02955008,MANOEL VIANA,76,MANOEL VIANA,RIO GRANDE DO SUL,ANA,-29.5939,-55.4858,1976-07-25,2019-10-31,44,1.6,33,25.0
02956006,PASSO MARIANO PINTO,76,ITAQUI,RIO GRANDE DO SUL,ANA,-29.3089,-56.0553,1969-10-17,2019-10-31,51,2.9,39,23.5
03051004,CERRO GRANDE,87,CERRO GRANDE DO SUL,RIO GRANDE DO SUL,ANA,-30.5939,-51.7567,1976-09-01,2019-10-31,44,2.7,33,25.0
03051011,PORTO ALEGRE,87,PORTO ALEGRE,RIO GRANDE DO SUL,INMET,-30.0536,-51.1733,1961-01-01,2019-06-30,59,2.1,52,11.9
03051016,CAMAQUÃ,87,CAMAQUÃ,RIO GRANDE DO SUL,ANA,-30.8658,-51.7958,1976-09-01,2019-10-31,44,6.9,35,20.5
03052007,PASSO DA GUARDA CEEE,87,ENCRUZILHADA DO SUL,RIO GRANDE DO SUL,ANA,-30.9064,-52.4619,1944-04-15,2019-10-31,76,5.1,69,9.2
03052009,PASSO SÃO JOSÉ,87,AMARAL FERRADOR,RIO GRANDE DO SUL,ANA,-30.8864,-52.2486,1943-11-24,2019-10-31,77,4.4,70,9.1
03052010,PORTO TARUMÃ,87,PIRATINI,RIO GRANDE DO SUL,ANA,-30.9342,-52.9428,1955-10-01,2019-10-31,65,5.1,59,9.2
03052011,QUITERIA,87,SÃO JERÔNIMO,RIO GRANDE DO SUL,ANA,-30.4189,-52.0736,1969-11-10,2019-10-31,51,1.9,42,17.6
03053007,LAVRAS DO SUL,87,LAVRAS DO SUL,RIO GRANDE DO SUL,ANA,-30.8175,-53.9014,1944-08-01,2019-10-31,76,4.3,70,7.9
03053017,PASSO DOS FREIRES,85,SÃO SEPÉ,RIO GRANDE DO SUL,ANA,-30.4353,-53.7125,1981-05-28,2019-10-31,39,2.6,32,17.9
03053020,SÃO SEPÉ MONTANTE,85,SÃO SEPÉ,RIO GRANDE DO SUL,ANA,-30.1936,-53.5644,1984-10-01,2019-10-31,36,2.4,29,19.4
03053022,CAÇAPAVA DO SUL,85,CAÇAPAVA DO SUL,RIO GRANDE DO SUL,ANA,-30.5194,-53.4917,1986-04-01,2019-10-31,34,2.7,27,20.6
03054007,ROSÁRIO DO SUL,76,ROSÁRIO DO SUL,RIO GRANDE DO SUL,ANA,-30.2469,-54.9175,1943-04-11,2019-10-31,77,6.2,58,24.7
03151002,PACHECA,87,CAMAQUÃ,RIO GRANDE DO SUL,ANA,-31.1303,-51.7886,1976-11-25,2019-10-31,44,3.6,34,22.7
03152002,BOQUEIRÃO,87,SÃO LOURENÇO DO SUL,RIO GRANDE DO SUL,ANA,-31.2839,-52.0831,1966-01-10,2019-10-31,54,2.7,44,18.5
03152003,CANGUÇU,88,CANGUÇU,RIO GRANDE DO SUL,ANA,-31.4044,-52.6733,1943-01-16,2019-10-31,77,5.9,60,22.1
03153003,PARAÍSO,87,BAGÉ,RIO GRANDE DO SUL,ANA,-31.2267,-53.9014,1956-01-19,2019-09-30,64,5.2,57,10.9
03153006,PASSO DA CAPELA,87,PIRATINI,RIO GRANDE DO SUL,ANA,-31.1342,-53.0539,1977-01-01,2019-10-31,43,2.3,36,16.3
03153008,PINHEIRO MACHADO,88,PINHEIRO MACHADO,RIO GRANDE DO SUL,ANA,-31.5775,-53.3769,1965-08-31,2019-09-30,55,2.5,46,16.4
03154003,TORQUATO SEVERO,76,DOM PEDRITO,RIO GRANDE DO SUL,ANA,-31.0283,-54.1789,1976-09-01,2019-10-31,44,2.6,34,22.7
03252006,GRANJA CERRITO,88,RIO GRANDE,RIO GRANDE DO SUL,ANA,-32.3506,-52.54,1964-08-01,2019-08-31,56,2.2,42,25.0
03252008,GRANJA SANTA MARIA,88,RIO GRANDE,RIO GRANDE DO SUL,ANA,-32.5381,-52.5386,1965-09-01,2019-08-31,55,4.4,45,18.2
03253001,ARROIO GRANDE,88,ARROIO GRANDE,RIO GRANDE DO SUL,ANA,-32.2372,-53.0897,1965-12-13,2019-10-31,55,4.1,42,23.6
08051002,MACAPÁ,19,MACAPÁ,AMAPÁ,INMET,0.045,-51.11,1967-12-01,2019-06-30,53,1.5,40,24.5
08051010,PORTO ARIRI,19,MACAPÁ,AMAPÁ,ANA,0.3031,-51.1267,1984-05-07,2019-09-30,36,1.1,27,25.0
08052000,SERRA DO NAVIO,30,SERRA DO NAVIO,AMAPÁ,ANA,0.8803,-52.0094,1972-05-01,2019-08-31,48,1.0,41,14.6
08059003,PCH JATAPU,16,CAROEBE,RORAIMA,ANA,0.9333,-59.3167,2000-01-01,2019-04-30,20,0.4,16,20.0
08062000,POSTO AJURICABA,14,BARCELOS,AMAZONAS,ANA,0.8842,-62.6222,1982-05-29,2019-06-30,38,1.5,31,18.4
08066002,BALAIO,14,SÃO GABRIEL DA CACH,AMAZONAS,ANA,0.3875,-66.6492,1989-02-13,2019-06-30,31,0.0,27,12.9
08067001,SÃO FELIPE,14,SÃO GABRIEL DA CACH,AMAZONAS,ANA,0.3711,-67.3136,1977-12-10,2019-06-30,43,0.4,38,11.6
08068000,TARAQUÁ,14,SÃO GABRIEL DA CACH,AMAZONAS,ANA,0.1314,-68.5406,1961-01-01,2019-06-30,59,1.8,48,18.6
08069004,PIRARARA POÇO,14,SÃO GABRIEL DA CACH,AMAZONAS,ANA,0.1428,-69.2133,1992-08-23,2019-06-30,28,1.0,23,17.9
08161001,CARACARAÍ,14,CARACARAÍ,RORAIMA,ANA,1.8214,-61.1236,1975-05-01,2019-09-30,45,3.4,34,24.4
08166000,CUCUÍ,14,SÃO GABRIEL DA CACH,AMAZONAS,ANA,1.2147,-66.8522,1980-07-22,2019-06-30,40,0.4,35,12.5
08167000,MISSÃO IÇANA,14,SÃO GABRIEL DA CACH,AMAZONAS,ANA,1.0742,-67.5933,1980-07-17,2019-06-30,40,0.0,37,7.5
08250002,CALÇOENE,30,CALÇOENE,AMAPÁ,ANA,2.4956,-50.9508,1975-03-18,2019-05-31,45,4.2,36,20.0
08261000,FÉ E ESPERANÇA,14,MUCAJAÍ,RORAIMA,ANA,2.8708,-61.4406,1975-02-24,2019-09-30,45,1.4,36,20.0
08261001,FAZENDA TRÊS PODERES,14,MUCAJAÍ,RORAIMA,ANA,2.2628,-60.9728,1989-02-13,2019-07-31,31,4.6,25,19.4
08351002,OIAPOQUE,30,OIAPOQUE,AMAPÁ,ANA,3.8436,-51.8375,1981-01-01,2019-05-31,39,4.9,31,20.5
08359000,BONFIM,14,BONFIM,RORAIMA,ANA,3.3783,-59.8156,1984-04-22,2019-07-31,36,0.3,30,16.7
08360000,MALOCA DO CONTÃO,14,PACARAIMA,RORAIMA,ANA,4.1667,-60.5289,1975-10-08,2019-06-30,45,1.5,35,22.2
08361001,BOQUEIRÃO,14,ALTO ALEGRE,RORAIMA,ANA,3.2906,-61.2881,1979-08-05,2019-07-31,41,1.0,36,12.2
08361004,COLÔNIA DO TAIANO,14,ALTO ALEGRE,RORAIMA,ANA,3.2872,-61.0883,1980-04-01,2019-06-30,40,1.2,34,15.0
